CalcLocation,Name,Address,City,State,Zip,formated_phone,Status,Icon,Type
"18.18193800,-67.13380200",FARMACIA LA SALUD,CALLE SAN IGNACIO 250,MAYAGUEZ,PR,6804625,787-832-6355,not participating,measle_white,Pharmacy
"18.16527300,-66.72258300",FARMACIA JENNY,MUNOZ RIVERA ESQ SAN JOAQUIN,ADJUNTAS,PR,601,787-829-2480,open,small_green,Pharmacy
"18.16527300,-66.72258300",FARMACIA PROFESIONAL,22 Barbosa St,ADJUNTAS,PR,601,787-829-3305,open,small_green,Pharmacy
"18.16350600,-66.72143400",FARMACIA RAMOS,CALLE MUNOZ RIVERA 26,ADJUNTAS,PR,6012234,787-829-2495,not participating,measle_white,Pharmacy
"18.16251600,-66.72444000",Farmacia Policlinica Castaner,Carr 123 km 35.7 Bo Garzas,Adjuntas,PR,601,787-829-5656,open,small_green,Pharmacy
"18.37985800,-67.18463500",FARMACIA DOMENECH LLC,CALLE COLON 228,AGUADA,PR,6023224,787-868-2135,open,small_green,Pharmacy
"18.37985800,-67.18463500",Farmacia La Salud,CALLE COLON #252,AGUADA,PR,602,787-868-8544,open,small_green,Pharmacy
"18.39310300,-67.18095300",FARMACIA COOPERATIVA DE AGUADA,BO ASOMANTE CARR 115 KM 24.6,AGUADA,PR,602,787-868-9495,not participating,measle_white,Pharmacy
"18.38178600,-67.18270600",NUESTRA FARMACIA,90 CALLE COLON,AGUADA,PR,6023113,787-868-2300,open,small_green,Pharmacy
"18.38030400,-67.18835200",FARMACIA DEL PUEBLO,Calle Marina 162 Calle Marina 162,AGUADA,PR,602,787-868-5890,not participating,measle_white,Pharmacy
"18.39310300,-67.18095300",FARMACIA AGUADA,CARR 417 KM 3 0 BO MALPASO,AGUADA,PR,6020991,787-868-6240,open,small_green,Pharmacy
"18.37985800,-67.18463500",FARMACIA HEIDI,CALLE COLON 260,AGUADA,PR,6022925,787-868-3710,open,small_green,Pharmacy
"18.37944900,-67.18550200",Nuestra Farmacia San Francisco,166 CALLE COLON,AGUADA,PR,602,787-868-4940,open,small_green,Pharmacy
"18.39310300,-67.18095300",FARMACIA ZARINET,CARR 417 KM 4.2 BO MAMEY,AGUADA,PR,602,787-252-1642,open,small_green,Pharmacy
"18.39310300,-67.18095300",Farmacia San Antonio,AVE NATIVO ALERS DESVIO SUR,AGUADA,PR,6020991,787-868-2805,open,small_green,Pharmacy
"18.39310300,-67.18095300",FARMACIA TU FAMILIA,CARR 416 KM 8 6 BO LAGUNA,AGUADA,PR,602,787-868-0959,open,small_green,Pharmacy
"18.37985800,-67.18463500",FARMACIA ALONDRA,CARR 115 KM 19 2 BO RIO GRANDE,AGUADA,PR,602,787-868-1377,open,small_green,Pharmacy
"18.39310300,-67.18095300",Farmacia Piedras Blancas,Carr 416 KM 0.9,Aguada,PR,602,787-252-5100,open,small_green,Pharmacy
"18.39310300,-67.18095300",Farmacia Oreste,Barrio Jaguey Carr.411 Km. 2.8,Aguada,PR,602,787-589-7281,open,small_green,Pharmacy
"18.37985800,-67.18463500",Farmacia Costa Caribe,Carr 115 Km 20.5,Aguada,PR,602,787-505-8405,open,small_green,Pharmacy
"18.45131900,-67.15139100","farmacia ferrari, inc",AVE SAN CARLOS ESQ JESUS T PINEIRO,AGUADILLA,PR,603,787-891-0007,open,small_green,Pharmacy
"18.45591300,-67.14578000",FARMACIA SAN CARLOS,URB SAN CARLOS 3 CALLE LOS ANGELES,AGUADILLA,PR,6035833,787-891-1830,open,small_green,Pharmacy
"18.45101900,-67.15137500",FARMACIA BELLO,18 CALLE LUIS MUNOZ RIVERA,AGUADILLA,PR,603,787-891-1825,not participating,measle_white,Pharmacy
"18.45131900,-67.15139100",FARMACIA LA MILAGROSA,AVE SAN CARLOS,AGUADILLA,PR,603,787-891-1060,open,small_green,Pharmacy
"18.45591300,-67.14578000",FARMA AHORROS,492 VICTORIA AVE,AGUADILLA,PR,603,787-891-9281,unknown,small_yellow,Pharmacy
"18.45591300,-67.14578000",FARMACIA EL EDEN,CARR 110 KM 22 7 BO CEIBO BAJA,AGUADILLA,PR,603,787-882-2000,open,small_green,Pharmacy
"18.45591300,-67.14578000",SUPER FARMACIA JAYLEEN,CARR 110 KM 0 3 BO CEIBA BAJA,AGUADILLA,PR,603,787-891-4738,open,small_green,Pharmacy
"18.45591300,-67.14578000",WALGREENS #177,CARR. #2 KM. 12907 BO VICTORIA VICTORIA PLAZA,AGUADILLA,PR,603,787-882-8044,open,small_green,Pharmacy
"18.45437400,-67.15395000",PORTA DEL SOL FARMA,148 PEDRO ALBIZU CAMPOS,AGUADILLA,PR,603,787-891-6835,open,small_green,Pharmacy
"18.45591300,-67.14578000",FARMACIA BORINQUEN,CARRETERA 107 KM 3.5 BO BORINQUEN,AGUADILLA,PR,603,787-891-5479,open,small_green,Pharmacy
"18.45591300,-67.14578000",FARMACIA MODELO,CARR 459 BDA CABAN 160 A,AGUADILLA,PR,603,787-891-4723,not participating,measle_white,Pharmacy
"18.42293800,-67.15465200","FARMACIA EL PALMAR, INC.",CARR 111 Km 1 8 BARRIO PALMAR,AGUADILLA,PR,603,787-891-9158,open,small_green,Pharmacy
"18.45591300,-67.14578000",KMART PHARMACY4732,"Carr, #2, Km. 126.5, Bo. Caimital Alto",AGUADILLA,PR,603,787-819-1805,not participating,measle_white,Pharmacy
"18.49551000,-67.09867100",FARMACIA FARMACITY,AVENIDO GENERAL RAMEY STE 1052,SAN ANTONIO,PR,690,787-890-3340,open,small_green,Pharmacy
"18.45591300,-67.14578000",MALEZA EXPRESS PHARMACY,CARR 110 KM 8.9 BO MALEZA,AGUADILLA,PR,603,787-890-5515,open,small_green,Pharmacy
"18.46516200,-67.14148600",FARMACIA SAGRADO CORAZON,CARR 2 KM 122,AGUADILLA,PR,605,787-882-0135,open,small_green,Pharmacy
"18.45591300,-67.14578000",FARMACIA BUEN SAMARITANO,CARR 2 KM 141 POINT 1 AVE SEVERIANO CUEVA NUMBER 18 CAIMITAL BAJO,AGUADILLA,PR,603,787-658-0000,open,small_green,Pharmacy
"18.46516200,-67.14148600",FARMACIA MI SUENO,CARR 2 KM 123 PT 7 BARRIO CAIMITAL ALTO,AGUADILLA,PR,605,787-891-6969,open,small_green,Pharmacy
"18.45591300,-67.14578000",FARMACIA PORTA SALUD INC,BO. CAMASEYES CARR. 459 KM 3.1,AGUADILLA,PR,603,787-891-8822,open,small_green,Pharmacy
"18.45591300,-67.14578000",ESTEVES EXPRESS PHARMACY,CARR 459 KM 2 7,AGUADILLA,PR,603,787-891-5151,open,small_green,Pharmacy
"18.46516200,-67.14148600",FARMACIA SAN ANTONIO,CARR 110 KM 6.2 BO MONTANO POBLADO SAN ANTONIO,AGUADILLA,PR,605,787-890-3535,open,small_green,Pharmacy
"18.45591300,-67.14578000",FARMACIA JIREH,CARR 2 KM 122 CAIMITAL ALTO,AGUADILLA,PR,603,787-882-7900,open,small_green,Pharmacy
"18.46516200,-67.14148600",WALGREENS #12664,CC PLAZA BORINQUEN CARR 107 KM 3 1,AGUADILLA,PR,605,787-819-1326,open,small_green,Pharmacy
"18.45591300,-67.14578000",FAMILY PHARMACY,"CARR 110 KM 9.8 BO MALEZA ALTA, GATE 5 PLAZA",AGUADILLA,PR,603,787-890-8822,open,small_green,Pharmacy
"18.49352000,-67.13588300",RAMEY SUPER PHARMACY,BELT 703 RAMEY SHOPPING CENTER,AGUADILLA,PR,604,787-890-5222,not participating,measle_white,Pharmacy
"18.45591300,-67.14578000",Walgreens,"CARR. 2 INT. 107,KM.125.5 BO.CAIMITAL BAJO",Aguadilla,PR,603,787-819-3930,open,small_green,Pharmacy
"18.50481900,-67.12848300",Farmacia Del Carmen,CALLE PROGRESO 258,AGUADILLA,PR,603,787-891-2015,open,small_green,Pharmacy
"18.25039800,-66.12845000",FARMACIA SAN ANTONIO,CALLE RAFAEL LASA 31,AGUAS BUENAS,PR,703,787-732-3131,open,small_green,Pharmacy
"18.25039800,-66.12845000",Farmacia AmÃ©rica,"CALLE SALAS TORRES 3,ESQUINA MUNOZ RIVERA",AGUAS BUENAS,PR,703,787-732-1020,open,small_green,Pharmacy
"18.25039800,-66.12845000",FARMACIA GENERICA RAMALLOSA,BO MULAS CARRETERA 174 KM 21 1,AGUAS BUENAS,PR,703,787-732-7900,open,small_green,Pharmacy
"18.25039800,-66.12845000",FARMACIA DEL PUEBLO,44 CALLE RAFAEL LASA,AGUAS BUENAS,PR,703,787-732-2272,open,small_green,Pharmacy
"18.25039800,-66.12845000",Farmacia Nueva Inc.,CARR 156 KM 49.0 BO SUMIDERO,AGUAS BUENAS,PR,703,787-732-4799,open,small_green,Pharmacy
"18.25039800,-66.12845000",Farmacia La monserrate,34 Calle Munoz Rivera,Aguas Buenas,PR,7033208,787-732-7744,open,small_green,Pharmacy
"18.13925700,-66.25440400",FARMACIA SAN JOSE,CALLE SAN JOSE STE 59,AIBONITO,PR,705,787-735-2401,open,small_green,Pharmacy
"18.14036200,-66.26682800",FARMACIA MARY,15 Calle Ramon Flores NO 15,AIBONITO,PR,7053602,787-735-8723,open,small_green,Pharmacy
"18.12809200,-66.26871700",SUPER FARMACIA SAN JOSE,300 SAN JOSE ST ESQ M SERRALLES,AIBONITO,PR,705,787-735-3025,open,small_green,Pharmacy
"18.13925700,-66.25440400",FARMACIA SAN ANTONIO,CALLE JULIO CINTRON #203,AIBONITO,PR,7050606,787-735-6391,open,small_green,Pharmacy
"18.12809200,-66.26871700",FARMACIA REY #14,STREET 722 KM 7.3 BO ROBLES RABANAL HAPPY PLAZA MALL,AIBONITO,PR,705,787-735-5200,open,small_green,Pharmacy
"18.14163600,-66.26451300",FARMACIA YAMILA,CALLE PEDRO ROSARIO 20 SUITE 5E EDIF PLAZA AIBONITO,AIBONITO,PR,705,787-735-2456,open,small_green,Pharmacy
"18.13925700,-66.25440400",FARMACIA UNITY,CALLE SAN JOSE 51 OESTE,AIBONITO,PR,705,787-735-2241,open,small_green,Pharmacy
"18.13925700,-66.25440400",FARMACIA HOSPITAL MENONITA,CALLE JOSE C VAZQUEZ KM 0 2,AIBONITO,PR,7051379,787-735-0384,open,small_green,Pharmacy
"18.12809200,-66.26871700",FARMACIA ANDREA,CARR 14 KM 46 5 BO ASOMANTE,AIBONITO,PR,705,787-735-1385,open,small_green,Pharmacy
"18.13808500,-66.27140600",Walgreens,"PR #14, KM 51.5 Bo Pueblo Sec Pueblo Norte",Aibonito,PR,705,787-991-7355,open,small_green,Pharmacy
"18.28868500,-67.13969600",FARMACIA DEL CARMEN,AVE 65 INFANTERIA 68,ANASCO,PR,6102902,787-826-2390,open,small_green,Pharmacy
"18.28279300,-67.14080800",FARMACIA BRAU,17 Calle San Antonio NUMERO 17,ANASCO,PR,6100144,787-826-4400,open,small_green,Pharmacy
"18.28361500,-67.13875500","FARMACIA SAGRADO CORAZON, INC",CARR 402 KM 6.1 BO PINALES,ANASCO,PR,610,787-826-3188,open,small_green,Pharmacy
"18.28361500,-67.13875500",FARMACIA LAS COLINAS,carr 402 km 2.9 Bo quebrada larga,ANASCO,PR,610,787-826-8888,open,small_green,Pharmacy
"18.28868500,-67.13969600",WALGREENS #1476,PR 2 AND PR 402,ANASCO,PR,610,787-826-1090,open,small_green,Pharmacy
"18.28868500,-67.13969600",SUPER FARMACIA LUVAMAR,Edif.Paseo del Rio Carr. 405 km. 0.9 Bo. Carreras,ANASCO,PR,610,787-826-9292,open,small_green,Pharmacy
"18.28868500,-67.13969600",FARMACIA TRES HERMANOS INC,CARR 401 KM 0.9 BO PLAYA,ANASCO,PR,610,787-826-6453,not participating,measle_white,Pharmacy
"18.28361500,-67.13875500",Farmacia Belmonte del Oeste,Carr. 402 KM 1.8 Bo. Marias,Anasco,PR,610,787-229-1150,open,small_green,Pharmacy
"18.28868500,-67.13969600",Farmacia Genesis,59 Calle Daguey,Anasco,PR,6102602,787-229-1313,open,small_green,Pharmacy
"18.28868500,-67.13969600",Farmacia Genesis II,CARR 109 KM 2 5 PLAZA SALCEDO,ANASCO,PR,610,787-826-4145,open,small_green,Pharmacy
"18.28868500,-67.13969600",FARMACIA IGUALDAD,67 CALLE 65 INFANTERIA,ANASCO,PR,610,787-826-2545,open,small_green,Pharmacy
"18.28868500,-67.13969600",Empresas Jireh,Carr 401 Km 0.9 Bo Playa,Anasco,PR,610,787-826-6453,not participating,measle_white,Pharmacy
"18.40223900,-66.71140000",WALGREENS,Carr 2 KM 160.1 Esq Car 343,Hormigueros,PR,612,787-831-9251,open,small_green,Pharmacy
"18.47147900,-66.71790700",FARMACIA MARILU,CALLE SAN FELIPE 165,ARECIBO,PR,6124605,787-878-1120,open,small_green,Pharmacy
"18.42967500,-66.67450600",FARMACIA KEITHA,CENTRO COMERCIAL VISTA AZUL,ARECIBO,PR,614,787-878-1800,open,small_green,Pharmacy
"18.40223900,-66.71140000",SUPER FARMACIA LOPEZ,BO JAREALITOS #62 CALLE 1,ARECIBO,PR,612,787-879-5058,open,small_green,Pharmacy
"18.45809300,-66.73273200",FARMACIA GREEN,CARR 635 KM 0.1 BO. DOMINGUITO,ARECIBO,PR,613,787-680-4000,open,small_green,Pharmacy
"18.40223900,-66.71140000",FARMACIA CENTRAL,211 AVE JOSE DE DIEGO,ARECIBO,PR,612,787-879-5284,open,small_green,Pharmacy
"18.40223900,-66.71140000",PROFESSIONAL PHARMACY,CARR NUM 2 KM 62 7 BARRIO SABANA HOYOS,ARECIBO,PR,612,787-881-2440,not participating,measle_white,Pharmacy
"18.40223900,-66.71140000",FARMACIA LOPEZ REFORMADA,418 Ave Jose De Diego,ARECIBO,PR,6124356,787-878-0535,not participating,measle_white,Pharmacy
"18.38226400,-66.62643800",Farmacia Sabana Hoyos,ROAD 639 KM 4.8,SABANA HOYOS,PR,688,787-881-4626,not participating,measle_white,Pharmacy
"18.47183700,-66.73495800",KMART PHARMACY7566,"Ave. Miramar #1400, Suite 18",ARECIBO,PR,612,787-879-3696,not participating,measle_white,Pharmacy
"18.40223900,-66.71140000",FARMACIA CDT POLICLINICA FAMILIAR FACTOR,CARR 2 KM 65 6 BO,ARECIBO,PR,612,787-881-9282,open,small_green,Pharmacy
"18.40223900,-66.71140000",FARMACIA SANTA ANA,CARR 2 KM 69 8 BARRIO SANTANA,ARECIBO,PR,612,787-881-2035,not participating,measle_white,Pharmacy
"18.42041300,-66.67197900",FARMACIA DEL PUEBLO,AVE SANTIAGO IGLESIAS 158,ARECIBO,PR,616,787-878-2450,open,small_green,Pharmacy
"18.40223900,-66.71140000",Super Farmacia Paco,Carr 662 Calle Marginal Bo. Santana,ARECIBO,PR,612,787-881-7872,open,small_green,Pharmacy
"18.40223900,-66.71140000",SUPER FARMACIA VISALMARY,CARR 638 KM 6 MIRAFLORES,ARECIBO,PR,612,787-650-3301,not participating,measle_white,Pharmacy
"18.40223900,-66.71140000",FARMACIA EL JUNCO,CARR 651 KM 2 5 SECTOR EL JUNCO BO HATO ARRIBA,ARECIBO,PR,612,787-650-2399,open,small_green,Pharmacy
"18.47901100,-66.69082900",ISLOTE DRUG INC,CARR 681 KM 4.3 BARRIO ISLOTE,ARECIBO,PR,612,787-815-2345,open,small_green,Pharmacy
"18.40223900,-66.71140000",FARMACIA DEL CARMEN,259 AVE JUAN ROSADO,ARECIBO,PR,6124857,787-878-3510,open,small_green,Pharmacy
"18.47491500,-66.72038200",Metro Pharmacy,VICTOR ROJAS II ZONA INDUSTRIAL CARR 129,ARECIBO,PR,612,787-816-2156,not participating,measle_white,Pharmacy
"18.44983300,-66.74149700",WALGREENS #1463,PR 10 AND SHOP CENTER,ARECIBO,PR,612,787-880-0384,open,small_green,Pharmacy
"18.40223900,-66.71140000",FARMACIA VICTORIA,Carr. 129 KM 5.0 Bo. HATO ARRIBA,ARECIBO,PR,6129613,787-878-6665,open,small_green,Pharmacy
"18.40223900,-66.71140000",FARMACIA LOS PINOS,EDIT F SOTO ZONA INDUSTRIAL CARR 2 KM 67 PT 7,ARECIBO,PR,612,787-881-3434,open,small_green,Pharmacy
"18.40223900,-66.71140000",WALGREENS,Carr 129 KM 43.9 Bo Hato Abajo,ARECIBO,PR,612,787-815-0785,open,small_green,Pharmacy
"18.40223900,-66.71140000",PROFESSIONAL PHARMACY,Ave. Catalina #104 Bo. Hato Abajo,Arecibo,PR,612,787-879-4770,not participating,measle_white,Pharmacy
"18.46253600,-66.73101400",SUPER FARMACIA VILLA TOLEDO,132 Calle Umbral Villa Toledo,Arecibo,PR,6129689,787-817-4747,not participating,measle_white,Pharmacy
"18.40223900,-66.71140000",FARMACIA VELEZ,683 Km 0.5 Bo. Factor 1,ARECIBO,PR,612,787-881-6300,open,small_green,Pharmacy
"18.40223900,-66.71140000",CVS Pharmacy #04081,Carr. PR-2 Km.77.6,Arecibo,PR,612,787-880-4240,open,small_green,Pharmacy
"18.40223900,-66.71140000",Farmacia Dominguito Inc.,carr 635 km 2.0,Arecibo,PR,612,787-879-1862,open,small_green,Pharmacy
"18.42967500,-66.67450600",Metro Pharmacy Arecibo,carretera 129 km 0.1 Hospital Cayetano Coll y Toste,Arecibo,PR,614,787-647-5745,not participating,measle_white,Pharmacy
"18.40223900,-66.71140000",Good Care Pharmacy Inc,carr #2 Km 68 Bo Santana,Arecibo,PR,612,787-878-9945,open,small_green,Pharmacy
"18.40223900,-66.71140000",Jireh Pharmacy,Bo. Hato Abajo Urb. San Rafael carr 492 km 5.7,Arecibo,PR,612,787-680-7778,open,small_green,Pharmacy
"18.40223900,-66.71140000",Farmacia 129,Carr 129 Km 0.7 Esq. Ave. Pedro Mora Bo Hato Abajo,Arecibo,PR,612,787-680-0029,open,small_green,Pharmacy
"18.45690700,-66.72526900",Farmacia CSM Arecibo,Calle Cervantes # 50,Arecibo,PR,612,787-680-2190,open,small_green,Pharmacy
"17.96498100,-66.06452300",FARMACIA DEL CARMEN,75 CALLE MORSE,ARROYO,PR,7142806,787-839-1769,open,small_green,Pharmacy
"17.96498100,-66.06452300",FARMACIA SAN CARLOS III,CALLE MORSE 212,ARROYO,PR,7142328,787-839-3095,open,small_green,Pharmacy
"17.96751000,-66.04138000",Farmacia Feliciano 3,URB JARDINES DE LAFAYETTE C-1 Calle A,ARROYO,PR,714,787-271-1691,open,small_green,Pharmacy
"17.96751000,-66.04138000",Walgreens,"Carr 3, KM 1 Palmas Ave Paseo, El Faro",Arroyo,PR,714,787-839-8505,open,small_green,Pharmacy
"18.45344200,-66.53920500",FARMACIA DEL CARMEN,32 CALLE GEORGETTI,BARCELONETA,PR,6170427,787-846-2170,open,small_green,Pharmacy
"18.45344200,-66.53920500",FARMACIA SAN FRANCISCO,CALLE GEORGETTI 24,BARCELONETA,PR,617,787-846-2630,open,small_green,Pharmacy
"18.45324000,-66.53907500",FARMACIA SAN MARTIN BARCELONTA,9 Calle Georgetti,BARCELONETA,PR,6172712,787-846-3474,open,small_green,Pharmacy
"18.44709200,-66.54425500",FARMACIA ORTEGA,GEORGETTI 13,BARCELONETA,PR,617,787-846-2410,open,small_green,Pharmacy
"18.44709200,-66.54425500",BARCELONETA PRIMARY HEALTH SERVICES,CARR NUMBER 2M KM 57 8,BARCELONETA,PR,617,787-846-4412,open,small_green,Pharmacy
"18.44709200,-66.54425500",FARMACIA ESTRELLA 2,CARR 2 KM 57 1,BARCELONETA,PR,617,787-846-4583,open,small_green,Pharmacy
"18.45745700,-66.60410100",FARMACIA GARROCHALES,CARR 682 KM 3.3 BO GARROCHALES,BARCELONETA,PR,617,787-621-6500,not participating,measle_white,Pharmacy
"18.45069700,-66.54042400",FARMACIA LA NUEVA BARCELONETA,"CARR 140 KM 67.5 BO FLORIDA AFUERA, LLANADAS",BARCELONETA,PR,617,787-970-3542,open,small_green,Pharmacy
"18.45069700,-66.54042400",Pharmamed Pharmacy,CARR 140 KM 63.4 BO FLORIDA AFUERA,BARCELONETA,PR,617,787-846-7100,open,small_green,Pharmacy
"18.45325300,-66.53955300",FARMACIA BARCELONETA,CALLE JUAN T PUIG Ste 1,BARCELONETA,PR,617,787-846-0125,not participating,measle_white,Pharmacy
"18.44709200,-66.54425500",WALGREENS #7564,"Carr. 2, Interseccion Carr. 140 Bo. Manati Abajo",Barceloneta,PR,617,787-846-6829,open,small_green,Pharmacy
"18.44709200,-66.54425500",WalMart Pharmacy 10-2302,Carr 2 KM56.80,Barceloneta,PR,617,787-970-8107,open,small_green,Pharmacy
"18.45069700,-66.54042400",Tu Farmacia,Carr 140 Km 63.4 Bo. Magueyes,Barceloneta,PR,617,787-846-4848,open,small_green,Pharmacy
"18.44709200,-66.54425500",FARMACIA CARIDAD OUTLET,Carr 2 Km 54.6 Interior Prime Outlets Boulevard Local 2,Barceloneta,PR,617,787-786-6385,open,small_green,Pharmacy
"18.44709200,-66.54425500",Farmacia GenRx of Puerto Rico,1 Calle Tomas Davila,Barceloneta,PR,6172798,844-637-1810,not participating,measle_white,Pharmacy
"18.20089800,-66.30723600",FARMACIA CENTRAL,CALLE BARCELO 96,BARRANQUITAS,PR,7941698,787-857-2750,open,small_green,Pharmacy
"18.20089800,-66.30723600",FARMACIA PEDRAZA INC,CALLE BARCELO 14,BARRANQUITAS,PR,7941734,787-857-4635,open,small_green,Pharmacy
"18.20089800,-66.30723600",FARMACIA GABRIELA,CAR 156 KM 14.6 LA VEGA,BARRANQUITAS,PR,7941631,787-857-0775,not participating,measle_white,Pharmacy
"18.20089800,-66.30723600",FARMACIA DEL PUEBLO,CARR. 156 KM 16.8 SECTOR EL PORTON,BARRANQUITAS,PR,794,787-857-3035,open,small_green,Pharmacy
"18.20089800,-66.30723600",FARMACIA REY #24,CARR 156 KM 13 4 BARRIO PALO HINCADO,BARRANQUITAS,PR,794,787-857-3980,open,small_green,Pharmacy
"18.20089800,-66.30723600",FARMACIA DIAZ,CARRETERA 152 KM 2.8 BARRIO QUEBRADILLAS,BARRANQUITAS,PR,794,787-857-7954,open,small_green,Pharmacy
"18.20089800,-66.30723600",Farmacia Carimas,Carretera 152 Km 8.0 Barrio Quebradillas,Barranquitas,PR,794,787-857-8800,not participating,measle_white,Pharmacy
"18.20089800,-66.30723600",BEST PHARMACY,CARR 771 KM 5 3 BO BARRANCA,BARRANQUITAS,PR,794,787-857-5522,open,small_green,Pharmacy
"18.37299500,-66.17977500",WALGREENS,CARR. 167 CALLE MARGINAL OESTE PLAZA TROPICAL BO. CERRO GORDO,BAYAMON,PR,956,787-395-7480,open,small_green,Pharmacy
"18.32670200,-66.17417600",SUPER FARMACIA CENTRAL,"CARRETERA 167 KM 10.6, BARRIO DAJAOS",BAYAMON,PR,956,787-797-5555,open,small_green,Pharmacy
"18.38705800,-66.15904400",FARMACIA PLAZA 2,marginal d 32 ext forest hills,bayamon,PR,959,787-620-9602,open,small_green,Pharmacy
"18.38876100,-66.18596000","FARMACIA LOUDGAR, RODRIGUEZ SANTOS.INC",135 Calle Los Millones,BAYAMON,PR,957,787-785-2001,open,small_green,Pharmacy
"18.32670200,-66.17417600",FARMACIA MAGDA,uu48 Calle 37,BAYAMON,PR,9564789,787-786-0755,open,small_green,Pharmacy
"18.37323700,-66.17995300",Farmacia Cristina 5,246 COMERIO ST,BAYAMON,PR,9595358,787-785-3050,open,small_green,Pharmacy
"18.39831000,-66.15944800",FARMACIA PLAZA 1,CALLE DR VEVE 76,BAYAMON,PR,961,787-620-9601,open,small_green,Pharmacy
"18.41319500,-66.16865100",FARMACIA PLAZA 3,57 BARBOSA STREET,BAYAMON,PR,961,787-620-9603,open,small_green,Pharmacy
"18.36664500,-66.18390700",SUPER FARMACIA SANTA MONICA,URB SANTA MONICA A 17 CALLE 13,BAYAMON,PR,957,787-786-0455,open,small_green,Pharmacy
"18.32670200,-66.17417600",FARMACIA PLAZA 4,RIVERVIEW #2 BLQ.L2 C/10,BAYAMON,PR,956,787-620-9604,open,small_green,Pharmacy
"18.41319500,-66.16865100",WALGREENS,DRIVE IN PLAZA CARR 2 AND LOS DOMINICOS,BAYAMON,PR,961,787-785-9176,open,small_green,Pharmacy
"18.37323700,-66.17995300",FARMACIA PLAZA 13,CARR 167 KM 15 4 BO BUENA VISTA,BAYAMON,PR,957,787-620-9613,open,small_green,Pharmacy
"18.37299500,-66.17977500",WALGREENS,Carr 167 KM 18.8 Urb Rexville,BAYAMON,PR,956,787-799-4699,open,small_green,Pharmacy
"18.38876100,-66.18596000",La Nueva Mariana,CALLE 9 L 2 REXVILLE,BAYAMON,PR,9572512,787-797-3969,open,small_green,Pharmacy
"18.38705800,-66.15904400",Farmacia Cristina,200 AVE ORQUIDEA 5 RPTO VALENCIA,BAYAMON,PR,959,787-786-1084,open,small_green,Pharmacy
"18.41319500,-66.16865100",FARMACIA PLAZA 6,Centro Comercial CANTON MALL,BAYAMON,PR,961,787-620-6906,open,small_green,Pharmacy
"18.34487000,-66.16601400",FARMACIA PLAZA 15,AVE LOS DOMINICOS ESQ CALLE 25 URB MIRAFLORES,BAYAMON,PR,958,787-620-9615,open,small_green,Pharmacy
"18.37299500,-66.17977500",WALGREENS #11430,"CARR 167, ESQUINA  PR 22 BO JUAN SANCHEZ",BAYAMON,PR,959,787-795-8436,open,small_green,Pharmacy
"18.38730400,-66.14615600",Farmacia La Familia,Carr 174 Esq Calle 10 Barrio Juan Sanchez 153A,Bayamon,PR,959,787-798-4533,open,small_green,Pharmacy
"18.36664500,-66.18390700",FARMARKET BELLA VISTA,1 Bella Vista   Comm Ctr STE 1A,BAYAMON,PR,957,787-797-2709,open,small_green,Pharmacy
"18.41691900,-66.14579500",BAYAMON MEDICAL PHARMACY AND CAFETERIA INC,CARR 2 KM 11 2 BAYAMON MED PLAZA,BAYAMON,PR,960,787-786-8221,open,small_green,Pharmacy
"18.41563200,-66.17181300",FARMACIA PARQUE,CALLE PARQUE 6,BAYAMON,PR,9616125,787-785-7284,open,small_green,Pharmacy
"18.37299500,-66.17977500",FARMACIA IDELISSE,CARR 167 KM 9.5 BO DAJAOS,BAYAMON,PR,956,787-730-3508,open,small_green,Pharmacy
"18.38705800,-66.15904400",FARMACIA GUISTI,Villa Rica AJ16 Sonia St,BAYAMON,PR,9594918,787-785-5487,open,small_green,Pharmacy
"18.32670200,-66.17417600",Farmacias Caridad,Bo. Hato Tejas CARR 862 KM 1.9 Bayamon,BAYAMON,PR,956,787-269-3140,open,small_green,Pharmacy
"18.36575600,-66.17041000",FARMACIA PLAZA 9,AVE LAS CUMBRES X 1,BAYAMON,PR,957,787-620-9609,open,small_green,Pharmacy
"18.37038200,-66.15493200",WALGREENS,AVE LAUREL  G1 SANTA JUANITA,BAYAMON,PR,956,787-269-4250,open,small_green,Pharmacy
"18.40144400,-66.19174600",FARMACIA SAN PABLO,CALLE SANTA CRUZ 68 SUITE 2,BAYAMON,PR,960,787-620-4747,open,small_green,Pharmacy
"18.41319500,-66.16865100",BIG SAVE PHARMACY,Ave West Main Blq 51 #30 Sierra Bayamon,BAYAMON,PR,961,787-740-8065,open,small_green,Pharmacy
"18.41550700,-66.16197000",KMART PHARMACY7570,"Ave. Comerio, Plaza Rio Hondo",Bayamon,PR,961,787-795-5088,not participating,measle_white,Pharmacy
"18.37323700,-66.17995300",KMART PHARMACY7788,"Carr. 167, Ave. Las Cumbres, Plaza Mayor LAS CIMBRES, PLAZA MAYOR",Bayamon,PR,957,787-730-2615,open,small_green,Pharmacy
"18.32670200,-66.17417600",FARMACIA SANTA TERESITA,Urb. Santa Juanita UU-1 Calle 39 PMB 592,BAYAMON,PR,956,787-786-8692,open,small_green,Pharmacy
"18.41319500,-66.16865100",SUPER FARMACIA LA ECONOMIA,AVE GILBERTO CONCEPCION DE GARCIA BLOQUE 28 20 URB SIERRA BAYAMON,BAYAMON,PR,961,787-786-9610,not participating,measle_white,Pharmacy
"18.34798400,-66.14251200",FARMACIA VALLEMAR,Z1 AVE CARLOS J ANDALUZ URB. LOMAS VERDES,BAYAMON,PR,956,787-785-2458,open,small_green,Pharmacy
"18.37299500,-66.17977500",WALGREENS,1000 CARR. 167 SUITE 2,BAYAMON,PR,959,787-787-9033,open,small_green,Pharmacy
"18.36664500,-66.18390700",WALGREENS #289,350 CARR 830,BAYAMON,PR,957,787-279-8202,open,small_green,Pharmacy
"18.38705800,-66.15904400",Farmacia Cristina- Los Filtros,AVE CASA LINDA 1 CARR.177 KM 2. 0 LOS FILTROS SUITE 101,BAYAMON,PR,959,787-272-4998,open,small_green,Pharmacy
"18.32670200,-66.17417600",FARMACIA PLAZA 12,AVE IRLANDA DJ-8 10MA SECCION SANTA JUANITA,BAYAMON,PR,956,787-620-9612,open,small_green,Pharmacy
"18.32670200,-66.17417600",FARMACIA SANTA OLAYA,CARRETERA 829 KM 6. 7 BO SANTA OLAYA,BAYAMON,PR,956,787-797-4966,not participating,measle_white,Pharmacy
"18.36518900,-66.17117200",FARMACIA TANON,IL-26 AVE NOGAL ROYAL PALM,BAYAMON,PR,956,787-779-6173,unknown,small_yellow,Pharmacy
"18.38705800,-66.15904400",WALGREENS #936,100 BOULEVARD AVE RTE 17,SANTA ROSA BAYAMON,PR,959,787-740-1704,open,small_green,Pharmacy
"18.41319500,-66.16865100",COSTCO PHARMACY,2399 ROUTE 2,BAYAMON,PR,961,787-474-6929,open,small_green,Pharmacy
"18.38705800,-66.15904400",COSTCO PHARMACY #363,CARR 177 ESQ CALLE 24,BAYAMON,PR,959,787-993-9310,open,small_green,Pharmacy
"18.41319500,-66.16865100",SAMS PHARMACY 10-6680,Plaza Del Parque 1500 Suite 120 Ave. Comerio,BAYAMON,PR,961,787-740-0660,open,small_green,Pharmacy
"18.41319500,-66.16865100",WALMART PHARMACY 10-2501,725 Ave West Main Centro Comercial Plaza Del Sol,BAYAMON,PR,9614470,787-740-0730,open,small_green,Pharmacy
"18.38578900,-66.14505100",FARMACIA MONTE VERDE,CARR 174 KM 10.2 LA MORENITA Bo Guaraguao,BAYAMON,PR,956,787-780-7383,open,small_green,Pharmacy
"18.36922300,-66.16580700",Farmacia San Lazaro,AVE SANTA JUANITA WP 2,BAYAMON,PR,956,787-251-5930,open,small_green,Pharmacy
"18.35428000,-66.15841800",WALGREENS #12653,AVE HOSTOS ESQ CARR 831,BAYAMON,PR,956,787-778-4962,open,small_green,Pharmacy
"18.38187000,-66.18563900",WALGREENS #11230,"CARR. 861, BO. PAJAROS",BAYAMON,PR,957,787-966-7447,open,small_green,Pharmacy
"18.38876100,-66.18596000",Farmacia Cristina-Flamingo,Calle BB Local C-11 Centro Commerical Santa Elena,Bayamon,PR,957,787-780-3005,not participating,measle_white,Pharmacy
"18.38705800,-66.15904400",Farmacia Caney,J-23 AVE. BETANCES URB HERMANAS DAVILA,BAYAMON,PR,959,787-778-5313,open,small_green,Pharmacy
"18.41319500,-66.16865100",CVS Pharmacy #04594,Carr PR -2 Int Calle Morales Barrio Hato Tejas,Bayamon,PR,961,787-740-2850,open,small_green,Pharmacy
"18.37323700,-66.17995300",CVS Pharmacy #04596,Carr. PR 167 Int. PR 829,Bayamon,PR,957,787-730-3580,open,small_green,Pharmacy
"18.38500900,-66.17354200","SANTA CRUZ PHARMA CARE, LLC","73 Calle Santa Cruz SANTA CRUZ MEDICAL BUILDING, 101",Bayamon,PR,9616910,787-798-4646,open,small_green,Pharmacy
"18.35052300,-66.15800000",CVS Pharmacy #05219,Calle Marginal # 600 Urb Flamboyan Gardens,Bayamon,PR,956,787-785-0411,open,small_green,Pharmacy
"18.42630900,-66.16909500",Farmacia San Antonio,103 Calle Antonio Principe Urb Fronteras,Bayamon,PR,9613200,787-795-6000,not participating,measle_white,Pharmacy
"18.36664500,-66.18390700",Farmacia Caridad #6,Victory Shopping Center PR-167 km 2.6,Bayamon,PR,957,787-740-4000,open,small_green,Pharmacy
"18.36664500,-66.18390700",Farmacia Alborada,B2 Calle Castiglioni Urb Bayamon Gdns,Bayamon,PR,9572520,787-799-7810,open,small_green,Pharmacy
"18.36664500,-66.18390700",CVS Pharmacy,1 Rexville Plz Ste 13,Bayamon,PR,9574156,787-797-2950,open,small_green,Pharmacy
"18.32670200,-66.17417600",FARMACIA PLAZA 18,Ave. Nelson Martinez Esq. Ave. Nogal Urb. Lomas Verdes,Bayamon,PR,956,787-620-9618,open,small_green,Pharmacy
"18.41319500,-66.16865100",Farmacia Asturias,"Ave. Ramon L. Rivera, Urb. Riverview Bloq ZA-6 Calle 36",Bayamon,PR,961,787-787-4606,open,small_green,Pharmacy
"18.36726100,-66.16946600",Farmacia Lomas Verdes Inc,1-A-6 Ave. Lomas Verdes Royal Palm,Bayamon,PR,956,787-787-2275,not participating,measle_white,Pharmacy
"18.36664500,-66.18390700",Farmacias Savia #3,Int 199 and 167 Rexville Town Center Local 30,Bayamon,PR,957,787-805-3505,open,small_green,Pharmacy
"18.08727400,-67.14549800",FARMACIA ENCARNACION,45 CALLE MUNOZ RIVERA,CABO ROJO,PR,6234041,787-851-1250,not participating,measle_white,Pharmacy
"18.08904500,-67.14675700",FARMACIA IRIZARRY LLC,CALLE BARBOSA 38,CABO ROJO,PR,623,787-851-1270,open,small_green,Pharmacy
"18.06220100,-67.14954100",FARMACIA TU FAVORITA,MUNOZ RIVERA 59,CABO ROJO,PR,623,787-851-1260,open,small_green,Pharmacy
"17.99853100,-67.18731800",FARMACIA CALDAS,CARR 101 KM 18 1,BOQUERON,PR,622,787-851-2079,open,small_green,Pharmacy
"18.08834600,-67.14707400",Farmacia Yary Am,CALLE SALVADOR BRAU # 44,CABO ROJO,PR,623,787-851-1275,not participating,measle_white,Pharmacy
"17.99853100,-67.18731800",FARMACIA CUQUIMAR INC,STREET 101 KM 16 2,BOQUERON,PR,622,787-255-6551,open,small_green,Pharmacy
"18.08653600,-67.12275900",Farmacia Belmonte #3,Carr. 102 Centro Profesional Borinquen Urb. Borinquen,Cabo Rojo,PR,623,787-851-1500,not participating,measle_white,Pharmacy
"17.97900600,-67.20742700",FARMACIA EL COMBATE INC,CARR 3301 KM 2.0 Sector EL COMBATE,BOQUERON,PR,622,787-851-8123,not participating,measle_white,Pharmacy
"18.06220100,-67.14954100",Farmacia One Stop Prescription,CARR 100 KM 7 1 CABO ROJO SHOPPING CTR,CABO ROJO,PR,623,787-255-3636,not participating,measle_white,Pharmacy
"18.09578600,-67.14964800",Pharma100 Express,Carr. 311 Km. 3.2 Interseccin 100,Cabo Rojo,PR,623,787-851-2615,not participating,measle_white,Pharmacy
"17.99853100,-67.18731800",Ed's Pharmacy,rd 307 km 4.8,boqueron,PR,622,787-255-0485,open,small_green,Pharmacy
"18.08321400,-67.15046300",Walgreens,"CARR. 308, KM. 0.7 INTERSECCION 100 BO Pedernales",Cabo Rojo,PR,6234877,787-851-3363,open,small_green,Pharmacy
"18.06220100,-67.14954100",Farmacia La 100,Carr 100 km 5.8 Bo. Miradero,Cabo Rojo,PR,623,939-910-7910,not participating,measle_white,Pharmacy
"18.06220100,-67.14954100",Pharmamax Cabo Rojo,Carr 100 Km. 6.6 Bo. Miradero,Cabo Rojo,PR,623,787-808-5040,open,small_green,Pharmacy
"18.21881900,-66.04237500",WALGREENS,INT.PR-1 Y PR-34 AVE. DEGETAU,CAGUAS,PR,725,787-704-6500,open,small_green,Pharmacy
"18.21881900,-66.04237500",FARMACIA BETANCES,83 BETANCES ST,CAGUAS,PR,7253514,787-743-2000,open,small_green,Pharmacy
"18.21296500,-66.05803300",FARMACIA JAYNI,CARR 189 KM 2 2,CAGUAS,PR,726,787-745-9567,open,small_green,Pharmacy
"18.22527700,-66.05699100",FARMACIA BAIROA,CALLE LA PINTA BF-15 AVE. BAIROA,BAIROA CAGUAS,PR,7251472,787-744-9164,open,small_green,Pharmacy
"18.21881900,-66.04237500",FARMACIA TURABO GARDENS,CENTRO COMERCIAL TURABO GARDNS,CAGUAS,PR,725,787-744-6690,not participating,measle_white,Pharmacy
"18.23369600,-66.03203600",FARMACIA RIMARI,CALLE RUIZ BELVIS 49 CENTRO URBANO,CAGUAS,PR,725,787-744-1441,open,small_green,Pharmacy
"18.21881900,-66.04237500",SU FARMACIA AMIGA INC.,Ave Las Americas BU-1 Res Bairoa,CAGUAS,PR,725,787-743-6434,open,small_green,Pharmacy
"18.21881900,-66.04237500",Farmacia Caridad,PLAZA DEL CARMEN MALL 2ND  NIVEL,CAGUAS,PR,725,787-743-1273,open,small_green,Pharmacy
"18.21881900,-66.04237500",FARMACIA RUIZ BELVIS DE CAGUAS,AVENIDA RAFAEL CORDERO  17,CAGUAS,PR,725,787-746-4919,open,small_green,Pharmacy
"18.21296500,-66.05803300",FARMACIA SAN ARCANGEL,APARTADO 863 MUNOX RIVERA NO 2,CAGUAS,PR,726,787-744-3400,open,small_green,Pharmacy
"18.21881900,-66.04237500",FARMACIA ARLEEN,CARR 172 ESQ ASTURIAS 3RA SECC VILLA DEL REY,CAGUAS,PR,725,787-746-5952,open,small_green,Pharmacy
"18.21881900,-66.04237500",WALGREENS #338,RT 30 CORDERO AVE,CAGUAS,PR,725,787-745-0290,open,small_green,Pharmacy
"18.21881900,-66.04237500",FARMACIA VILLA CARMEN,AVE LUIS MUNOZ MARIN Q48 URB VILLA CARMEN,CAGUAS,PR,725,787-743-3365,open,small_green,Pharmacy
"18.22527700,-66.05699100",FARMACIA VILLAS DE CASTRO INC.,CALLE 2 A18 VILLAS DE CASTRO,CAGUAS,PR,725,787-746-0962,open,small_green,Pharmacy
"18.24059800,-66.02746200",FARMACIA SANTA ANA,CALLE 32 A 1,CAGUAS,PR,725,787-746-7757,not participating,measle_white,Pharmacy
"18.21881900,-66.04237500",FARMACIA HIMA San Pablo-Caguas,Ave. Luis M Marin Hima Plaza 1 Suite 200,CAGUAS,PR,725,787-653-1773,open,small_green,Pharmacy
"18.21881900,-66.04237500",Farmacia Modelo,MUNOZ RIVERA 4,CAGUAS,PR,725,787-743-3975,not participating,measle_white,Pharmacy
"18.21881900,-66.04237500",KMART PHARMACY7419,"Carr. #30, Ave. Rafael Cordero",CAGUAS,PR,725,787-746-5212,open,small_green,Pharmacy
"18.22291500,-66.04043900",CAGUAS SUPER PHARMACY,AVE DEGETAU ESQ LAS PREDRAS VV1 BONNEVILLE,CAGUAS,PR,7267139,787-746-3814,open,small_green,Pharmacy
"18.22527700,-66.05699100",FARMACIA CAGUAS CENTRO,CALLE DR GOYCO 10,CAGUAS,PR,725,787-746-0776,open,small_green,Pharmacy
"18.23480000,-66.03342500",FARMACIA LA FE,24 Calle Acosta,CAGUAS,PR,725,787-743-2785,not participating,measle_white,Pharmacy
"18.21881900,-66.04237500",FARMACIA SANTA ANA INC,39 PASEO GAUTIER BENITEZ,CAGUAS,PR,725,787-743-5935,not participating,measle_white,Pharmacy
"18.21881900,-66.04237500",FARMACIA DOMINGUEZ,BO RIO CANAS CARR 798 KM 5,CAGUAS,PR,725,787-746-1515,open,small_green,Pharmacy
"18.21881900,-66.04237500",SAMS PHARMACY 10-6689,Plaza Centro II Ave. Munoz Marin,CAGUAS,PR,725,787-746-1039,open,small_green,Pharmacy
"18.21881900,-66.04237500",WALGREENS #509,101 CARR 1,CAGUAS,PR,725,787-744-2905,open,small_green,Pharmacy
"18.22291500,-66.04043900",FARMACIA CAGUAS-DEGETAU,AVE DEGETAU A-1 BONNEVILLE TERRACE,CAGUAS,PR,725,787-743-7525,open,small_green,Pharmacy
"18.23369600,-66.03203600",FARMACIA OLIMPIA,CALLE RUIZ BELVIS NO 41,CAGUAS,PR,725,787-743-3084,not participating,measle_white,Pharmacy
"18.21881900,-66.04237500",COSTCO PHARMACY #365,AVENIDA RAFAEL CORDERO PLAZA CENTRO MALL II,CAGUAS,PR,725,787-653-6929,open,small_green,Pharmacy
"18.23013500,-66.05484800",WALGREENS #2762,CARR #1 KM 39.3,CAGUAS,PR,727,787-286-8242,open,small_green,Pharmacy
"18.23209400,-66.03179800",WALMART PHARMACY 10-2449,RAFAEL CORDERO AVE 301,CAGUAS,PR,725,787-286-8460,open,small_green,Pharmacy
"18.21881900,-66.04237500",WALGREENS,LAS CATALINAS MALL AVE ZAFIRO INT RING RD CARR 52 BO PUEBLO,CAGUAS,PR,725,787-746-0020,open,small_green,Pharmacy
"18.23209400,-66.03179800",Farmacia Rey # 6,Ave. Rafael Cordero Final Esquina Troche Y Santiago,Caguas,PR,725,787-743-0530,open,small_green,Pharmacy
"18.23734900,-66.01880000",Farmacia Santa Juana,"Ave Luis MuÃ±oz MarÃ­n Calle 12, J-1",Caguas,PR,725,787-743-3503,open,small_green,Pharmacy
"18.21296500,-66.05803300",KMART PHARMACY4858,"CARR. PR 156 KM. 54, LAS CATALINAS MALL Las Catalinas Mall, Local 4858",Caguas,PR,726,787-745-6344,not participating,measle_white,Pharmacy
"18.21881900,-66.04237500",farmacia condado moderno,N6 Calle 9,Caguas,PR,7254628,787-961-8131,not participating,measle_white,Pharmacy
"18.21881900,-66.04237500",Farmacia Profesional,QUADRANGLE MEDICAL CENTER STE 104 AVE LUIS MUNOZ MARIN 50,CAGUAS,PR,725,787-258-3880,open,small_green,Pharmacy
"18.23126300,-66.03515900",CVS Pharmacy #07969,191 Calle Gautier Benitez,Caguas,PR,7255509,787-703-3081,open,small_green,Pharmacy
"18.21881900,-66.04237500","Farmacia Valle Tolima, Inc.",Del Rio Shopping Center Valle Tolima,Caguas,PR,725,787-653-8778,open,small_green,Pharmacy
"18.21881900,-66.04237500",Farmacia Jireh,Carretera 172 km 20.9,Caguas,PR,725,787-744-4433,open,small_green,Pharmacy
"18.21881900,-66.04237500",SPS SPECIALTY PHARMACY SERVIECES INC,75 Ave Luis Munoz Marin PLAZA NOTRE DOME,Caguas,PR,7253856,787-704-2025,not participating,measle_white,Pharmacy
"18.21881900,-66.04237500",FARMACIA TU FAMILIA,C11 Ave Jose Villares,Caguas,PR,7252665,787-961-9796,not participating,measle_white,Pharmacy
"18.21881900,-66.04237500",Farmacia y Gift Shop Menonita,Carr. 172 Caguas a Cidra Urb. Turabo Gardens,Caguas,PR,725,787-653-0550,open,small_green,Pharmacy
"18.21881900,-66.04237500",Consolidated Pharmacy,Consolidated Mall Local C-24,Caguas,PR,725,787-957-2388,open,small_green,Pharmacy
"18.47789100,-66.85477000",Farmacia Nueva,CALLE MUNOZ RIVERA 16,CAMUY,PR,627,787-820-6892,open,small_green,Pharmacy
"18.47789100,-66.85477000",FARMACIA MORELL CORP,1 AVENIDA MUNOZ RIVERA STE 1,CAMUY,PR,627,787-898-3045,open,small_green,Pharmacy
"18.47789100,-66.85477000",FARMACIA NEREIDA,Carr 486 km. 16.3 Bo. Quebrada,CAMUY,PR,6279120,787-898-7999,not participating,measle_white,Pharmacy
"18.48436700,-66.84724900",FARMACIA SOLMARI,CARR 119 KM 3 BO PUENTES SECTOR LA ZARZA,CAMUY,PR,627,787-898-5873,open,small_green,Pharmacy
"18.48436700,-66.84724900",YUMAC DRUGS,AVE MUNOZ RIVERA 7 STE 3,CAMUY,PR,627,787-898-3530,not participating,measle_white,Pharmacy
"18.47789100,-66.85477000",FARMACIA SAN JOSE,CARR NO 2 KM 93 1 MEMBRILLO,CAMUY,PR,6279713,787-898-2226,not participating,measle_white,Pharmacy
"18.47789100,-66.85477000",FARMACIA CENTRAL,12 CALLE INFANZON,CAMUY,PR,6272611,787-898-3447,open,small_green,Pharmacy
"18.48436700,-66.84724900",CAMUY HEALTH SERVICES INC,MUNOZ RIVERA 63,CAMUY,PR,627,787-898-2660,open,small_green,Pharmacy
"18.48436700,-66.84724900",FARMACIA BORIKEN,Carr. 119 Km. 9.0,CAMUY,PR,627,787-820-2148,open,small_green,Pharmacy
"18.47789100,-66.85477000",FARMACIA RIOS,CARR 2 INTERIOR KM 90,CAMUY,PR,627,787-262-5454,open,small_green,Pharmacy
"18.47789100,-66.85477000",Farmacia Yadania,carr 486 km 2.0 bo Zanjas,Camuy,PR,627,787-262-7300,not participating,measle_white,Pharmacy
"18.47789100,-66.85477000",Walgreens,"CARR. PR #2, KM. 93.7, BO. MEMBRILLO",Camuy,PR,6279651,787-262-7870,open,small_green,Pharmacy
"18.33309300,-65.88386400",FARMACIA OLIVERO INC.,65 Calderon Mujica,CANOVANAS,PR,7293249,787-876-2150,open,small_green,Pharmacy
"18.33309300,-65.88386400",FARMACIA CAMPO RICO,CARR 185 KM 5 5 BARRIO CAMPO RICO,CANOVANAS,PR,7290729,787-876-2571,open,small_green,Pharmacy
"18.33309300,-65.88386400",Farmacia Watto,CALLE AUTONOMIA STE 72,CANOVANAS,PR,7293249,787-876-2174,open,small_green,Pharmacy
"18.33309300,-65.88386400",FARMACIA MEDINA INC,URB VILLAS DE LOIZA CALLE 1 B 1,CANOVANAS,PR,729,787-876-3500,open,small_green,Pharmacy
"18.33309300,-65.88386400",FARMACIA NIEVES,CARR 185 KM 15 8 LAS 400 TAS,CANOVANAS,PR,7299723,787-876-2006,open,small_green,Pharmacy
"18.33309300,-65.88386400",FARMACIA BELIA,80 AUTONOMIA,CANOVANAS,PR,7293242,787-876-2983,open,small_green,Pharmacy
"18.33309300,-65.88386400",Super Farmacia San Antonio,AUTONOMIA ST 71,CANOVANAS,PR,7293247,787-876-2705,open,small_green,Pharmacy
"18.33309300,-65.88386400",WALGREENS #438,CALLE # 3 NORESTE SHOPPING CENTER BUILDING,LOIZA,PR,729,787-256-2626,open,small_green,Pharmacy
"18.33309300,-65.88386400",FARMACIA MEDINA,CARR 185 KM 02 URB ZONA INDUSTRIAL,CANOVANAS,PR,729,787-256-3592,open,small_green,Pharmacy
"18.33309300,-65.88386400",CANOVANAS PHARMACY,URB  LOIZA VALLEY AA-12 CALLE BAUHINIA STE 1,CANOVANAS,PR,7293440,787-876-3400,open,small_green,Pharmacy
"18.33309300,-65.88386400",WALMART PHARMACY 10-5802,WM SC PLAZA CANOVANAS 5802,CANOVANAS,PR,729,787-957-2715,open,small_green,Pharmacy
"18.33309300,-65.88386400",Farmacia Medina,Carr. 188 Km 1.5 Bo. San Isidro,Canovanas,PR,729,787-256-5757,open,small_green,Pharmacy
"18.33309300,-65.88386400",Walgreens,"CARR. PR.3, KM 17.8 Y P.R.188 PLAZA CANOVANAS SHOPPING CENTER",Canovanas,PR,729,787-957-8050,open,small_green,Pharmacy
"18.33309300,-65.88386400","Mi Farmacia San Isidro., Corp.",Carr 188 km 1.5 San Isidro,Canovanas,PR,729,787-957-2051,open,small_green,Pharmacy
"18.33309300,-65.88386400",Continuous Pharmacy Express,Calle Corchado Final CDT Canovanas,Canovanas,PR,729,787-256-2510,open,small_green,Pharmacy
"18.41345200,-65.97765900",RECETAS POR MENOS,#5 BB-9 Parque Hermoso Villa Fontana Park,CAROLINA,PR,983,787-752-3335,open,small_green,Pharmacy
"18.40858800,-65.94693300",FARMACIA NUEVA,MUNOZ RIVERA ESQ SALVADOR BRAU SUITE 100,CAROLINA,PR,985,787-768-5373,open,small_green,Pharmacy
"18.41345200,-65.97765900",WALGREENS,AVE J M FRAGOSO CENTRO COMERCIAL PLAZA CAROLINA,CAROLINA,PR,983,787-769-4122,open,small_green,Pharmacy
"18.40125200,-65.95139500",FARMACIA MEDINA INC,CALLE 24 BLOQUE 11 19,CAROLINA,PR,985,787-769-0324,open,small_green,Pharmacy
"18.40858800,-65.94693300",FARMACIA AMIGA,"CEN COM MONSERRATE PLAZA, AVE PASEO DE LOS GIGANTES VILLA CAROLINA",CAROLINA,PR,9855444,787-752-6246,open,small_green,Pharmacy
"18.41126100,-65.99204500",WALGREENS #2803,ESQ EL COMMANDANTE,CAROLINA,PR,982,787-776-2001,open,small_green,Pharmacy
"18.37346600,-65.95993200",SUPER FARMACIA METROPOLIS,CENTRO COMERCIAL URB METROPOLS CALLE AVE A,CAROLINA,PR,987,787-762-5805,open,small_green,Pharmacy
"18.44438900,-66.03012900",FARMACIA LUIS #3,#10 Ave. Laguna Laguna Garden Shp Ctr. #115,CAROLINA,PR,979,787-791-2065,open,small_green,Pharmacy
"18.39869400,-65.97549300",SUPER FARMACIA IDEAL,Ave. 65 Th Infanteria Plaza Comandante Esq. San Marcos,CAROLINA,PR,983,787-752-9120,open,small_green,Pharmacy
"18.37441400,-65.97512500",FARMACIA BENQUIL INC,CALLE MILAGROS CABEZAS B 8 URB CAROLINA ALTA,CAROLINA,PR,9877108,787-768-1835,open,small_green,Pharmacy
"18.44438900,-66.03012900",Farmacia Caridad,"Urb Los Angeles, Ave. Las Flores WD-22",CAROLINA,PR,979,787-791-5757,open,small_green,Pharmacy
"18.39335500,-65.97249500",FARMACIA MEDINA INC,AVE COMANDANTE ESQ CAMP RICO,CAROLINA,PR,984,787-752-5111,open,small_green,Pharmacy
"18.41345200,-65.97765900",FARMACIA PUERTA DE CAROLINA,AL 1 MONSERRATE AVE URB VILLA FONTONA,CAROLINA,PR,983,787-276-0455,open,small_green,Pharmacy
"18.40125200,-65.95139500",SUPER FARMACIA CAROLINA,CALLE 16 BLOQUE 35 NO 27 VILLA CAROLINA,CAROLINA,PR,985,787-257-8540,open,small_green,Pharmacy
"18.44209000,-66.01704300",WALGREENS,AVE ISLA VERDE CERCA INT CALLE RODRIGUEZ EMMA,CAROLINA,PR,979,787-982-0390,open,small_green,Pharmacy
"18.37346600,-65.95993200",FARMACIA CEDROS,HC-01 BOX 11824 CARRETERA 185,CAROLINA,PR,987,787-768-0500,open,small_green,Pharmacy
"18.39335500,-65.97249500",FARMACIA SAN GABRIEL,Carr 853 Km .3 Bo. Trujillo Bajo,CAROLINA,PR,988,787-257-2420,open,small_green,Pharmacy
"18.40858800,-65.94693300",Super Farmacia Mi Botica Inc,IGNACIO ARZUAGA 5 E,CAROLINA,PR,985,787-769-0058,open,small_green,Pharmacy
"18.36453300,-65.98427800",FARMACIA PUERTA DE CAROLINA,K 628 PONTEZUELA AVE Urb Vistamar,CAROLINA,PR,983,787-768-6637,open,small_green,Pharmacy
"18.38075100,-65.95728800",Farmacia Dres. Villalobos,Calle Amadeo #12,CAROLINA,PR,985,787-257-4320,not participating,measle_white,Pharmacy
"18.40858800,-65.94693300",KMART PHARMACY7665,"CARR. #3, KM 1.7, CENTRO COMERCIAL LOS COLOBOS",CAROLINA,PR,985,787-752-3445,not participating,measle_white,Pharmacy
"18.37346600,-65.95993200",WALMART PHARMACY 10-2423,PARQUE ESCORIAL,CAROLINA,PR,987,787-701-1060,open,small_green,Pharmacy
"18.42180400,-65.98019400",Farmacia Pontezuela 24,C 9 AVE PONTEZUELA VISTAMAR COND GOLDEN TOWER,CAROLINA,PR,983,787-769-5240,open,small_green,Pharmacy
"18.40647700,-65.98080200",FARMACIA PUERTA DE CAROLINA EXPRESO,AVE MONSERRATE ESQ MAIN CALDERON,CAROLINA,PR,985,787-276-2808,open,small_green,Pharmacy
"18.37346600,-65.95993200",WALGREENS #222,150 CARRETERA 857 AND STATE RD 3,CAROLINA,PR,987,787-701-0808,open,small_green,Pharmacy
"18.41345200,-65.97765900",FARMACIA KIRIE,Carr 848 Km 4.2 Plaza 66 bo. san Anton,CAROLINA,PR,983,787-768-4366,open,small_green,Pharmacy
"18.37346600,-65.95993200",SAMS PHARMACY 10-6543,PR 3 PLAZA ESCORIAL,CAROLINA,PR,987,787-769-2038,open,small_green,Pharmacy
"18.40366400,-65.98420900",WALGREENS #9403,PR 190 AND CAMPO RICO,CAROLINA,PR,979,787-762-1290,open,small_green,Pharmacy
"18.44438900,-66.03012900",WALGREENS,CARR PR 3 Y PR 874 KM 10.6 BO MARTIN GONZALEZ,CAROLINA,PR,979,787-276-7191,open,small_green,Pharmacy
"18.41345200,-65.97765900",WALGREENS #12659,PARQUE ESCORIAL 65 INF KM 54,CAROLINA,PR,983,787-768-5004,open,small_green,Pharmacy
"18.41368200,-65.99697800",WALGREENS #12662,AVE CAMPO RICO ESQ FIDALGO DIAZ,CAROLINA,PR,983,787-750-1251,open,small_green,Pharmacy
"18.41126100,-65.99204500",Farmacia Caridad,UR VILLA CAROLINA #21 CALLE 615 BLOQUE 297,Carolina,PR,982,787-752-9644,open,small_green,Pharmacy
"18.37346600,-65.95993200",Farmacia Marlet,PR 3 Km 1.3 PR 853 Marginal 65 Infanteria Bo. Trujillo Alto,Carolina,PR,987,787-762-5820,not participating,measle_white,Pharmacy
"18.41345200,-65.97765900",FARMACIA REY #19,"Local 1, Ave. Sanchez Osorio Centro Comercial Villa Fontana",Carolina,PR,983,787-257-1444,open,small_green,Pharmacy
"18.37346600,-65.95993200",CVS Pharmacy #05800,2550 Ave De Diego,Carolina,PR,987,787-762-8412,open,small_green,Pharmacy
"18.44438900,-66.03012900",Farmacia Caridad #8,S-C CARR 3 KM 14.7 LOS COLOBOS SHOPPING CENTER,CAROLINA,PR,979,787-276-6000,open,small_green,Pharmacy
"18.37346600,-65.95993200",CVS Pharmacy,830 Carr 857,Carolina,PR,9872447,787-701-2190,open,small_green,Pharmacy
"18.40647700,-65.98080200",Monserrate Pharmacy,"Monserrate Ave., Esquina 209 St DB#1 Valle Arriba Heights",Carolina,PR,984,787-993-4741,open,small_green,Pharmacy
"18.37346600,-65.95993200",WALGREENS,"CARR.PR-887, INT.PR-860 BO MARTIN GONZALEZ",CAROLINA,PR,987,787-710-7199,open,small_green,Pharmacy
"18.41126100,-65.99204500",CVS Pharmacy #,6020 Ave Roberto Sanchez Vilella,Carolina,PR,9823707,787-750-3311,unknown,small_yellow,Pharmacy
"18.44438900,-66.03012900",Super Farmacia Isla Verde,AO-16 Marginal Ext Urb Villamar Isla Verde Carolina,Carolina,PR,979,787-548-7559,open,small_green,Pharmacy
"18.42547000,-66.01032100",CVS Pharmacy #10901,8030 Calle Tartak,Carolina,PR,9795732,787-641-0153,open,small_green,Pharmacy
"18.43764400,-66.14040700",FARMACIA POPULAR,WILSON 7 ESQUINA TREN,CATANO,PR,962,787-788-1245,open,small_green,Pharmacy
"18.43764400,-66.14040700",FARMACIA SANDIN,194 BARBOSA AVE,CATANO,PR,962,787-788-1441,open,small_green,Pharmacy
"18.42403200,-66.14417900",FARMACIA LAS VEGAS,AVE FLOR DEL VALLE BB-1 URB LAS VEGAS,CATANO,PR,962,787-788-8414,open,small_green,Pharmacy
"18.43764400,-66.14040700",FARMACIA PRAKO,FLORES ST 78,CATANO,PR,962,787-788-2610,not participating,measle_white,Pharmacy
"18.43764400,-66.14040700",FARMACIA REY #11,115 Ave Barbosa,Catano,PR,9624780,787-275-4200,open,small_green,Pharmacy
"18.10296700,-66.13927400",FARMACIA SAN ANTONIO,MUNOZ RIVERA #4,CAYEY,PR,737,787-738-3010,open,small_green,Pharmacy
"18.10296700,-66.13927400",FARMACIA YOLY,CALLE MUNOZ RIVERA 105 SUR,CAYEY,PR,7363720,787-738-2457,not participating,measle_white,Pharmacy
"18.10296700,-66.13927400",AXXEL'S PHARMACY,64S Ave Munoz Rivera N,CAYEY,PR,736,787-738-0999,not participating,measle_white,Pharmacy
"18.10296700,-66.13927400",Farmacia VÃ¡zquez,CALLE JOSE DE DIEGO 54 ESTE,CAYEY,PR,736,787-263-2444,open,small_green,Pharmacy
"18.10296700,-66.13927400",WALGREENS,"CARR. PR 1 ENTRE CARR. 14 Y 735,",CAYEY,PR,737,787-263-0246,open,small_green,Pharmacy
"18.10296700,-66.13927400",KMART PHARMACY7446,"CARR. 1, KM. 56.2",CAYEY,PR,736,787-738-2495,not participating,measle_white,Pharmacy
"18.10296700,-66.13927400",FARMACIA MI FAMILIA,1 Calle NuÃ±ez Romeu E,CAYEY,PR,736,787-738-3341,open,small_green,Pharmacy
"18.10296700,-66.13927400",FARMACIA REYES,MUNOZ RIVERA 56 SOUTH,CAYEY,PR,736,787-738-5343,open,small_green,Pharmacy
"18.10296700,-66.13927400",FARMACIA HOSPITAL MENONITA CAYEY,BO RINCON SECTOR LOMAS  CARR 14 KM  12.0,CAYEY,PR,736,787-535-1001,open,small_green,Pharmacy
"18.10296700,-66.13927400",WALMART PHARMACY 10-2721,PLZ CALLE CENTL STATE 1 735,CAYEY,PR,736,787-738-7240,open,small_green,Pharmacy
"18.10296700,-66.13927400",FARMACIA CDT CAYEY,5 CALLE LUIS BARRERAS 174,CAYEY,PR,737,787-738-3674,open,small_green,Pharmacy
"18.10296700,-66.13927400",WALGREENS,CAYEY SHOPPING CENTER CARR 1 AVE JT PINERO,CAYEY,PR,736,787-738-2977,open,small_green,Pharmacy
"18.10296700,-66.13927400",Farmacia Vazquez #2,Carr #1Marginal Km 56.5 Bo Montellanos,Cayey,PR,736,787-738-1444,open,small_green,Pharmacy
"18.10296700,-66.13927400",FARMACIA REY #21,BO. MONTELLANO #4,CAYEY,PR,736,787-694-1200,open,small_green,Pharmacy
"18.25260400,-65.68249400",FARMACIA AVILES,AVE LAURO PINERO 250,CEIBA,PR,735,787-885-2525,open,small_green,Pharmacy
"18.25260400,-65.68249400",SUPER FARMACIA AMERICA,AVE LAURO PINERO 266,CEIBA,PR,7350244,787-885-3010,open,small_green,Pharmacy
"18.33556600,-66.46842700",FARMACIA GLAMAR,18 Calle Palmer,CIALES,PR,638,787-871-4170,open,small_green,Pharmacy
"18.33565100,-66.46858100",FARMACIA ESTRELLA 1,CALLE PALMER 22,CIALES,PR,638,787-871-2155,open,small_green,Pharmacy
"18.33721000,-66.46862700",FARMACIA EXPRESO,CARR 149 KM 9 8 BO HATO VIEJO SECTOR CAMPAMENTO,CIALES,PR,6389661,787-871-3105,open,small_green,Pharmacy
"18.33468300,-66.46855800",FARMACIA KRISTEL,9 Calle Palmer,CIALES,PR,638,787-871-4812,open,small_green,Pharmacy
"18.33721000,-66.46862700",PRYMED MEDICAL CARE INC,CARR 149 KM 13,CIALES,PR,6381427,787-871-0601,open,small_green,Pharmacy
"18.33721000,-66.46862700",SUPER FARMACIA BELLA VISTA,CARR 149 KM 18.0 BO PESAS,CIALES,PR,638,787-871-2305,open,small_green,Pharmacy
"18.18146900,-66.16951900",SUPER FARMACIA SAN JOSE,39 MUNOZ BARRIOS ST,CIDRA,PR,739,787-739-2641,open,small_green,Pharmacy
"18.18146900,-66.16951900",FARMACIA ELSIE,CALLE BARCELO ESQ PADILLA EL CARIBE,CIDRA,PR,739,787-739-7935,open,small_green,Pharmacy
"18.17536000,-66.15988100",FARMACIA DEL CARMEN,CALLE JOSE DE DIEGO 53,CIDRA,PR,7393299,787-739-2151,open,small_green,Pharmacy
"18.18146900,-66.16951900",FARMACIA SAN PABLO,BARCELO 64,CIDRA,PR,7391257,787-739-8300,open,small_green,Pharmacy
"18.18146900,-66.16951900",FARMACIA FARMAHORROS,Local 101 Centro Comercial Villa Del Carmen,CIDRA,PR,739,787-739-3522,open,small_green,Pharmacy
"18.18146900,-66.16951900",FARMACIA EXPRESO,BO CERTENEJAS CARR 172 KM 7 6,CIDRA,PR,739,787-739-3881,open,small_green,Pharmacy
"18.18146900,-66.16951900",WALGREENS #973,ELJIBARO AVE AND PR 172,CIDRA,PR,739,787-739-4351,open,small_green,Pharmacy
"18.18146900,-66.16951900",Farmacia Rabanal,Carretera 173 Km. 6.5 Sector San Jose Barrio Rabanal,Cidra,PR,739,787-739-3870,open,small_green,Pharmacy
"18.09599200,-66.35081000",COOP FARMACIA SANTA TERESITA,CALLE JOSE I QUINTON #25,COAMO,PR,7690536,787-825-1202,not participating,measle_white,Pharmacy
"18.09599200,-66.35081000",FARMACIA BETANCES,JOSE I QUINTON 40,COAMO,PR,7690378,787-825-1268,not participating,measle_white,Pharmacy
"18.09599200,-66.35081000",FARMACIA SAN BLAS,CALLE BOBBY CAPO 9,COAMO,PR,7692408,787-825-1285,open,small_green,Pharmacy
"18.09599200,-66.35081000",BALDORIOTY PHARMACY,CALLE BALDORIOTY #27,COAMO,PR,7690378,787-825-2555,open,small_green,Pharmacy
"18.09599200,-66.35081000",Super Farmacia Amiga,Urb Vista del  Sol Marginal A 10,COAMO,PR,769,787-825-2290,open,small_green,Pharmacy
"18.09599200,-66.35081000",WALGREENS #121,106 CALLE PIEL CAN,COAMO,PR,769,787-803-6802,open,small_green,Pharmacy
"18.09599200,-66.35081000",Farmacia Paola,BO LOS LLANOS CARR 14 KM 26.6,COAMO,PR,769,787-803-4433,open,small_green,Pharmacy
"18.09599200,-66.35081000",FARMACIA RAPIDA,18A Calle Baldorioty,Coamo,PR,769,787-825-7874,open,small_green,Pharmacy
"18.09599200,-66.35081000","PAO'S PHARMACY,INC",2 WILLIE ROSARIO,COAMO,PR,769,787-803-3777,open,small_green,Pharmacy
"18.22495800,-66.21988500",SUPER FARMACIA ROMERO,75 CALLE GEORGETTI ST,COMERIO,PR,7822599,787-875-2255,open,small_green,Pharmacy
"18.22495800,-66.21988500",FARMACIA NUEVA,BDA PASARELL 23 CARR 778,COMERIO,PR,782,787-875-8265,open,small_green,Pharmacy
"18.22495800,-66.21988500",FARMACIA COMERIO,15 CALLE GEORGETTI,COMERIO,PR,7822542,787-875-3550,open,small_green,Pharmacy
"18.22495800,-66.21988500",FARMACIA COOP DOMINGO SANTIAGO,#4 CALLE GERONIMO RIVERA,COMERIO,PR,7822537,787-875-2121,open,small_green,Pharmacy
"18.22495800,-66.21988500",Farmacia Medical Solutions,"Carr,779 Km7.7 Barrio Palomas",Comerio,PR,782,787-875-7016,open,small_green,Pharmacy
"18.30436900,-66.33052500",FARMACIA MODELO,12 CALLE GANDARA,COROZAL,PR,7831926,787-859-3040,not participating,measle_white,Pharmacy
"18.30436900,-66.33052500",FARMACIA MARIE,CALLE SAN MANUEL 1,COROZAL,PR,783,787-859-2729,open,small_green,Pharmacy
"18.30436900,-66.33052500",SUPER FARMACIA COROZAL,CARR.159 CENTRO COMERCIAL VILLAGE,COROZAL,PR,783,939-358-9593,open,small_green,Pharmacy
"18.30436900,-66.33052500",FARMACIA MABEL,Carr. 159 Km. 15.4 Barrio Pueblo,COROZAL,PR,783,787-859-8080,open,small_green,Pharmacy
"18.30436900,-66.33052500",FARMACIA LA SAGRADA FAMILIA,FARMACIA LA SAGRADA FAMILIA 71 CALLE BOU,COROZAL,PR,783,787-859-2995,open,small_green,Pharmacy
"18.30436900,-66.33052500",FARMACIA MARCE,Carr 818 km 0.1 Bo Cibuco BO CIBUCO CARR 818 KM 01,COROZAL,PR,783,787-859-5639,open,small_green,Pharmacy
"18.30436900,-66.33052500",FARMACIA KARIAN,CARR 159 KM 8 4 BO PADILLA,COROZAL,PR,783,787-859-7959,open,small_green,Pharmacy
"18.30436900,-66.33052500",WALGREENS #7521,Esq Sureste Int PR-159 y PR-891 Bo Pueblo,Corozal,PR,783,787-859-5439,open,small_green,Pharmacy
"18.30436900,-66.33052500","ORTIZ MEDICAL PHARMACY, INC.",ROAD 159 KM 12.4,COROZAL,PR,783,787-859-7182,open,small_green,Pharmacy
"18.30436900,-66.33052500","Farma Express,Inc",Plaza del Carmen carr 891 Km 13 barrio Pueblo,Corozal,PR,783,787-859-4444,open,small_green,Pharmacy
"18.30436900,-66.33052500",FARMACIA LA ECONOMIA,CARR 164 G4 URB MARIA DEL CARMEN,COROZAL,PR,783,787-693-0302,not participating,measle_white,Pharmacy
"18.30436900,-66.33052500",Farmacia Yaniz,G4 CALLE 6 URB MARIA DEL CARMEN,COROZAL,PR,783,787-693-0302,not participating,measle_white,Pharmacy
"18.30436900,-66.33052500",Super Farmacia Rodriguez,Calle Bou #41,Corozal,PR,783,787-859-2415,open,small_green,Pharmacy
"18.32373600,-65.29646700",FARMACIA CSC DE CULEBRA,CALLE WILLIAN FONT FINAL,CULEBRA,PR,775,787-742-0001,not participating,measle_white,Pharmacy
"18.45933000,-66.26178700",Farmacia Dorado,269 Calle Mendez Vigo,DORADO,PR,646,787-796-1155,open,small_green,Pharmacy
"18.45996100,-66.26359800",FARMACIA SAN JOSE #4,CALLE MENDEZ VIGO 253,DORADO,PR,646,787-796-1120,open,small_green,Pharmacy
"18.45933000,-66.26178700",WALGREENS,CARR 693 KM 75,DORADO,PR,6464802,787-278-5811,open,small_green,Pharmacy
"18.43606000,-66.28195400",OPTIMA INFUSION PHARMACY,CARR 2 KM 26.2 ESPINOSA,DORADO,PR,646,800-981-0021,open,small_green,Pharmacy
"18.43606000,-66.28195400",WALMART PHARMACY 10-3399,CENTRO COM PASEO DEL PLATA,DORADO,PR,646,787-278-5859,open,small_green,Pharmacy
"18.44566200,-66.28960500",TWINS PHARMACY,CARR 696 KM 1 3 LOTE 21 BO HIGUILLAR,DORADO,PR,646,787-278-3300,open,small_green,Pharmacy
"18.43606000,-66.28195400",Verde Natura Pharmacy,425 Carr.693 Suite#2 Dorado Classic Court,Dorado,PR,646,787-278-0022,not participating,measle_white,Pharmacy
"18.43606000,-66.28195400",CVS Pharmacy #07977,1 Carr PR 696,Dorado,PR,646,787-278-2075,open,small_green,Pharmacy
"18.43606000,-66.28195400",FARMACIA ONE STOP PRESCRIPTION,CENTRO COMERCIAL DORADO DEL MAR CARR 693 KM 8,DORADO,PR,646,787-278-6010,open,small_green,Pharmacy
"18.43821100,-66.28235400",Farmacias Plaza Dorado,carr 695 km 1.4 Bo Higuillar,Dorado,PR,646,787-626-7700,open,small_green,Pharmacy
"18.43606000,-66.28195400",Walgreens,"CARR.PR 659 &693, KM. 1.5, DORAMAR SHOPPING PLAZA B-3 BO. MAGUAYO",Dorado,PR,646,787-278-5812,open,small_green,Pharmacy
"18.45933000,-66.26178700",Farmacia Marie Dorado,845 CARR 693 PLAZA DORADA SUITE 14,DORADO,PR,646,787-278-6300,not participating,measle_white,Pharmacy
"18.43606000,-66.28195400",OPTIMA PHARMACY,ST RD 2 KM 26.2 ESPINOSA,DORADO,PR,646,787-883-5959,unknown,small_yellow,Pharmacy
"18.35938100,-65.61136100",WALGREENS,Carr PR-3 KM 42.76 Centro Comercial Bonsai Plaza,Fajardo,PR,738,787-860-1603,open,small_green,Pharmacy
"18.35938100,-65.61136100",Farmacia Santa Isidra,CALLE UNION 1 ESQ SANTA ISIDRA,FAJARDO,PR,7384758,787-863-2070,open,small_green,Pharmacy
"18.35938100,-65.61136100",SUPER FARMACIA LIBERTAD,MUNOZ RIVEORA 206 THROUGH 208,FAJARDO,PR,738,787-863-0810,open,small_green,Pharmacy
"18.35938100,-65.61136100",FARMACIA DENIRKA,AVENUE GENERAL VALERO SUITE 305,FAJARDO,PR,7384844,787-863-7788,open,small_green,Pharmacy
"18.35938100,-65.61136100",FARMACIA MONTE BRISAS,URB. MONTE BRISAS I A 21CALLE J,FAJARDO,PR,7383349,787-863-4445,open,small_green,Pharmacy
"18.35938100,-65.61136100",KMART PHARMACY9394,"Carr. #3, Km. 46.0, Bo. Quebrada",FAJARDO,PR,738,787-863-3518,not participating,measle_white,Pharmacy
"18.35938100,-65.61136100",WALMART PHARMACY 10-1822,Carr #3 KM 43.3 Plaza Fajardo,FAJARDO,PR,738,787-801-0500,open,small_green,Pharmacy
"18.35938100,-65.61136100",One Stop Prescription Plaza Fajardo,Carr #3 Carr 940 Quebrada Fajardo,FAJARDO,PR,738,787-863-3080,open,small_green,Pharmacy
"18.35938100,-65.61136100",WALGREENS #12012,"Carr #3 KM 50 , Sector Plaza Del Pueblo Bo Quebrada Vuelta",FAJARDO,PR,738,787-863-1475,open,small_green,Pharmacy
"18.35938100,-65.61136100",CVS Pharmacy #07965,9 Calle Igualdad,Fajardo,PR,738,787-863-1880,open,small_green,Pharmacy
"18.35938100,-65.61136100",Farmacia San Miguel,Calle Dr. Lopez # 54,Fajardo,PR,738,787-863-1870,open,small_green,Pharmacy
"18.35938100,-65.61136100",AMISADAI PHARMACY,AVENIDA GARRIDO MORALES ESQUINA CALLE SAN RAFAEL #12,FAJARDO,PR,738,787-657-8577,not participating,measle_white,Pharmacy
"18.35938100,-65.61136100",To Go Pharmacy,Urb Baralt G-10 Local #2,Fajardo,PR,738,787-468-4850,not participating,measle_white,Pharmacy
"18.35938100,-65.61136100",FARMACIA REY #22,PLAZA CEIBA SHOPPING CENTER (MONTESOL) CARR.  3 KM. 49.70 LOCAL 100 BO. QUEBRADA VUELTAS,FAJARDO,PR,738,787-468-4800,not participating,measle_white,Pharmacy
"18.36012500,-66.56231100",Mi Farmacia,Calle Esquina Roberto Gonzalez #57,Florida,PR,650,787-822-2425,open,small_green,Pharmacy
"18.36012500,-66.56231100",SUPER FARMACIA PLAZA,7 MUNOZ RIVERA ST,FLORIDA,PR,6502033,787-822-2582,not participating,measle_white,Pharmacy
"18.36012500,-66.56231100",FARMACIA LA CARIDAD,CARR 140 KM 52 5,FLORIDA,PR,6509721,787-822-2749,open,small_green,Pharmacy
"18.36370900,-66.56778200",FLORIDA PRIMARY HEALTH CENTER,3 Calle Antonio Alcazar,FLORIDA,PR,650,787-822-2170,open,small_green,Pharmacy
"18.36348600,-66.56542000",FARMACIA CDT POLICLINICA FAMILIAR F,CALLE ARIZMENDI 72,FLORIDA,PR,650,787-822-1648,open,small_green,Pharmacy
"17.97081000,-66.90763000",FARMACIA QUESADA,"CALLE 25 DE JULIO 36, Esquina 13 de marzo",GUANICA,PR,653,787-821-3065,not participating,measle_white,Pharmacy
"17.97246800,-66.89866100",FARMACIA GUANIQUENA,20 Calle 65 Infanteria,GUANICA,PR,653,787-821-6323,unknown,small_yellow,Pharmacy
"17.97246800,-66.89866100",FARMACIA SUGGEILY,Bo. Belgica #47 \,"GUANICA""""""",PR,653,787-821-1105,open,small_green,Pharmacy
"17.96959400,-66.93975400",FARMACIA ENSENADA,CARR 3116 KM 1-5 BO ENSENADA,ENSENADA,PR,647,787-821-0555,open,small_green,Pharmacy
"17.97338200,-66.90743900",Farmacia Loryan,32 calle 25 de julio Esq. Buenaventura QuiÃ±ones,Guanica,PR,6530000,787-821-3131,open,small_green,Pharmacy
"17.97081000,-66.90763000",FARMACIA PROSALUD,CALLE 25 DE JULIO NUM 4 ESQ. CARR 116 KM 14.0 INT.,GUANICA,PR,653,787-821-1474,unknown,small_yellow,Pharmacy
"18.01882200,-66.79560300",SUPER FARMACIA RINA,CALLE MCARTHUR 1,GUAYAMA,PR,785,787-864-0855,not participating,measle_white,Pharmacy
"18.01072100,-66.13361300",FARMACIA SAN CARLOS inc,CALLE DUQUES 94 SUR,GUAYAMA,PR,784,787-864-2812,open,small_green,Pharmacy
"18.01072100,-66.13361300",FARMACIA PABON,89 Calle Calimano Norte,GUAYAMA,PR,784,787-864-5880,open,small_green,Pharmacy
"18.01072100,-66.13361300",FARMACIA MIR MAR,CALIMANO 44 NORTE Cecilia Dominguez # 1 Este,GUAYAMA,PR,784,787-864-1964,not participating,measle_white,Pharmacy
"18.01072100,-66.13361300",SUPER FARMACIA DERKES,CALLE DEREKES 28,GUAYAMA,PR,784,787-864-2112,not participating,measle_white,Pharmacy
"18.01072100,-66.13361300",WALMART PHARMACY 10-2072,AVE LOS VETERANOS,GUAYAMA,PR,784,787-866-2060,open,small_green,Pharmacy
"18.01072100,-66.13361300",WALGREENS,CARR 54 DESVIO SUR KM 2.6 CALLE PRINCIPAL,GUAYAMA,PR,784,787-864-5800,open,small_green,Pharmacy
"18.01072100,-66.13361300",FARMACIA M AND F,BO PUENTE JOBO CARR 3 KM149 9 BO PUENTE JOBOS,GUAYAMA,PR,784,787-864-8060,open,small_green,Pharmacy
"18.01072100,-66.13361300",farmacia express,carr. 3 km. 134.8 plaza guayama mall,guayama,PR,784,787-866-2222,open,small_green,Pharmacy
"18.01072100,-66.13361300",Allmed Pharmacy LLC,Street 54 Int 3 Commerce Plaza Suite 101 GB-H,Guayama,PR,784,787-686-6464,open,small_green,Pharmacy
"18.02328000,-66.78690900",FARMACIA BORIQUEN,CENTRO COMERCIAL SANTA ELENA 268 STE 6 LMR,GUAYANILLA,PR,656,787-835-5522,open,small_green,Pharmacy
"18.02208700,-66.79267600",FARMACIA LA VENTANA,CALLE LUIS M RIVERA 129,GUAYANILLA,PR,6560464,787-835-3525,open,small_green,Pharmacy
"18.02328000,-66.78690900",FARMACIA LEMAR 2,CALLE MUNOZ RIVERA ST 160,GUAYANILLA,PR,656,787-835-2370,unknown,small_yellow,Pharmacy
"18.02328000,-66.78690900",Farmacia Santoni,Carr 132 Km 4.3 Bo Macana,Guayanilla,PR,656,787-835-4561,open,small_green,Pharmacy
"18.38488300,-66.11699800",WALGREENS #55,AVE LOMAS VERDES KM 5.7,GUAYNABO,PR,969,787-287-0528,open,small_green,Pharmacy
"18.40199400,-66.09932300",WALGREENS #10160,SAN PATRICIO AVE AND ROOSEVELT AVE,GUAYNABO,PR,968,787-792-2144,open,small_green,Pharmacy
"18.37373500,-66.10516600",SUPER FARMACIA GARDENVILLE,50 Calle Brazil Ste 2 GARDENVILLE,GUAYNABO,PR,966,787-782-1180,open,small_green,Pharmacy
"18.36232200,-66.11372900",FARMACIA REY #18,5 HERMINIO DIAZ NAVARRO ST. GUAYNABO PUEBLO,GUAYNABO,PR,9695619,787-720-2626,open,small_green,Pharmacy
"18.35698200,-66.11038500",San Pedro Pharmacy Corp.,Calle Munoz Rivera 7,GUAYNABO,PR,969,787-720-2196,not participating,measle_white,Pharmacy
"18.39681500,-66.11488900",FIRST PHARMACY 6,Carr 2 Km 7.2 BO JUAN DOMINGO STE 1,GUAYNABO,PR,9661806,787-782-0728,open,small_green,Pharmacy
"18.35730400,-66.12317600",FARMACIA ALEJANDRO,142 Calle Carazo,GUAYNABO,PR,969,787-720-2934,open,small_green,Pharmacy
"18.39681500,-66.11488900",Farmacias Plaza #16,Garden Hills Plaza Local #1379,GUAYNABO,PR,966,787-620-9616,open,small_green,Pharmacy
"18.35914300,-66.11229500",FARMACIA ANAMALIS,Carazo ST  #65,GUAYNABO,PR,970,787-720-3387,open,small_green,Pharmacy
"18.36232200,-66.11372900",FARMACIA ALIMAR,#47 AVE ESMERALDA Urb.Munoz Rivera,GUAYNABO,PR,969,787-789-2683,open,small_green,Pharmacy
"18.37220800,-66.10381500",FARMACIA IVETTE,AVE ESMERALDA ESQ LOPATEGUI CENTRO COM PONCE DE LEON,GUAYNABO,PR,969,787-720-4035,open,small_green,Pharmacy
"18.36232200,-66.11372900",FARMACIA APOLO,"CENTRO COMERCIAL APOLO LOCAL 9, URB APOLO",GUAYNABO,PR,969,787-720-3685,open,small_green,Pharmacy
"18.40199400,-66.09932300",KMART PHARMACY4490,"Ave. San Patricio, San Patricio Plaza, Caparra Heights",Guaynabo,PR,969,787-792-7708,not participating,measle_white,Pharmacy
"18.36232200,-66.11372900",LUIS PHARMACY #7,Carretera 838 KM 1.8 PLAZA ALEJANDRINO,GUAYNABO,PR,969,787-720-5214,open,small_green,Pharmacy
"18.43780300,-66.11327600",WALGREENS #13,35 CALLE JUAN C BORBON STE 77,GUAYNABO,PR,969,787-287-3725,open,small_green,Pharmacy
"18.38131100,-66.11726500",FARMACIA PLAZA ALTA,AVE SANTA ANA 262 CENTRAL COMERCIAL PLAZA ALTA,GUAYNABO,PR,9693304,787-272-1205,not participating,measle_white,Pharmacy
"18.43402100,-66.11514900",WALGREENS #788,PR 24 AND PR 165,GUAYNBO CATANO,PR,965,787-782-1798,open,small_green,Pharmacy
"18.43582500,-66.11311800",KMART PHARMACY 7768,280 CALLE MARGINAL,GUAYNABO,PR,970,787-790-1400,open,small_green,Pharmacy
"18.36232200,-66.11372900",WALMART PHARMACY 10-3668,AVE LOS FILTROS Esq. Santa Ana Urb,GUAYNABO,PR,969,787-731-3776,not participating,measle_white,Pharmacy
"18.36232200,-66.11372900",FARMACIA REY #5,"Carr. 177, Ave. Los Filtros Santa Maria Shopping Center, Local A16",Guaynabo,PR,969,787-749-0438,not participating,measle_white,Pharmacy
"18.36232200,-66.11372900",Guaynabo City Pharmacy,140 Ave Las Cumbres # 199,Guaynabo,PR,9695523,787-790-4312,open,small_green,Pharmacy
"18.43375700,-66.11475200",WalMart Pharmacy 10-3671,Avenida FD Roosevelt,Guaynabo,PR,965,787-782-9425,not participating,measle_white,Pharmacy
"18.36232200,-66.11372900",Walgreens,184 Carretera 2 Villa Caparra,Guaynabo,PR,969,787-705-6204,open,small_green,Pharmacy
"18.39681500,-66.11488900",CVS Pharmacy,178 Carr 2,Guaynabo,PR,9661808,787-706-3600,open,small_green,Pharmacy
"18.35771800,-66.11081000",Farmacia Tu Receta,Carr. 169 Km. 7.2 #21 Local 1 Bo. Camarones,Guaynabo,PR,969,787-272-7788,open,small_green,Pharmacy
"18.40607700,-66.10122300",CVS Pharmacy #,C1 Calle Parkside 4,Guaynabo,PR,9683305,787-792-0780,open,small_green,Pharmacy
"18.38131100,-66.11726500",FARMACIA PLAZA 5,262 Santa Ana Avenue Plaza Alta Mall,BAYAMON,PR,969,787-620-9605,open,small_green,Pharmacy
"18.25909200,-65.97464100",FARMACIA DEL PUEBLO,CALLE SANTIAGO 61 N,GURABO,PR,7782426,787-737-8188,open,small_green,Pharmacy
"18.25909200,-65.97464100",FARMACIA DE TODOS INC,SAN JOSE ST 4 NORTH,GURABO,PR,778,787-737-3355,open,small_green,Pharmacy
"18.25909200,-65.97464100",FARMACIA RUIZ BELVIS DE GURABO,CARR 181 KM 23 2 bo celada,GURABO,PR,778,787-737-3550,not participating,measle_white,Pharmacy
"18.25909200,-65.97464100",Neomed Center - Gurabo Pharmacy,CARR 941 SALIDA BARRIO JAGUAS,GURABO,PR,778,787-737-4449,open,small_green,Pharmacy
"18.25909200,-65.97464100",FARMACIA REY #4,CALLE SANTIAGO 65 N,GURABO,PR,7782426,787-712-1780,open,small_green,Pharmacy
"18.25909200,-65.97464100",FARMACIA LISYAI,CARR 189 KM 6 4 MARINA SHOPPING CTR STE 10,GURABO,PR,778,787-737-1133,open,small_green,Pharmacy
"18.25909200,-65.97464100",Farmacia Navarro,Carr. #931 Km. 5.3 Praderas Shopping Center,Gurabo,PR,778,787-687-2566,open,small_green,Pharmacy
"18.25909200,-65.97464100",FARMACIA LISYAI II,Carr. 931 km 2.0 Barrio Navarro,Gurabo,PR,778,787-687-2584,open,small_green,Pharmacy
"18.25909200,-65.97464100",FARMACIA SAMARITANA II,RALPH'S PLAZA RD 189 SUITE 6,GURABO,PR,778,787-687-7997,open,small_green,Pharmacy
"18.25909200,-65.97464100",Walgreens,"CARR. PR 189 INT. PR 181, BO MAMEY",Gurabo,PR,7783090,787-712-0797,open,small_green,Pharmacy
"18.48139100,-66.80869600",Farmacia Garcia,121 Calle Vidal Felix,Hatillo,PR,659,787-898-3975,open,small_green,Pharmacy
"18.48139100,-66.80869600",FARMACIA SAN MARCOS,135 CALLE VIDAL FELIX,HATILLO,PR,6591817,787-820-4378,open,small_green,Pharmacy
"18.48139100,-66.80869600",WALGREENS,Carr 2 KM 81.7 Bp Carrizales,HATILLO,PR,659,787-880-0190,open,small_green,Pharmacy
"18.48139100,-66.80869600",FARMACIA LECHUGA,ROAD 130 KM 4 9,HATILLO,PR,659,787-898-5730,open,small_green,Pharmacy
"18.48741000,-66.82454500",FARMACIA SAN MIGUEL,AVE DR SUSONI 107 BAJOS,HATILLO,PR,659,787-898-5764,open,small_green,Pharmacy
"18.48139100,-66.80869600",FARMACIA CAMPO ALEGRE,CARR 130 KM 11.6 BO CAMPO ALEGRE,HATILLO,PR,659,787-898-8616,open,small_green,Pharmacy
"18.48139100,-66.80869600",FARMACIA SAN FELIPE,CARR 129 KM 15,HATILLO,PR,659,787-898-6378,open,small_green,Pharmacy
"18.48139100,-66.80869600",FARMACIA PAJUIL,CARR 490 KM 3 2 B CAMPO ALEGRE,HATILLO,PR,659,787-820-1972,open,small_green,Pharmacy
"18.48139100,-66.80869600",WALMART PHARMACY 10-1854,Carr #2  Km 84.7 Bo. Carrizales,HATILLO,PR,659,787-817-1070,open,small_green,Pharmacy
"18.48139100,-66.80869600",SUPER FARMACIA CORCOVADA,CARR 492 KM 2 3 BO CORCOVADA SECT LOS BARRETOS,HATILLO,PR,659,787-820-4747,open,small_green,Pharmacy
"18.48139100,-66.80869600",SAMS PHARMACY 10-6270,CARR 2 KM 84 2,HATILLO,PR,659,787-544-7265,open,small_green,Pharmacy
"18.48139100,-66.80869600",FARMACIA EL NORTE,CARR 2 KM 85.5 Barrio Carrizales,HATILLO,PR,659,787-262-4901,open,small_green,Pharmacy
"18.48139100,-66.80869600",Farmacia del Atlantico,Carr 493 Km 0.50 Bo Carrizalez,Hatillo,PR,659,787-880-7171,not participating,measle_white,Pharmacy
"18.48139100,-66.80869600",WALGREENS,"CARR. PR-2, KM. 87.7, INT. PR-130 BO. PUEBLO",HATILLO,PR,659,787-680-7852,open,small_green,Pharmacy
"18.14548600,-67.13532300",Farmacia Belmonte #2,"Edificio Plaza Monserrate (Local #6) Carretera 345, Km. 2.1",Hormigueros,PR,660,787-849-0749,open,small_green,Pharmacy
"18.14548600,-67.13532300",FARMACIA CONSTANCIA,CARR 2 KM 166.4 carr 2 km 166.4,HORMIGUEROS,PR,660,787-849-1714,open,small_green,Pharmacy
"18.14548600,-67.13532300",Farmacia Belmonte #4,"Carr. 3344, KM 0.1, Calle Fas Comercio Int. Hormigueros Plaza",Hormigueros,PR,660,787-849-4704,not participating,measle_white,Pharmacy
"18.14548600,-67.13532300",Farmacia La Nueva Monserrate,Hormigueros Twin Plaza carr 3344 km 0.7,Hormigueros,PR,660,787-849-2997,not participating,measle_white,Pharmacy
"18.13802900,-65.78849900",FARMACIA CENTRAL,NOYA Y HERNANDEZ 12 EAST,HUMACAO,PR,791,787-852-0520,open,small_green,Pharmacy
"18.15220200,-65.83189200",FARMACIA NUEVA,CALLE FONT MARTELO 54,HUMACAO,PR,791,787-852-0620,open,small_green,Pharmacy
"18.13802900,-65.78849900",FARMACIA RYDER MEML HOSP,AVE FONT MARTELO 355 BOX 859,HUMACAO,PR,792,787-852-0768,open,small_green,Pharmacy
"18.13802900,-65.78849900",FARMACIA MARISEL,CALLE NOYA Y HERNANDEZ #2,HUMACAO,PR,791,787-852-4180,open,small_green,Pharmacy
"18.14661900,-65.83213400",WALGREENS,Calle Cruz Ortiz Stella 121,HUMACAO,PR,791,787-285-0808,open,small_green,Pharmacy
"18.13802900,-65.78849900",Farmacia San Jose,Centro Comercial San Jose 11 375 Calle Dr Vidal Este,Humacao,PR,791,787-852-9494,open,small_green,Pharmacy
"18.13802900,-65.78849900",FARMACIA MARISEL,AVE FONT MARTELO #104 ESQ ANTONIO LOPEZ,HUMACAO,PR,791,787-850-9246,open,small_green,Pharmacy
"18.15834100,-65.82540600",Farmacia Candelero,CARR 3 KM 85 6 BO CANDELERO ARRIBA,HUMACAO,PR,791,787-850-7503,open,small_green,Pharmacy
"18.13802900,-65.78849900",Farmacia Rey #8,AVE FONT MARTELO 124-126,HUMACAO,PR,791,787-852-1818,open,small_green,Pharmacy
"18.13802900,-65.78849900",WALMART PHARMACY 10-2240,PLZ PAIMA REAL PR 3 KM 77 6,HUMACAO,PR,791,787-852-9620,open,small_green,Pharmacy
"18.15834100,-65.82540600",WALGREENS #906,CARR 3 EDF 473,SOUTH HUMACAO,PR,791,787-852-1330,open,small_green,Pharmacy
"18.15834100,-65.82540600",Farmacia One Stop Prescription Humacao,Carr #3 Km. 82.5 Humacao Shopping Plaza,HUMACAO,PR,791,787-852-3711,open,small_green,Pharmacy
"18.13802900,-65.78849900",FARMACIA DEJIREH CORP,CARRETERA 3 URB BUZO 443 suite 4,HUMACAO,PR,791,787-852-2828,open,small_green,Pharmacy
"18.15027700,-65.82299100",farmacia real,calle flor gerena # 4,humacao,PR,791,787-852-5500,not participating,measle_white,Pharmacy
"18.15468800,-65.83553100",Farmacia Rosalina,344 Calle Font Martelo,Humacao,PR,7913228,787-850-2040,open,small_green,Pharmacy
"18.15834100,-65.82540600",FARMACIA RUIZ BELVIS DE HUMACAO,CARR 3 KM 85.9 BO CANDELERO ARRIBA,HUMACAO,PR,791,787-850-8011,not participating,measle_white,Pharmacy
"18.13802900,-65.78849900",SHADDAI PHARMACY INC,VILLA UNIVERSITARIA CALLE 28A BLOQUE BB1 LOCAL 2,HUMACAO,PR,791,787-852-7676,open,small_green,Pharmacy
"18.50236900,-67.02263800",FARMACIA CENTRAL,CALLE ROMAN 100,ISABELA,PR,6622908,787-872-2630,open,small_green,Pharmacy
"18.50004100,-67.02159000",Farmacia Isabela Drug,CALLE BARBOSA 9,ISABELA,PR,662,787-872-2560,open,small_green,Pharmacy
"18.48028500,-67.02815500","FARMACIA LA CURVA, INC",2916 Ave Militar Km 112.9 Barrio Mora-Guerrero,ISABELA,PR,662,787-830-3189,open,small_green,Pharmacy
"18.48028500,-67.02815500",FARMACIA HAYDEE,3044 AVE JUAN HERNANDEZ ORTIZ,ISABELA,PR,6620547,787-872-5110,open,small_green,Pharmacy
"18.50004100,-67.02159000",Farmacia Chaves Inc,27 Calle Barbosa,ISABELA,PR,662,787-872-4545,not participating,measle_white,Pharmacy
"18.48028500,-67.02815500",FARMACIA CARIMAR,7032 AVE AGUSTIN RAMOS CALERO,ISABELA,PR,662,787-872-2860,open,small_green,Pharmacy
"18.50044100,-67.02701400",FARMACIA JOBOS,CARR 459 KM 12.8 BO JOBOS,ISABELA,PR,662,787-872-3660,not participating,measle_white,Pharmacy
"18.48028500,-67.02815500",FARMACIA LOS ANGELES,4406 AVE MILITAR BO COTTO,ISABELA,PR,662,787-872-5943,open,small_green,Pharmacy
"18.48028500,-67.02815500",SUPER FARMACIA REBECA,AVENIDA NOEL ESTRADA STE 80,ISABELA,PR,662,787-872-2410,open,small_green,Pharmacy
"18.49986700,-67.02048300",ISABELA FARMA EXPRESS,AVE NOEL ESTRADA 1 350 G CARR 113 KM 2 2,ISABELA,PR,662,787-872-1930,open,small_green,Pharmacy
"18.48028500,-67.02815500",WALMART PHARMACY 10-2085,3535 Ave Militar,ISABELA,PR,6625909,787-830-3004,open,small_green,Pharmacy
"18.49787600,-67.02970900",FARMACIA CHRISMAR,CARR 472 KM 2.3 AVE ESTACION 357,ISABELA,PR,662,787-830-8585,open,small_green,Pharmacy
"18.48028500,-67.02815500","Farmacia Moriah, Inc",7342 Ave. Agustin Ramos Calero,Isabela,PR,662,787-872-0948,open,small_green,Pharmacy
"18.48028500,-67.02815500","Farmacia Las Colinas Isabela, Inc.",Carr. 4494 Km 5.8 Bo Arenales Bajos,Isabela,PR,662,787-830-8888,open,small_green,Pharmacy
"18.48028500,-67.02815500",Walgreens,"Carr. PR 2 Int. Carr. PR 4494 KM.111.6 Bo. Mora, Plazoleta  Isabela",Isabela,PR,6624065,787-872-0502,open,small_green,Pharmacy
"18.22122000,-66.58827900",FARMACIA PADUA,CALLE GUILLERMO ESTEVES 63,JAYUYA,PR,664,787-828-4265,open,small_green,Pharmacy
"18.22122000,-66.58827900",SUPER FARMACIA LIZETTE,CALLE GUILLERMO ESTEVES STE 103,JAYUYA,PR,664,787-828-0755,open,small_green,Pharmacy
"18.21719000,-66.60792900",Farmacia Hayuya Inc.,"Carr 144 KM 3.7 Bo Jayuya Abajo, Sector Santa Clara",Jayuya,PR,664,787-828-4499,open,small_green,Pharmacy
"17.99736700,-66.49321800",FARMACIA GUAYABAL,Carr. 149 KM 63.8 Bo. Guayabal,JUANA DIAZ,PR,795,787-837-5445,open,small_green,Pharmacy
"17.99736700,-66.49321800",SUPER FARMACIA JUANA DIAZ INC,#27 TOMAS CARRION MADURO,JUANA DIAZ,PR,795,787-837-2139,open,small_green,Pharmacy
"17.99736700,-66.49321800",FARMACIA ELENA,CALLE COMERCIO 102,JUANA DIAZ,PR,7951610,787-837-2186,open,small_green,Pharmacy
"17.99736700,-66.49321800",WALGREENS #15462,PLAZA JUANA DIAZ BARRIO AMUELAS PR 149,JUANA DIAZ,PR,795,787-837-1111,open,small_green,Pharmacy
"17.99736700,-66.49321800",Farmacia Sonia J D Inc,COMMERCIO 61,JUANA DIAZ,PR,795,787-837-2666,open,small_green,Pharmacy
"17.99736700,-66.49321800",CENTRO SAN CRISTOBAL JUANA DIAZ,CALLE LA CRUZ #6,JUANA DIAZ,PR,795,787-837-2265,open,small_green,Pharmacy
"17.99736700,-66.49321800",KMART PHARMACY3993,"CARR. 149 INT. CARR. 584, PLAZA JUANA DIAZ",Juana Diaz,PR,795,787-260-0530,not participating,measle_white,Pharmacy
"17.99736700,-66.49321800",FARMACIA KIARA,CARR. 149 RAMAL 1 BO PASTILLO,JUANA DIAZ,PR,795,787-260-0077,open,small_green,Pharmacy
"17.99736700,-66.49321800",FARMACIA GABRIELA 2,CARRETERA 14 KM 11.1 BO. CAYABO,JUANA DIAZ,PR,795,787-260-2700,open,small_green,Pharmacy
"17.99736700,-66.49321800",Farmacia Guayabal #2,Carr. #1 KM 113.60 Bo. Cintrona,Juana Diaz,PR,795,787-260-3804,open,small_green,Pharmacy
"17.99736700,-66.49321800",Farmacia Liana,La Fe Plaza Carr 510 Km 2.9 Bo Sabana Llana,Juana Diaz,PR,795,787-837-3717,not participating,measle_white,Pharmacy
"17.99736700,-66.49321800",SD PHARMACY,CARRETERA 510  KM 6.5 BO AMUELAS,JUANA DIAZ,PR,795,787-651-6920,open,small_green,Pharmacy
"17.99736700,-66.49321800",Farmacia Sonia,Carr 149 Km 66.9 Bo. Lomas,Juana Diaz,PR,795,787-837-2666,not participating,measle_white,Pharmacy
"17.99736700,-66.49321800",Farmacia Viva,Carr. 14 Km 18.3 Sector Tijeras,Juana Diaz,PR,795,787-987-8482,open,small_green,Pharmacy
"18.20648900,-65.90177400",FARMACIA BORINQUEN,CALLE DR BARRERAS #16 ESQ CORCHADO,JUNCOS,PR,777,787-734-5591,open,small_green,Pharmacy
"18.20648900,-65.90177400",FARMACIA DEL PUEBLO I,CALLE ALGARIN ESQ DR BARRERA,JUNCOS,PR,7770519,787-734-3081,open,small_green,Pharmacy
"18.20648900,-65.90177400",FARMACIA DEL PILAR,CALLE TEODOMIRO DELFAU STE 26,JUNCOS,PR,777,787-734-2186,open,small_green,Pharmacy
"18.20648900,-65.90177400",FARMACIA DEL VALENCIANO,Urb Los Almendros Calle 2 A2 CARR 31 KM 24.9,JUNCOS,PR,7771599,787-734-7622,open,small_green,Pharmacy
"18.20648900,-65.90177400",FARMACIA LA INMACULADA,5 CALLE ALMODOVAR,JUNCOS,PR,777,787-734-4399,open,small_green,Pharmacy
"18.20648900,-65.90177400",FARMACIA DEL PUEBLO,CALLE MUNOZ RIVERA 35,JUNCOS,PR,777,787-734-3055,open,small_green,Pharmacy
"18.20648900,-65.90177400",WALGREENS #14,CARR ESTATAL NUM 31 KM 24,JUNCOS,PR,777,787-713-1441,open,small_green,Pharmacy
"18.20648900,-65.90177400",TU FARMACIA,PASEO ESCUTE #10,JUNCOS,PR,777,787-713-0286,open,small_green,Pharmacy
"18.20648900,-65.90177400",Farmacia Galeria,Bo Ceiba Norte Carr 31 Km 24.5 Galeria de Juncos Shopping Center,Juncos,PR,777,787-705-2239,open,small_green,Pharmacy
"18.20648900,-65.90177400",FARMACIA REY #23,Urb. Industrial #6 Bo. Ceiba,Juncos,PR,777,787-713-7300,open,small_green,Pharmacy
"18.05041200,-67.05920300",FARMACIA SAN JOSE,Calle 65 Infanteria # 13 C,LAJAS,PR,667,787-899-1693,not participating,measle_white,Pharmacy
"18.01509900,-67.05597300",Letty's Pharmacy,CALLE 65TH INFANTERIA 74 SUR,LAJAS,PR,6671609,787-899-1476,open,small_green,Pharmacy
"18.01509900,-67.05597300",FARMACIA CENTRAL,65 INFANTERIA NO 2 SUR,LAJAS,PR,667,787-899-2270,not participating,measle_white,Pharmacy
"18.05011800,-67.05883000",FARMACIA LA CANDELARIA,CALLE CONCORDIA #4 BAJOS,LAJAS,PR,6671617,787-899-1585,open,small_green,Pharmacy
"18.01509900,-67.05597300",FARMACIA SAN PEDRO,Carr 116 Int carr 304 Km 0.1 La Parguera,LAJAS,PR,667,787-899-8719,not participating,measle_white,Pharmacy
"18.04977200,-67.06066500",Farmacia Migrant Health Center,CARR 101 KM 7.1 BO PALMAREJO,LAJAS,PR,667,787-808-3509,open,small_green,Pharmacy
"18.01509900,-67.05597300",PharmaMax La Candelaria,carr 116  km 0.5,LAJAS,PR,667,787-808-1585,open,small_green,Pharmacy
"18.01509900,-67.05597300","Farmacia San Pablo San Pedro, Inc.",152 Union St.,Lajas,PR,667,939-214-7205,open,small_green,Pharmacy
"18.29595200,-66.88192500",Farmacia Lumen Mendez,PEDRO ALBIZU CAMPOS 10,LARES,PR,6692434,787-897-2050,open,small_green,Pharmacy
"18.29595200,-66.88192500",FARMACIA SAN JOSE,3 San Jose St,LARES,PR,669,787-897-4835,open,small_green,Pharmacy
"18.29595200,-66.88192500",FARMACIA COOPERATIVA DE LARES,23 CALLE RAMON DE JESUS SIERRA,LARES,PR,669,787-897-2464,open,small_green,Pharmacy
"18.29595200,-66.88192500",FARMACIA DEL CARMEN,CALLE RAMIREZ 3,LARES,PR,669,787-897-2900,open,small_green,Pharmacy
"18.29595200,-66.88192500",FARMACIA SAN ANTONIO,CARR 129 CRUCE CARR III CRUCE MIJAN,LARES,PR,6690063,787-897-2814,open,small_green,Pharmacy
"18.19060700,-66.83204100",FARMACIA HOSPITAL GENERAL CASTANER,ROAD 135 KM 64.2,CASTANER,PR,631,787-829-3215,open,small_green,Pharmacy
"18.29595200,-66.88192500",FARMACIA EXPRESO,CARR 129 INT 454 KM 21 8 BO CALLEJONES,LARES,PR,669,787-897-4159,open,small_green,Pharmacy
"18.29848500,-66.87474500",FARMACIA EL CENTRO,CARR 111 KM 1 0 CRUCE URB ALTAMIRA,LARES,PR,6691601,787-897-3340,open,small_green,Pharmacy
"18.29595200,-66.88192500",FARMACIA GRITO DE LARES,CARR KM 27 4,LARES,PR,6691425,787-897-0176,open,small_green,Pharmacy
"18.29848500,-66.87474500",Walgreens,Carr 111 KM 1.5 Bo Pueblo,Lares,PR,669,787-897-2290,open,small_green,Pharmacy
"18.25211100,-66.99005500",FARMACIA LAS MARIAS,AVE MATIAS BRUGMAN #95,LAS MARIAS,PR,670,787-827-3165,unknown,small_yellow,Pharmacy
"18.23683200,-66.99011400",PHARMACY LA INMACULADA,CARR 119 KM 23 2 BO FURNIAS,LAS MARIAS,PR,670,787-827-0343,open,small_green,Pharmacy
"18.23683200,-66.99011400",Professional Pharmacy,72 Ave Matias Brugman,Las Marias,PR,6702005,787-827-0747,open,small_green,Pharmacy
"18.19657600,-65.87197000",FARMACIA ANA,CALLE JOSE C BARBOSA 165,LAS PIEDRAS,PR,771,787-733-2671,open,small_green,Pharmacy
"18.19657600,-65.87197000",FARMACIA LAS PIEDRAS,CALLE BARBOSA SUITE 52,LAS PIEDRAS,PR,771,787-733-8255,open,small_green,Pharmacy
"18.19657600,-65.87197000",Farmacia Rey #9,CALLE JOSE CELSO BARBOSA #219,LAS PIEDRAS,PR,7713055,787-733-0323,open,small_green,Pharmacy
"18.19657600,-65.87197000",FARMACIA RUIZ BELVIS DE LAS PIEDRAS,CARR 917 KM 1.0 BO TEJAS,LAS PIEDRAS,PR,771,787-733-0426,not participating,measle_white,Pharmacy
"18.19657600,-65.87197000",Farmacia del Pueblo,73 CALLE BARBOSA,LAS PIEDRAS,PR,771,787-733-0224,open,small_green,Pharmacy
"18.19657600,-65.87197000",FARMACIA EL RIO INC,BO. EL RIO CARR 31 KM 18.3,LAS PIEDRAS,PR,771,787-733-1003,open,small_green,Pharmacy
"18.19657600,-65.87197000",WALGREENS,"Carr PR 917 Y PR 183 KM 20.6, Bo Montenes",LAS PIEDRAS,PR,7713481,787-716-7071,open,small_green,Pharmacy
"18.19657600,-65.87197000",Professional Pharmacy,calle Jose Celso Barbosa # 155,Las Piedras,PR,771,787-733-3979,not participating,measle_white,Pharmacy
"18.44740600,-65.89935700",FARMACIA JARDINES DE LOIZA INC,URB JARDINES DE LOIZA CARR 188 carr 188 km 10.7,LOIZA,PR,772,787-876-3106,open,small_green,Pharmacy
"18.44740600,-65.89935700",FARMACIA MEDIANIA,Carr 187  Km 7.0 Mediania Alta,Loiza,PR,772,787-876-1927,open,small_green,Pharmacy
"18.44740600,-65.89935700",CONCILIO DE SALUD INTEGRAL DE LOIZA,CARR 188 INT 187,LOIZA,PR,772,787-876-2042,open,small_green,Pharmacy
"18.36602700,-65.70813800",FARMACIA BRISAS DEL MAR,901 Calle Dra Irma I Ruiz Pagan,LUQUILLO,PR,773,787-889-0000,open,small_green,Pharmacy
"18.36602700,-65.70813800",FARMACIA MARENA,CALLE FERNANDEZ GARCIA SUITE 279,LUQUILLO,PR,7732222,787-889-3210,open,small_green,Pharmacy
"18.36602700,-65.70813800",WALGREENS,CALLE 1 AND PR3,LUQUILLO,PR,773,787-889-3107,open,small_green,Pharmacy
"18.36602700,-65.70813800",WALMART PHARMACY 10-3682,CALLE 2 URB BRISAS DEL MAR,LUQUILLO,PR,773,787-889-1077,open,small_green,Pharmacy
"18.36602700,-65.70813800",LUQUILLO PHARMACY,26 Calle Fernandez Garcia LOCAL 1 LUQUILLO PLAZA,Luquillo,PR,7732236,787-355-7100,open,small_green,Pharmacy
"18.44553000,-66.49026800",WALGREENS,Manati Plaza Esq Sureste Int Carr 2 & Carr 149,MANATI,PR,674,787-884-0404,open,small_green,Pharmacy
"18.44553000,-66.49026800",NUEVA FARMACIA MANATIENA,103 PASEO DE LA ATENAS,MANATI,PR,6745377,787-854-4995,not participating,measle_white,Pharmacy
"18.44553000,-66.49026800",FARMACIA HOSPITAL DOCTORS CENTER,CARRETERA ESTATAL NUMBER 2 KM 47 7,MANATI,PR,674,787-854-3322,open,small_green,Pharmacy
"18.44553000,-66.49026800",FARMACIA LAZARY,C7 CALLE 3 URB FLAMBOYAN EDIFICIO LEGASA,MANATI,PR,674,787-854-2566,open,small_green,Pharmacy
"18.44553000,-66.49026800",FARMACIA CORTES,CENTRO COMERCIAL CORTES CORDOVA DAVILLA # 156,MANATI,PR,674,787-854-2678,open,small_green,Pharmacy
"18.42501700,-66.49176000",Farmacia Merfi Inc,12 CALLE PATRIOTA POZO,MANATI,PR,674,787-854-3004,open,small_green,Pharmacy
"18.44553000,-66.49026800",MANATI MEDICAL CENTER DR OTERO LOPEZ,URB ATENAS HERNANDEZ CARRION ST NUMBER 668,MANATI,PR,6744658,787-854-3700,open,small_green,Pharmacy
"18.44553000,-66.49026800",FARMACIA DEL POZO,Rd 149 Km 2.8 Int 668 Bda Cordova Davila,MANATI,PR,674,787-854-2041,open,small_green,Pharmacy
"18.44553000,-66.49026800",FARMACIA MANATIENA,VILLA MARIA B2,MANATI,PR,674,787-854-3098,open,small_green,Pharmacy
"18.44553000,-66.49026800",FARMACIA SAN MARTIN MANATI,CENTRO COMERCIAL PUERTA DEL SOL 54 CARR 2 STE 3,MANATI,PR,6744973,787-884-4444,open,small_green,Pharmacy
"18.44553000,-66.49026800",FARMACIA ELDA,CARR 2 KM 44 5 BARRIO CANTERA,MANATI,PR,674,787-884-4449,open,small_green,Pharmacy
"18.44553000,-66.49026800",Atenas Community Health Center,CARR 2 KM 50,MANATI,PR,674,787-621-0945,open,small_green,Pharmacy
"18.44553000,-66.49026800",WALMART PHARMACY 10-3716,PLAZA MONTE REAL,MANATI,PR,674,787-621-0488,open,small_green,Pharmacy
"18.44553000,-66.49026800",FARMACIA SANTIAGO,BDA FELIX CORDOVA DAVILA 13,MANATI,PR,674,787-884-2857,open,small_green,Pharmacy
"18.44553000,-66.49026800",FARMACIA KIAMANI,URB ATENAS J9 CALLE HERNANDEZ CARRION,MANATI,PR,674,787-884-5551,not participating,measle_white,Pharmacy
"18.44553000,-66.49026800",FARMACIA ONE STOP PRESCRIPTION,PLAZA ECONO CARR 670,MANATI,PR,674,787-854-5357,open,small_green,Pharmacy
"18.44553000,-66.49026800",WALGREENS,PLAZA MONTE REAL CARR 2 KM 45 8,MANATI,PR,674,787-884-0007,open,small_green,Pharmacy
"18.44553000,-66.49026800",Farmacia Tierras Nuevas,"Carr 685, KM 2.9 Barrio Tierras Nuevas",Manati,PR,674,787-884-6201,open,small_green,Pharmacy
"18.44553000,-66.49026800",CVS Pharmacy #07967,88 Carr 2,Manati,PR,674,787-854-8450,open,small_green,Pharmacy
"18.44553000,-66.49026800",Centro De Medicina Integral De Manati,Bo. Cotto # 77 Urb Felix Cordova Davila,manati,PR,674,787-854-9000,open,small_green,Pharmacy
"18.44553000,-66.49026800",Farmacias Savia #4,CARR. ESTATAL NO. 2 VILLA MARIA SHOPPING CENTER,Manati,PR,674,787-534-3000,open,small_green,Pharmacy
"18.17294700,-66.94411100",Farmacia Migrant Health Center Maricao,calle zuzuareguy #7,Maricao,PR,606,787-838-3029,not participating,measle_white,Pharmacy
"18.00701400,-65.89871900",TU FARMACIA FAMILIAR,BARCELO 17,MAUNABO,PR,7072159,787-861-0348,open,small_green,Pharmacy
"18.00532100,-65.90000800",FARMACIA WILMET,CALLE LUIS MUNOZ RIVERA 32,MAUNABO,PR,707,787-861-6066,open,small_green,Pharmacy
"18.00790800,-65.90075100",Farmacia Buena Vida,24 Calle Munoz Rivera,Maunabo,PR,7072148,787-861-0348,open,small_green,Pharmacy
"18.18193800,-67.13380200",FARMACIA LUCIANO,MENDEZ VIGO 67 E,MAYAGUEZ,PR,6804934,787-834-5200,not participating,measle_white,Pharmacy
"18.18193800,-67.13380200",FARMACIA SERRANO INC,MENDEZ VIGO 169 E,MAYAGUEZ,PR,6805049,787-834-3400,open,small_green,Pharmacy
"18.21902300,-67.50806800",FARMACIA POST,103 SOUTH RAMON EMETERIO BETANCES ST,MAYAGUEZ,PR,681,787-832-2045,not participating,measle_white,Pharmacy
"18.22144300,-67.15606200",WALGREENS,Carr. #2 KM 152.8 Ave Eugenio De Hostos,MAYAGUEZ,PR,682,787-805-4805,open,small_green,Pharmacy
"18.16265600,-66.72477800",FARMACIA GIANONI,1 CALLE SANTA ANA ESQ BARBOSA,ADJUNTAS,PR,601,787-829-3870,not participating,measle_white,Pharmacy
"18.45339800,-66.06364200",FARMACIA NUEVA,62 E DE DIEGO,MAYAGUEZ,PR,680,787-832-5620,open,small_green,Pharmacy
"18.45767300,-66.07646000",FAMARCIA GLORIEL,50 N Calle Ramon Emeterio Betances,MAYAGUEZ,PR,680,787-832-2432,not participating,measle_white,Pharmacy
"18.18193800,-67.13380200",FARMACIA LA CANDELARIA,68 E RAMOS ANTONINI,MAYAGUEZ,PR,680,787-832-3284,open,small_green,Pharmacy
"18.18193800,-67.13380200",FARMACIA CENTRO RENAL INC,1050 AVE LOS CORAZONES SUITE 103,MAYAGUEZ,PR,6807042,787-831-0600,not participating,measle_white,Pharmacy
"18.18193800,-67.13380200",SUPER FARMACIA FAMILIAR,CARR 341 KM 3 4 BO MANI,MAYAGUEZ,PR,680,787-265-5910,not participating,measle_white,Pharmacy
"18.18193800,-67.13380200",FARMACIA DE DIEGO,15 Calle Dr Ramon E Betances N,MAYAGUEZ,PR,680,787-832-4200,not participating,measle_white,Pharmacy
"18.18193800,-67.13380200",Farmacia Belmonte #1,Centro Comercial Belmonte Centro,Mayaguez,PR,680,787-831-2212,not participating,measle_white,Pharmacy
"18.22144300,-67.15606200",FARMACIA SERRANO MIRADERO,CARR 108 KM 2 6 INT MIRADERO,MAYAGUEZ,PR,682,787-265-2684,not participating,measle_white,Pharmacy
"18.18193800,-67.13380200",FARMACIA YOMAR,160 CALLE DR RAMON E BETANCES S,MAYAGUEZ,PR,6804061,787-832-4102,not participating,measle_white,Pharmacy
"18.22144300,-67.15606200",KMART PHARMACY3882,"AVE. HOSTOS 2765, SUITE 150",Mayaguez,PR,682,787-265-5300,open,small_green,Pharmacy
"18.45588300,-66.08528500",FARMACIA CLINICA YAGUEZ,Calle Mckinley 114-0 Edificio Plaza Yaguez #101,MAYAGUEZ,PR,680,787-265-3330,not participating,measle_white,Pharmacy
"18.18193800,-67.13380200",FARMACIA LAS COLINAS,BO EL QUEMADO CARR 106 KM 5 8,MAYAGUEZ,PR,680,787-832-6122,open,small_green,Pharmacy
"18.18193800,-67.13380200",WALMART PHARMACY 10-2067,975 AVENUE HOSTOS STE 2100,MAYAGUEZ,PR,680,787-265-1090,open,small_green,Pharmacy
"18.18193800,-67.13380200",WALGREENS #555,CARR 2 BO SABALOS,MAYAGUEZ,PR,680,787-831-0674,open,small_green,Pharmacy
"18.45362200,-66.06347300",farmacia san jose corp,5 Calle De Diego E Esquina Dr. Basora,Mayaguez,PR,6804811,787-986-7837,not participating,measle_white,Pharmacy
"18.18193800,-67.13380200",Farmacia la Constancia,Calle salud esquina 11 de agosto,Mayaguez,PR,680,787-265-4114,open,small_green,Pharmacy
"18.22144300,-67.15606200",PHARMAMAX MAYAGUEZ,CARR 2 KM 156.7,MAYAGUEZ,PR,682,787-805-4000,open,small_green,Pharmacy
"18.18193800,-67.13380200",PHARMAMAX MAYAGUEZ 2,carr #2 km 149.5 BO. SABANETAS,MAYAGUEZ,PR,680,787-832-5555,open,small_green,Pharmacy
"18.18193800,-67.13380200",Farmacia Plaza,58 CALLE PABLO CASALS,MAYAGUEZ,PR,680,787-832-1426,open,small_green,Pharmacy
"18.38372700,-67.08079900",FARMACIA MORALES EGIPCIACO,72 Calle Don Chemary,MOCA,PR,6760223,787-877-3680,not participating,measle_white,Pharmacy
"18.38372700,-67.08079900",FARMACIA PERPETUO SOCORRO,CALLE BARBOSA 151,MOCA,PR,6762021,787-877-8100,not participating,measle_white,Pharmacy
"18.38372700,-67.08079900",SUPER FARMACIA FAMILIAR,CARR 420 KM 0.5 BO VOLADORAS,MOCA,PR,676,787-877-7322,open,small_green,Pharmacy
"18.38372700,-67.08079900",FARMACIA SAN JOSE,56 DON CHEMARY,MOCA,PR,676,787-877-4370,open,small_green,Pharmacy
"18.38372700,-67.08079900",FARMACIA MOCA,AVE LA MOCA 202,MOCA,PR,676,787-877-2216,not participating,measle_white,Pharmacy
"18.38372700,-67.08079900",SUPER FARMACIA LA MONSERRATE,235 BARBOSA ST,MOCA,PR,676,787-877-2405,not participating,measle_white,Pharmacy
"18.38372700,-67.08079900",FARMACIA TU SALUD,CARR 111 KM 115 BARRIO CAPA,MOCA,PR,676,787-818-1345,open,small_green,Pharmacy
"18.38372700,-67.08079900",FARMACIA EL DIVINO NINO,Carr 110 KM 10.5 835 CONCEPCION VERA,MOCA,PR,676,787-818-4839,open,small_green,Pharmacy
"18.38372700,-67.08079900",FARMACIA LA 110,CARR 110 KM 13 PT 0 Bo Pueblo,MOCA,PR,676,787-877-0110,open,small_green,Pharmacy
"18.38372700,-67.08079900",FARMACIA MOCA II,CARR 444 KM 0 7 BARRIO CUCHILLA,MOCA,PR,676,787-877-3448,open,small_green,Pharmacy
"18.38372700,-67.08079900",Farmacia Nueva,509 CALLE CONCEPCION VERA,MOCA,PR,676,787-877-6890,open,small_green,Pharmacy
"18.38372700,-67.08079900",Farmacia El Buen Pastor #2,Carr 420 Km 2.2 Barrio Voladoras,Moca,PR,676,787-877-9922,open,small_green,Pharmacy
"18.38372700,-67.08079900",LWPHARMACYGROUPCORP,#300 Ave. La Moca BO. PUEBLO PR 111 KM 5.2,MOCA,PR,676,787-551-8006,open,small_green,Pharmacy
"18.38372700,-67.08079900",Farmacia Babilonia,Carretera 111,Moca,PR,676,787-818-0018,not participating,measle_white,Pharmacy
"18.38372700,-67.08079900",Farmacia Fabi-Sel,carr.112 int.445 bo. rocha,moca,PR,676,787-877-4595,open,small_green,Pharmacy
"18.38372700,-67.08079900",FARMACIA MI BUEN VECINO CORP.,carretera 115 kilometro 26.1 Barrio Asomante,Aguada,PR,676,787-877-8100,not participating,measle_white,Pharmacy
"18.38372700,-67.08079900",LIFE PHARMACY CORP,CARR 110 KM 11.2,MOCA,PR,676,787-818-5433,open,small_green,Pharmacy
"18.31697600,-66.41520700",FARMACIA MODELO,16 AVE BUENA VISTA,MOROVIS,PR,687,787-862-3525,not participating,measle_white,Pharmacy
"18.31697600,-66.41520700",FARMACIA BIMARIE,CARR 633 KM 4.7 BO. BARAHONA,MOROVIS,PR,6875778,787-862-2244,open,small_green,Pharmacy
"18.31697600,-66.41520700",FARMACIA LIDELIZ,43 Calle Principal,MOROVIS,PR,687,787-862-5279,open,small_green,Pharmacy
"18.31697600,-66.41520700",FARMACIA LIANGIE,31 Calle Principal,MOROVIS,PR,6873048,787-862-1733,open,small_green,Pharmacy
"18.31697600,-66.41520700",MOROVIS COMMUNITY HEALTH CENTER INC,2 CALLE PATRON,MOROVIS,PR,687,787-862-3000,open,small_green,Pharmacy
"18.31697600,-66.41520700",WALGREENS #202,200 CARR 137,MOROVIS,PR,687,787-862-0104,open,small_green,Pharmacy
"18.31697600,-66.41520700",FARMACIA ADRIANA,CARRETERA 155 KM 51.3,MOROVIS,PR,687,787-862-7744,open,small_green,Pharmacy
"18.31697600,-66.41520700",Farmacia Rubio,18 Calle Principal,Morovis,PR,687,787-862-5252,open,small_green,Pharmacy
"18.31697600,-66.41520700",Farmacia Renacer,Bo Gato Carr. 155 Km 30.8,Orocovis,PR,687,787-867-6604,open,small_green,Pharmacy
"18.20955900,-65.73497200",FARMACIA DIAZ,CALLE BALDORIOTY 34,NAGUABO,PR,718,787-874-1086,not participating,measle_white,Pharmacy
"18.22139000,-65.77831000",Farmacia La Milagrosa,28 GOYCO ST,NAGUABO,PR,718,787-874-5092,open,small_green,Pharmacy
"18.22139000,-65.77831000",FARMACIA RUIZ BELVIS DE NAGUABO,CARR 31 KM 13 8 BO PENA POBRE,NAGUABO,PR,7189726,787-874-3174,not participating,measle_white,Pharmacy
"18.22139000,-65.77831000",FARMACIA FREDDY INC,MUNOZ RIVERA 17,NAGUABO,PR,718,787-874-3122,open,small_green,Pharmacy
"18.21184000,-65.73689300",SUPER FARMACIA GARMER,CALLE MUNOZ RIVERA 19,NAGUABO,PR,718,787-874-2134,open,small_green,Pharmacy
"18.22139000,-65.77831000",Zulyer Pharmacy,Carr #31 km 3.7 bo. Daguao Shopping Ralph,NAGUABO,PR,718,787-874-3760,open,small_green,Pharmacy
"18.22139000,-65.77831000",Mayra's Pharmacy PSC,Carr. 31 Km. 3.3 at Supermercados Econo,Naguabo,PR,718,787-874-9911,open,small_green,Pharmacy
"18.22139000,-65.77831000",WALGREENS,"CARR. 31, KM. 3.7, SECTOR DUQUE",Naguabo,PR,7182123,787-874-8200,open,small_green,Pharmacy
"18.29801700,-66.22975100",FARMACIA SAN ANDRES,RAMAL CARRETERA 164 KM 0 2 SECTOR DESVIO,NARANJITO,PR,719,787-869-3345,open,small_green,Pharmacy
"18.30055600,-66.24356300",FARMACIA SAN MIGUEL,CALLE GEORGETTI 109,NARANJITO,PR,719,787-869-2460,open,small_green,Pharmacy
"18.29801700,-66.22975100",MI FARMACIA,CARR 152 KM 9 POINT 9 BO CEDRO ARRIBA,NARANJITO,PR,719,787-869-1604,open,small_green,Pharmacy
"18.29801700,-66.22975100",Farmacia Rey #13,CARR 152 KM 12.5 BO. CEDRO ARRIBA NARANJITO SHOPPING VILLAGE,NARANJITO,PR,719,787-869-4945,open,small_green,Pharmacy
"18.30055600,-66.24356300",FARMACIA NARANJITO INC,139 Calle Georgetti,NARANJITO,PR,719,787-869-3965,open,small_green,Pharmacy
"18.29801700,-66.22975100",SUPER FARMACIA NUEVA,91 GEORGETTI,NARANJITO,PR,719,787-869-2290,open,small_green,Pharmacy
"18.29801700,-66.22975100",FARMACIA COOP SAN MIGUEL,BO CEDRO ABAJO CARR 152 KM 17 8,NARANJITO,PR,7190459,787-869-4710,open,small_green,Pharmacy
"18.29801700,-66.22975100",WALGREENS #811,SHOPPING CENTER AND HWY 147,NARANIJITO,PR,719,787-869-0110,open,small_green,Pharmacy
"18.29801700,-66.22975100",FARMACIA SAN ANTONIO DE NARANJITO INC,GEOGETTI 108,NARANJITO,PR,719,787-869-2190,not participating,measle_white,Pharmacy
"18.30055600,-66.24356300",Farmacia Jardines,Carr 164,Naranjito,PR,719,787-695-5555,open,small_green,Pharmacy
"18.22749200,-66.39670000",FARMACIA DEL CARMEN,CALLE 4 DE JULIO 31,OROCOVIS,PR,7204433,787-867-2380,open,small_green,Pharmacy
"18.22749200,-66.39670000",FARMACIA OROCOVIS,Calle 4 DE JULIO STE 17,OROCOVIS,PR,720,787-867-2450,open,small_green,Pharmacy
"18.22686200,-66.39402000",FARMACIA OFELIA,PEDRO ARROYO 6,OROCOVIS,PR,720,787-867-2820,open,small_green,Pharmacy
"18.22907100,-66.39044800",FARMACIA MINELLY INC,CARR 155 KM 31 PUNTO 5 BO GATO,OROCOVIS,PR,720,787-867-1430,open,small_green,Pharmacy
"18.22907100,-66.39044800",Farmacia Novedades,"Carr. 155, Km 27, H7, P2 Salida a Coamo # 8","Orocovis, PR  00720",PR,720,787-867-0180,not participating,measle_white,Pharmacy
"18.00999400,-66.01057200",FARMACIA SANTA ANA,C/G Riefkohl #8,PATILLAS,PR,723,787-839-5025,open,small_green,Pharmacy
"18.00999400,-66.01057200",GENESIS PHARMACY,CARRETERA 3 KM 123,PATILLAS,PR,723,787-839-4461,open,small_green,Pharmacy
"17.97707300,-66.11331500",FARMACIA JOMARI,CALLE MUNOZ RIVERA SUITE 18,PATILLAS,PR,723,787-839-2730,open,small_green,Pharmacy
"18.00999400,-66.01057200",CENTRO DE SERVICIOS PRIMARIOS DE SALUD DE PATILLAS INC,99 Guillermo Riefkohl Street,PATILLAS,PR,7230697,787-839-4320,open,small_green,Pharmacy
"18.00442500,-66.01388100",FARMACIA DEL VALLE,CARR.3 CALLE RIEFKHOL SUITE # 3,PATILLAS,PR,723,787-271-3744,open,small_green,Pharmacy
"18.02353500,-66.72615600",FARMACIA ILEANA,905 CALLE MUNOZ RIVERA,PENUELAS,PR,624,787-836-1058,not participating,measle_white,Pharmacy
"18.02353500,-66.72615600",FARMACIA QUINONEZ,418 MUNOZ RIVERA Street,PENUELAS,PR,624,787-836-1042,open,small_green,Pharmacy
"18.02353500,-66.72615600",FARMACIA KENNEDY,MUNOZ RIVERA ST 963,PENUELAS,PR,624,787-836-2173,open,small_green,Pharmacy
"18.02353500,-66.72615600",WALGREENS #9118,CARR PR 385 KM 0.6 PLAZA PENUELAS BARRIO CUEVAS,PENUELAS,PR,624,787-836-1123,open,small_green,Pharmacy
"18.02353500,-66.72615600",Farmacia Guayanes,Edificio Aurora A -1 Calle Pedro Velazquez Diaz # 628,Penuelas,PR,624,787-836-3131,unknown,small_yellow,Pharmacy
"18.01302300,-66.62307300",Farmacia La Fe 1,CALLE VICTORIA STE 108,PONCE,PR,7303767,787-844-3155,not participating,measle_white,Pharmacy
"18.03083100,-66.61683800",FARMACIA PENA INC,110 VICTORIA,PONCE,PR,730,787-842-9182,not participating,measle_white,Pharmacy
"18.01302300,-66.62307300",FARMACIA SANTA ANA,CALLE VICTORIA 367,PONCE,PR,730,787-842-2285,open,small_green,Pharmacy
"17.98985300,-66.66411600",FARMACIA LOURDES,CARRETERA 123 STE 14,PONCE,PR,728,787-842-1314,open,small_green,Pharmacy
"18.10803900,-66.63465300",FARMACIA INTERNATIONAL DRUG PONCE,CONCORDIA 8118 EDIF GALERIA PROF SUITE 101,PONCE,PR,731,787-840-8903,not participating,measle_white,Pharmacy
"18.01760200,-66.60980000",FARMACIA GLENVIEW,CARR 14 PLAZA LAS MONJITAS 1255,PONCE,PR,730,787-844-3650,open,small_green,Pharmacy
"17.98985300,-66.66411600",FARMACIA WIL SONS,934 AVE PONCE DE LEON URB LAS DELICIAS,PONCE,PR,7283814,787-840-2150,open,small_green,Pharmacy
"18.02835700,-66.59625500",FARMACIA EL APOTECARIO,AVE TITO CASTRO #625 STE 101,PONCE,PR,7160206,787-844-2135,open,small_green,Pharmacy
"17.99056700,-66.60754200",FARMACIA LORRAINE INC,1681 PASEO VILLA FLORES,PONCE,PR,716,787-843-1838,open,small_green,Pharmacy
"18.03217700,-66.61845800",WALGREENS #12874,Ave Las /Americas 2116,PONCE,PR,7314607,787-709-4774,open,small_green,Pharmacy
"18.00199500,-66.60742900",FARMACIA GOYCO,8169 CONCORDIA ST SUITE 2,PONCE,PR,7171555,787-842-9169,open,small_green,Pharmacy
"18.10803900,-66.63465300",WALGREENS #15172,INT.AVE.FAGOT Y CALLE #13,PONCE,PR,731,787-841-7400,open,small_green,Pharmacy
"17.99167800,-66.66124900",FARMACIA EL TUQUE,553 Calle Ramos Antonini,PONCE,PR,7284806,787-844-2805,open,small_green,Pharmacy
"17.99078300,-66.66204100",FARMACIA DEL SUR,CALLE COMERCIO 19,PONCE,PR,730,787-844-0098,open,small_green,Pharmacy
"18.01494600,-66.62978800",FARMACIA COTO LAUREL,85 CALLE CENTRAL SUITE 1,COTO LAUREL,PR,7802139,787-848-2245,open,small_green,Pharmacy
"18.00199500,-66.60742900",FARMACIA HOSPITAL DAMAS,2213 PONCE BYPASS,PONCE,PR,717,787-840-8686,open,small_green,Pharmacy
"17.98417500,-66.61911800",MED CENTRO,1034 HOSTOS AVE,PONCE,PR,716,787-843-9370,open,small_green,Pharmacy
"18.01022200,-66.63094000",FARMACIA ADONAI INC,21 calle DR Ulises Clavell,Ponce,PR,716,787-984-1900,not participating,measle_white,Pharmacy
"17.98985300,-66.66411600",KMART PHARMACY7741,"Carr. #2, Centro Comercial Ponce 200",PONCE,PR,728,787-812-1616,open,small_green,Pharmacy
"18.10803900,-66.63465300",WALMART PHARMACY 10-2026,Esq Puerto Rico #2,PONCE,PR,731,787-709-4036,open,small_green,Pharmacy
"18.02290900,-66.65483700",FARMACIA GABRIELA 1,CARR 132 KM 22.1 BO RIO CANAS,PONCE,PR,728,787-290-1963,open,small_green,Pharmacy
"17.98985300,-66.66411600",WALGREENS #165,2706 AVE MARUCA,PONCE,PR,728,787-812-5978,open,small_green,Pharmacy
"18.03083100,-66.61683800",FARMACIA SAN JORGE INC,30 PASEO ATOCHA SUITE 1,PONCE,PR,730,787-840-5979,open,small_green,Pharmacy
"18.01965300,-66.60117600",WALMART PHARMACY 10-5793,#333 CARR #14 COTTO LAUREL,Ponce,PR,780,787-651-0482,open,small_green,Pharmacy
"18.03083100,-66.61683800",Sam's Pharmacy 10-6690,Carretera Estatal #2 Ave Eduardo Ruberte #2188,Ponce,PR,730,787-843-4835,open,small_green,Pharmacy
"18.03083100,-66.61683800",WALGREENS #10825,"CARR.ESTATAL PR #506 & LOS FLAMBOYANES KM. 1.0, COTO LAUREL",Ponce,PR,730,787-840-8801,open,small_green,Pharmacy
"18.01476700,-66.61495600",Walgreens #700,Carr 14 KM 3.7 Centro Comercial Ponce Super Center,Ponce,PR,7164618,787-709-4591,open,small_green,Pharmacy
"18.01034700,-66.62762700",CVS Pharmacy #06493,399 Calle Villa,Ponce,PR,7284521,787-843-8431,open,small_green,Pharmacy
"17.99056700,-66.60754200",CVS Pharmacy #08429,URB Jardines de Fagot 2500 Calle Obispado,Ponce,PR,716,787-843-8415,open,small_green,Pharmacy
"17.99311900,-66.65995500",FARMACIA ACADEMICA,396 calle Luis F. Salas,Ponce,PR,716,787-259-3946,open,small_green,Pharmacy
"18.00199500,-66.60742900",CVS Pharmacy,2511 Ponce BYP,Ponce,PR,7171314,787-284-2500,open,small_green,Pharmacy
"17.98985300,-66.66411600",AMERICA MED CORP,3025 Carr 591 EL TUQUE INDUSTRIAL PARK,Ponce,PR,7282805,787-267-4006,not participating,measle_white,Pharmacy
"18.03083100,-66.61683800",Farmacia VIDA,Centro del Sur Mall Blvd Miguel A Pou Km 26.4,Ponce,PR,730,787-840-2015,open,small_green,Pharmacy
"18.00058300,-66.62098600",Farmacia La Fe #5,471 MUÃ‘OZ RIVERA ESQ. FERROCARRIL LOCAL #1,PONCE,PR,7330000,787-569-8700,not participating,measle_white,Pharmacy
"18.00833000,-66.61196000",FARMACIA GABRIELA,AVE. F.D. ROSSEVELT # 3196,PONCE,PR,780,787-843-0055,open,small_green,Pharmacy
"18.45303000,-66.93368900",FARMACIA SAN RAFAEL,CALLE SAN JUSTO 165,QUEBRADILLAS,PR,6781739,787-895-2121,open,small_green,Pharmacy
"18.45303000,-66.93368900",SUPER FARMACIA NUEVA INC,PLAZUELA LINERAS STE 112,QUEBRADILLAS,PR,678,787-895-6473,not participating,measle_white,Pharmacy
"18.45303000,-66.93368900",FARMACIA NUEVO CONCEPTO,CALLE CALIFORNIA 157,QUEBRADILLAS,PR,678,787-895-3060,open,small_green,Pharmacy
"18.45303000,-66.93368900",FARMACIA QUEBRADILLAS,Calle Socorro # 155,QUEBRADILLAS,PR,678,787-895-6006,open,small_green,Pharmacy
"18.45303000,-66.93368900",FARMACIA LASALLE,2621 RD 113 KM 11 6,QUEBRADILLAS,PR,6780976,787-895-1001,open,small_green,Pharmacy
"18.45303000,-66.93368900",FARMACIA GLORIANA,CARR NO 2 KM 96 8,QUEBRADILLAS,PR,678,787-895-2895,open,small_green,Pharmacy
"18.45303000,-66.93368900",KRIZIAS DRUG,Carr. 32 km 98.7 Bo. Cocos,QUEBRADILLAS,PR,678,787-895-5702,open,small_green,Pharmacy
"18.45303000,-66.93368900",FARMACIA SAN ANTONIO,CARR 113 KM 13.6 BARRIO SAN ANTONIO,QUEBRADILLAS,PR,678,787-895-6707,open,small_green,Pharmacy
"18.45303000,-66.93368900",Walgreens 15275,"Carretera Estatal PR-2, KM. 101.0",Quebradillas,PR,6780000,787-895-0808,open,small_green,Pharmacy
"18.33578100,-67.25254700",FARMACIA NOGUERAS,1 Calle Munoz Rivera W,RINCON,PR,6772140,787-823-2780,not participating,measle_white,Pharmacy
"18.33578100,-67.25254700",FARMACIA DEL PUEBLO,CALLE MUNOZ RIVERA 33,RINCON,PR,677,787-823-2540,open,small_green,Pharmacy
"18.33578100,-67.25254700",FARMACIA RAISA,CARR 115 KM 11.3 BO PUEBLO,RINCON,PR,677,787-823-2929,open,small_green,Pharmacy
"18.38018100,-65.83281400",SUPERFARMACIA SANTA TERESA INC,17 Calle Pimentel,Rio Grande,PR,745,787-887-2475,open,small_green,Pharmacy
"18.36734700,-65.81658300",FARMACIA CARIBE,CENTRO COMERCIAL VILLAS DE RIO GRANDE,RIO GRANDE,PR,745,787-887-3060,open,small_green,Pharmacy
"18.38024800,-65.84017100",FARMACIA CARIBE,"Calle K #HH17Y18, URB Alturas De Rio Grande",RIO GRANDE,PR,745,787-887-4444,open,small_green,Pharmacy
"18.36734700,-65.81658300",FARMACIA CARIBE,Carretera #3 KM 26.3,RIO GRANDE,PR,745,787-888-1888,open,small_green,Pharmacy
"18.38018100,-65.83281400",FARMACIA EL YUNQUE,37 Calle Pimentel,RIO GRANDE,PR,745,787-888-1700,open,small_green,Pharmacy
"18.36734700,-65.81658300",WALGREENS #328,"Carr 3, Km 23.9 Urb Industrial, Las Flores",Rio Grande,PR,745,787-887-0237,open,small_green,Pharmacy
"18.36734700,-65.81658300",Pharmacy Express,Carr #3 km 24.5 Sector I Bo Guzman Abajo,Rio Grande,PR,745,787-657-3555,open,small_green,Pharmacy
"18.36734700,-65.81658300",WALGREENS #13934,RIO GRANDE PLAZA CARR #3 KM. 29.1,RIO GRANDE,PR,745,787-888-8755,open,small_green,Pharmacy
"18.08732200,-66.93491100",FARMACIA IRIZARRY,30 Angel G. Martinez ST.,SABANA GRANDE,PR,6371914,787-873-3960,open,small_green,Pharmacy
"18.08732200,-66.93491100","FARMACIA NORED, INC.",4 QUILLICHINI AVE,SABANA GRANDE,PR,637,787-873-6010,open,small_green,Pharmacy
"18.08732200,-66.93491100",SUPER FARMACIA NELIA Inc,16 FCO MA QUINONES,SABANA GRANDE,PR,637,787-873-0198,open,small_green,Pharmacy
"18.08732200,-66.93491100",FARMACIA SAN ISIDRO,CALLE SAN ISIDRO 26,SABANA GRANDE,PR,637,787-804-0225,open,small_green,Pharmacy
"18.08732200,-66.93491100",FARMACIA CENTRAL DE SABANA GRANDE,No.110 Ave 5 de Diciembre,SABANA GRANDE,PR,637,787-873-2470,not participating,measle_white,Pharmacy
"18.08732200,-66.93491100",FARMACIA LUGO INC,CARR 363 KMO 0 BO SANTANA,SABANA GRANDE,PR,637,787-873-0007,not participating,measle_white,Pharmacy
"18.08732200,-66.93491100",FARMACIA SAGRADO CORAZON EXPRESS,ED DORA PAGANELLI LOCAL 2 AVE VICENTE QUILINCHINI,SABANA GRANDE,PR,637,787-873-7676,open,small_green,Pharmacy
"18.08732200,-66.93491100",FARMACIA SAGRADO CORAZON 2,CALLE ANGEL G. MARTINEZ # 3,SABANA GRANDE,PR,637,939-910-7920,open,small_green,Pharmacy
"18.08732200,-66.93491100",FARMACIA LEMAR III,CARR 121 KM 4.8 BO MAGINAS,SABANA GRANDE,PR,637,787-254-9401,open,small_green,Pharmacy
"18.08732200,-66.93491100",Farmacia Santa Teresa,Carr. 363 Km 0.1 Bo. Santana,Sabana Grande,PR,637,787-873-1125,open,small_green,Pharmacy
"17.97559700,-66.29665600",FARMACIA MELLYBER,CALLE DR. SANTOS P. AMADEO 49 Salinas PR.,SALINAS,PR,751,787-824-2026,open,small_green,Pharmacy
"17.97688900,-66.29683000",Farmacia La Monserrate,19 Calle Munoz Rivera,SALINAS,PR,751,787-824-2220,open,small_green,Pharmacy
"17.99852000,-66.26482500",FARMACIA CASTRO INC,BO PLAYA J 31,SALINAS,PR,751,787-824-5355,open,small_green,Pharmacy
"17.99831300,-66.26695800",FARMACIA GARROD,CALLE MUNOZ RIVERA #24,SALINAS,PR,751,787-824-7777,open,small_green,Pharmacy
"17.99852000,-66.26482500",Farmacia Rey #15,CALLE AGUSTIN COLON PACHECO #8,SALINAS,PR,751,787-824-2076,open,small_green,Pharmacy
"17.99852000,-66.26482500",FM SALINAS CORP.,BALDORIOTY 62,SALINAS,PR,751,787-824-3072,not participating,measle_white,Pharmacy
"17.96577000,-66.21955500",FARMACIA MARILYN,Carr # 3 km. 151.7 Bo.Coqui,AGUIRRE,PR,704,787-853-4548,open,small_green,Pharmacy
"17.97798600,-66.29935600",Farmacia GS Inc,Calle Monserrate #26,Salinas,PR,751,787-824-4444,open,small_green,Pharmacy
"17.99852000,-66.26482500",Farmacia Marife,233A Calle Santa Ana Bo Coco Nuevo,Salinas,PR,7512635,787-824-2617,open,small_green,Pharmacy
"17.99852000,-66.26482500",WALGREENS #10161,"CARR. PR #180 INT. CARR. PR#3, KM 158.4 BO. PUEBLO",SALINAS,PR,751,787-824-7352,open,small_green,Pharmacy
"18.11328400,-67.03970600",FARMACIA MARTIN,CALLE RUIZ BELVIS 22,SAN GERMAN,PR,6834067,787-892-1122,open,small_green,Pharmacy
"18.11328400,-67.03970600",FARMACIA SAN AGUSTIN,# 9 Calle Concepcion Suite # 2 Esq Calle Sol,SAN GERMAN,PR,683,787-892-1164,open,small_green,Pharmacy
"18.11328400,-67.03970600",Super Farmacia Mayi,#13 Calle Principal Urb. El Retiro,SAN GERMAN,PR,6834180,787-892-1485,open,small_green,Pharmacy
"18.11328400,-67.03970600",FARMACIA NUEVA,CALLE CARRO STE 5,SAN GERMAN,PR,683,787-892-5290,open,small_green,Pharmacy
"18.11328400,-67.03970600",FARMACIA REPARTO,CALLE LUNA ABAJO STE 83,SAN GERMAN,PR,683,787-892-5264,not participating,measle_white,Pharmacy
"18.11328400,-67.03970600",OMEGA PHARMACY,CALLE DE VEVE 102,SAN GERMAN,PR,683,787-892-5177,open,small_green,Pharmacy
"18.11328400,-67.03970600",HOSP DE LA CONCEPCION FARMACIA,ROAD 2 KM 173 4 BO CAIN BAJO,SAN GERMAN,PR,6830285,787-892-1860,open,small_green,Pharmacy
"18.11328400,-67.03970600",Farmacia International Drug,CALLE LUZ CELENIA TIRADO # 8,SAN GERMAN,PR,683,787-892-2880,not participating,measle_white,Pharmacy
"18.11328400,-67.03970600",KMART PHARMACY3896,INT. Carr. 122 & Carr. #2,San German,PR,683,787-892-1500,not participating,measle_white,Pharmacy
"18.11328400,-67.03970600",WALGREENS #670,10 AVENIDA BAXTER,SAN GERMAN,PR,683,787-892-4406,open,small_green,Pharmacy
"18.40105500,-66.04977300",WALGREENS #891,65TH INFANTRY SH CTR,RIO PIEDRAS,PR,925,787-767-1636,open,small_green,Pharmacy
"18.40456700,-66.08384400",FARMACIA VARGAS,1000 JESUS T PINERO AVE Esq. Andalucia,SAN JUAN,PR,921,787-782-6129,open,small_green,Pharmacy
"18.45077100,-66.05356300",FARMACIA AMERICANA INC,"Calle Loiza No 1854, ESQ. LAS FLORES 101",SAN JUAN,PR,914,787-728-6095,open,small_green,Pharmacy
"18.45454800,-66.06621500",FARMACIA PROFESIONAL ASHFORD,29 CALLE WASHINGTON CONDADO,SAN JUAN,PR,907,787-722-1740,open,small_green,Pharmacy
"18.40105500,-66.04977300",Farmacia Capetillo,ROBLES 251,SAN JUAN,PR,9253104,787-751-6312,open,small_green,Pharmacy
"18.39765900,-66.05176700",FARMACIA REY #7,CALLE BRUMBAUGH 51 ESQ. DEL PILAR,SAN JUAN,PR,925,787-765-7020,not participating,measle_white,Pharmacy
"18.40373700,-66.08744400",PROFESSIONAL DRUG,733 DE DIEGO AVE,SAN JUAN,PR,9205004,787-783-4285,open,small_green,Pharmacy
"18.40239300,-65.99370100",FARMACIA COMANDANTE,932 CALLE CARMEN HERNANDEZ URBANIZACION EL COMANDANTE,SAN JUAN,PR,924,787-752-0315,open,small_green,Pharmacy
"18.39826400,-66.02238500",SUPER FARMACIA VANGA,10 Ave Simon Madera,SAN JUAN,PR,9242231,787-751-0565,open,small_green,Pharmacy
"18.39227300,-66.08855200",FARMACIA KARLA,URB LAS LOMAS T3-6 CARR 21,SAN JUAN,PR,921,787-783-4368,open,small_green,Pharmacy
"18.36937600,-66.06280400",Farmacia Venus,AVE ACUARIO #19 STE 16 VENUS GARDENS PLAZA,SAN JUAN,PR,926,787-761-4990,open,small_green,Pharmacy
"18.37357800,-66.04582200",FARMACIA DEL CARMEN,CARR 844 KM 3 Cupey Bajo,Rio Piedras,PR,926,787-748-0880,open,small_green,Pharmacy
"18.41077500,-66.03670800",Farmacia Medina #5,BO SABANA LLANA 486 CALLE DE DIEGO,SAN JUAN,PR,9233141,787-763-0255,open,small_green,Pharmacy
"18.42201800,-66.05060200",SUPER FARMACIA BARBOSA,327 AVE BARBOSA,SAN JUAN,PR,917,787-763-8477,not participating,measle_white,Pharmacy
"18.39500000,-66.07980000",Medic Pharmacy Inc,1228 Calle 52 SE,San Juan,PR,921,787-758-8497,open,small_green,Pharmacy
"18.40044100,-66.05399700",FIRST PHARMACY 3,86 CALLE GEORGETTI,SAN JUAN,PR,9253607,787-751-6646,open,small_green,Pharmacy
"18.36937600,-66.06280400",FARMACIA REY #1,CENTRO COMERCIAL LITHEDA 107 CARR 845 CUPEY BAJO,SAN JUAN,PR,926,787-761-4205,open,small_green,Pharmacy
"18.42877700,-66.04724700",FIRST PHARMACY 4,AVE. BARBOSA STE 426,SAN JUAN,PR,9174306,787-764-9981,open,small_green,Pharmacy
"18.46061000,-66.08345600",WALGREENS,AVE ASHFORD ESQUINA CONDADO SANTURCE,SAN JUAN,PR,907,787-721-7895,open,small_green,Pharmacy
"18.41906900,-66.06231900",FARMACIA FATIMA,224 DOMENECH AVE,SAN JUAN,PR,9183504,787-753-0794,open,small_green,Pharmacy
"18.41077500,-66.03670800",Farmacia Community,AVE MUNOZ SOUFFRONT AVENUE URB LOS MAESTROS 461,SAN JUAN,PR,923,787-250-6056,not participating,measle_white,Pharmacy
"18.44338400,-66.06813300",FARMACIA LUIS #4,1501 PONCE DE LEON,Santurce,PR,909,787-772-1590,open,small_green,Pharmacy
"18.43789600,-66.04808700",FARMACIA ALICIA,2203 AVE BORINQUEN BO OBRERO,SAN JUAN,PR,9154416,787-726-0939,open,small_green,Pharmacy
"18.41046200,-66.06053300",FARMACIA METRO HEALTH INC,CARR 21 NO 1785,RIO PIEDRAS,PR,928,787-782-9999,open,small_green,Pharmacy
"18.41046200,-66.06053300",FARMACIA CARRAIZO,CARR 844 KM 5 6,TRUJILLO ALTO,PR,928,787-760-2650,open,small_green,Pharmacy
"18.41046200,-66.06053300",PUERTO RICO DRUG CO INC,157 SAN FRANCISO STREET,SAN JUAN,PR,902,787-725-2202,open,small_green,Pharmacy
"18.35739800,-66.07667200",FARMACIA LOS MAESTROS,CALLE MUNIZ SOUFFRONT STE 459,SAN JUAN,PR,923,787-765-8811,open,small_green,Pharmacy
"18.43789600,-66.04808700",FARMACIA PLAZA 17,2263 AVE BORINQUEN BO OBRERO,SAN JUAN,PR,9154412,787-620-9617,open,small_green,Pharmacy
"18.45076200,-66.05466000",WALGREENS,Calle Loiza 1965 Esq Santa Cecilia,Santurce,PR,911,787-728-0033,open,small_green,Pharmacy
"18.41046200,-66.06053300",FARMACIA HOSPITAL DEL MAESTRO,CALLE SERGIO CUEVAS BUSTAMANTE STE 550,SAN JUAN,PR,919,787-758-8383,not participating,measle_white,Pharmacy
"18.36937600,-66.06280400",Farmacia Cristina-La Cumbre,Ave. Santa Rosa Suite 17 La Cumbre Shopping Center,SAN JUAN,PR,9265402,787-720-8854,open,small_green,Pharmacy
"18.36937600,-66.06280400",FARMACIA REYES,AVE PARANA CENTRO COMERCIAL RIO PIEDRAS HEIGHTS,SAN JUAN,PR,926,787-764-2899,open,small_green,Pharmacy
"18.39554800,-66.09330300",FARMACIA LAS LOMAS,829 AVENUE SAN PATRICIO STE 1,SAN JUAN,PR,9211313,787-783-3755,open,small_green,Pharmacy
"18.39784100,-66.04941400",SUPER FARMACIA ARZUAGA,108 CALLE ARZUAGA,SAN JUAN,PR,9253705,787-767-2626,open,small_green,Pharmacy
"18.39763300,-66.05276300",FARMACIA HOSPITAL AUXILIO MUTUO,AVE PONCE DE LEON 715 PDA 37 AND ONE HALF,HATO REY,PR,919,787-758-2000,open,small_green,Pharmacy
"18.46590100,-66.10356800",FARMACIA LUMA,SAN FRANCISCO STE 255,SAN JUAN,PR,9011724,787-722-0335,open,small_green,Pharmacy
"18.41906900,-66.06231900",FARMACIA CLINICA LAS AMERICAS,400 AVE FD ROOSEVELT STE 102,SAN JUAN,PR,9182129,787-764-3520,open,small_green,Pharmacy
"18.43789600,-66.04808700",FARMACIA ROYAL,2001 AVE BORINQUEN,SAN JUAN,PR,9153814,787-727-2221,not participating,measle_white,Pharmacy
"18.45073500,-66.04335200",FARMACIA LAUREL,LOIZA ST 2428,SAN JUAN,PR,913,787-726-0295,open,small_green,Pharmacy
"18.36937600,-66.06280400",FARMACIA VILLA ANDALUCIA,RES VILLA ANDALUCIA DI CALLE FRONTERA STE 6,SAN JUAN,PR,926,787-761-7605,open,small_green,Pharmacy
"18.40680800,-66.09188500",FARMACIA BORINQUEN TOWERS,1484 Ave Fd Roosevelt Ste 19,SAN JUAN,PR,9202732,787-783-4510,open,small_green,Pharmacy
"18.38517400,-66.07195900",FARMACIA UNIVERSITY GARDENS,Urb. UNIVERSITY GARDENS HARVARD 1006 ST.1&2,SAN JUAN,PR,927,787-763-1059,not participating,measle_white,Pharmacy
"18.39984700,-66.08229500",FARMACIA GELPI,AMERICO MIRANDA AVE 1015 REPARTO METROPOLITANO,RIO PIEDRAS,PR,921,787-767-0012,open,small_green,Pharmacy
"18.41046200,-66.06053300",FIRST PHARMACY 2,670 AVE.PONCE DE LEON MIRAMAR,SAN JUAN,PR,908,787-725-2390,open,small_green,Pharmacy
"18.41906900,-66.06231900",FARMACIA PLAZA 8,AVE DOMENECH 394,SAN JUAN,PR,9183716,787-620-9608,open,small_green,Pharmacy
"18.38517400,-66.07195900",FARMACIA METROPOL,AVE MIRNADA ESQ GUTENBURG LOCAL 4,SAN JUAN,PR,9274797,787-764-6373,open,small_green,Pharmacy
"18.40146300,-66.05631000",RECETAS POR MENOS,AVE MUNOZ RIVERA 1007 EDIFICIO DARLINGTON Local #10,SAN JUAN,PR,925,787-767-6510,open,small_green,Pharmacy
"18.40000000,-66.05999800",FIRST PHARMACY 1,870 LAS MARIAS,SAN JUAN,PR,9274218,787-763-9536,open,small_green,Pharmacy
"18.42201800,-66.05060200",FARMACIA MENAA,271 AVE BARBOSA ESQ DUARTE,SAN JUAN,PR,9173310,787-753-7356,not participating,measle_white,Pharmacy
"18.39806000,-66.03667100",FARMACIA HOSPITAL SAN FRANCISCO,CALLE DE DIEGO 371,RIO PIEDRAS,PR,923,787-767-5100,open,small_green,Pharmacy
"18.39227300,-66.08855200",FARMACIA YARIMAR 1,URB LAS LOMAS CALLE 31 SO #904,SAN JUAN,PR,921,787-792-3196,open,small_green,Pharmacy
"18.41906900,-66.06231900",FARMACIA CASA DEL PENSIONADO,URB EL VEDADO 115 CALLE RODRIGO DE TRIANA,SAN JUAN,PR,9183207,787-250-6203,open,small_green,Pharmacy
"18.43765700,-66.05427900",FARMACIA NUEVA BORINQUEN,AVENUE BORINQUEN 2039,SAN JUAN,PR,9153807,787-726-7558,open,small_green,Pharmacy
"18.36937600,-66.06280400",NUTRIX INC,CARR 176 KM 0 5 CUPEY,SAN JUAN,PR,926,787-754-4220,not participating,measle_white,Pharmacy
"18.36937600,-66.06280400",KMART PHARMACY4844,"AVE. LOS ROMEROS 9410, MONTEHIEDRA TOWNCENTER; RIO PIEDRAS",SAN JUAN,PR,926,787-720-5155,open,small_green,Pharmacy
"18.41161400,-66.08183300","FARMACIA DIVINA PRESENCIA, INC.",URB PUERTO NUEVO 322 CALLE 7 NE,SAN JUAN,PR,9202407,787-782-0489,not participating,measle_white,Pharmacy
"18.45439000,-66.05890200",WALGREENS #315,100 GRAN BLVD PASEO AVE,RIO PIEDRAS,PR,926,787-283-2555,open,small_green,Pharmacy
"18.39227300,-66.08855200",FARMACIA REYES,1320 SAN ALFONSO AVE,SAN JUAN,PR,9213621,787-782-6403,open,small_green,Pharmacy
"18.42201800,-66.05060200",FARMACIA LAS MONJAS INC,207 UROGUAY ST,SAN JUAN,PR,917,787-753-0674,open,small_green,Pharmacy
"18.41046200,-66.06053300",WALGREENS #173,1008 AVE AMERICO MIRANDA REPTO METROPOLITANO SHOPPING CTR,RIO PIEDRAS,PR,919,787-274-8326,open,small_green,Pharmacy
"18.41906900,-66.06231900",MEDICAL PHARMACY,728 PONCE DELEON AVE,SAN JUAN,PR,918,787-767-3263,not participating,measle_white,Pharmacy
"18.44706200,-66.06263500",SAN JORGE CHILDRENS HOSPITAL PHARMACY,260 Calle San Jorge,SAN JUAN,PR,9123352,787-727-1000,open,small_green,Pharmacy
"18.39639200,-66.01146000",SUPER FARMACIA VILLA PRADES,665 ARISTIDES CHAVIER G 8 CTRO COMERICAL VILLA PRADES,SAN JUAN,PR,924,787-767-2097,not participating,measle_white,Pharmacy
"18.39475000,-66.04104800",WALGREENS #363,1115 65TH INFANTRY AVE,SAN JUAN,PR,924,787-768-4700,open,small_green,Pharmacy
"18.36937600,-66.06280400",FARMACIA CUPEY GARDENS,200 AVE CUPEY GARDENS PLAZA SUITE 1E,SAN JUAN,PR,9267341,787-761-1212,not participating,measle_white,Pharmacy
"18.42383000,-66.03647900",KMART PHARMACY7783,"Calle Calaf 525, Plaza Las Americas",SAN JUAN,PR,918,787-282-2291,open,small_green,Pharmacy
"18.44023200,-66.05376500",WALGREENS,AVENIDA LA SIERRA Y LOMAS VERDES CUPEY,RIO PIEDRAS,PR,926,787-292-2050,open,small_green,Pharmacy
"18.45490700,-66.06524900",ASHFORD PRESBYTERIAN COMMUNITY PHARMACY,1451 ASHFORD AVENUE,SAN JUAN,PR,902,787-721-2160,open,small_green,Pharmacy
"18.41906900,-66.06231900",FARMACIA SIEMPREABIERTA,370 Domenech Ave,SAN JUAN,PR,918,787-764-3360,not participating,measle_white,Pharmacy
"18.46546200,-66.09671900",METRO PHARMACY HATO REY,AVE MUÃ‘OZ RIVERA 422 CALLE AGUEYBANA URB EL VEDADO,SAN JUAN,PR,9183307,787-763-5308,not participating,measle_white,Pharmacy
"18.41898600,-66.05607900",Milla de Oro,AVE PONCE DE LEON 455,HATO REY,PR,917,787-294-6242,not participating,measle_white,Pharmacy
"18.46788800,-66.11741800",FARMACIA CDT DR JAVIER J ANTON,"Plaza Del Mercado, Rafael Hernandez Calle Vallejo, Esq. Pinero Lote#23",SAN JUAN,PR,925,787-274-0254,unknown,small_yellow,Pharmacy
"18.45135700,-66.08014600",Farmacia CDT DR. Gualberto Rabell,CALLE CERRA 900 FINAL,SANTURCE,PR,9075104,787-722-4600,open,small_green,Pharmacy
"18.40146300,-66.05631000",WALGREENS #396,999 MUNOZ RIVERA AVE,SAN JUAN,PR,925,787-294-0407,open,small_green,Pharmacy
"18.41906900,-66.06231900",WALGREENS #283,685 AVE CEZAR GONZALES,SAN JUAN,PR,918,787-294-1730,open,small_green,Pharmacy
"18.40402600,-66.00932900",FCIA MARIE INC,CALLE DURBEC 927 COUNTRY CLUB,SAN JUAN,PR,924,787-769-5350,not participating,measle_white,Pharmacy
"18.43789600,-66.04808700",FARMACIA LAS CASAS,2304 AVE BORINQUEN BO OBRERO,Santurce,PR,9154427,787-726-3350,open,small_green,Pharmacy
"18.45076200,-66.05466000",FARMACIA MERCIER,1511 CALLE LOIZA,SAN JUAN,PR,911,787-728-0800,not participating,measle_white,Pharmacy
"18.39475000,-66.04104800",COSTCO PHARMACY,1185 65TH INFANTRY AVE,SAN JUAN,PR,924,787-999-7203,open,small_green,Pharmacy
"18.41046200,-66.06053300",ONE STOP PRESCRIPTION LAS AMERICAS,CENTRO COMERCIAL PLAZA LAS AMERICAS AVE ROOSEVELT,SAN JUAN,PR,919,787-777-0411,open,small_green,Pharmacy
"18.39227300,-66.08855200",ONE STOP PRESCRIPTION,1900 Ave Jesus T. PIÃ‘EROJESUS T PINERO Altamira Shopping Center,San Juan,PR,9211101,787-749-0567,open,small_green,Pharmacy
"18.36937600,-66.06280400",WALGREENS #7706,CHALETS DE CUPEY AND PR 845,SAN JUAN,PR,9260000,787-755-1375,open,small_green,Pharmacy
"18.36937600,-66.06280400",FARMACIA REY #3,CARR 842 KM 2.6 CAMINOS LOS CATALAS BO CAIMITO,SAN JUAN,PR,926,787-790-9009,open,small_green,Pharmacy
"18.45267900,-66.07811300",ONE STOP PRESCRIPTION,114 Ave De Diego,Santurce,PR,9072345,787-977-2007,open,small_green,Pharmacy
"18.39639200,-66.01146000",FARMACIA AMIGA MONTECARLO,Centro Comercial MonteCarlo Ave Rafael Hernandez Marin 800 Sta 5,SAN JUAN,PR,924,787-762-1616,open,small_green,Pharmacy
"18.43833400,-66.06030100",EL BOTIQUIN DE LA 26 INC,602 CALLE SAGRADO CORAZON 1A,SAN JUAN,PR,9092409,787-982-2323,open,small_green,Pharmacy
"18.40680800,-66.09188500",FARMACIA SUMMIT HILLS,1727 AVE JESUS T PINERO,SAN JUAN,PR,9205408,787-792-5797,open,small_green,Pharmacy
"18.41161400,-66.08183300",FARMACIA IBARRA,URB PUERTO NUEVO,SAN JUAN,PR,9204103,787-793-5045,open,small_green,Pharmacy
"18.44338400,-66.06813300",FARMACIA METROPOLITANA,1302 AVE FERNANDEZ JUNCOS PDA 19,SAN JUAN,PR,9092521,787-725-1698,not participating,measle_white,Pharmacy
"18.35601400,-66.06293600",FIRST PHARMACY 5,Calle Dr. Manuel Pavia #615,SAN JUAN,PR,909,787-722-3600,open,small_green,Pharmacy
"18.36937600,-66.06280400",FARMACIA EL PARAISO INC,CHAPULTEPEC ST PARK GARDENS P 10,SAN JUAN,PR,926,787-283-0073,not participating,measle_white,Pharmacy
"18.44023200,-66.05376500",ABC PHARMACY,201 AVENIDA DE DIEGO STE 55,SAN JUAN,PR,927,787-763-8996,open,small_green,Pharmacy
"18.45164700,-66.07700300",WALGREENS #12661,1411 AVE ASHFORD ESQ WASHINGTON,SAN JUAN,PR,907,787-725-4313,open,small_green,Pharmacy
"18.40105500,-66.04977300",WALGREENS,EL SENIORAL SC AVE WINSTON CHURCHILL EQ PARANA,SAN JUAN,PR,925,787-751-7219,open,small_green,Pharmacy
"18.36645500,-66.06137400",Farmacia Rey #2,Ave Winston Churchill 124 Urb Crown Hills,San Juan,PR,926,787-296-1616,open,small_green,Pharmacy
"18.41906900,-66.06231900",WALGREENS #11847,"Ave. Elanor Roosevelt, Esquina Munoz Rivera Hato Rey",San Juan,PR,9181808,787-296-8460,open,small_green,Pharmacy
"18.43789600,-66.04808700",Farmacia CCB,2016 AVE BORINQUEN BO OBRERO SANTURCE,SAN JUAN,PR,9153823,787-268-4171,open,small_green,Pharmacy
"18.46590100,-66.10356800",CVS Pharmacy # 07979,105 Paseo Concepcion De Gracia Ste 1,San Juan,PR,901,787-725-2500,open,small_green,Pharmacy
"18.39475000,-66.04104800",Farmacia Complejo Medico Social,Avenida 65 de Infanteria KM.3.4 Bo. Sabana Llana Rio Piedras,SAN JUAN,PR,926,787-767-7676,not participating,measle_white,Pharmacy
"18.36340600,-66.07327900",Farmacia Esperanza,Ave Emiliano Pol #489 Urb La Cumbre,San Juan,PR,926,787-708-1300,open,small_green,Pharmacy
"18.41906900,-66.06231900",WALGREENS #13936,"Ave. FD Roosevelt , Plaza Las Americas 3 ER Piiso, Local 609",SAN JUAN,PR,918,787-771-1644,open,small_green,Pharmacy
"18.44926300,-66.07522900",Walgreens,Calle Roberto H Todd Esq Ave Fernandez Juncos,San Juan,PR,9074807,787-945-7710,open,small_green,Pharmacy
"18.45164700,-66.07700300",Walgreens,"Carr. #2, Ponce By Pass Esq, Ave, Hostos",Ponce,PR,907,787-841-7791,open,small_green,Pharmacy
"18.40105500,-66.04977300",WALGREENS,"LOS PRADOS SHOPPING CENTER, LOCAL B-10 Y B-11, GRAND BOULEVARD, LOS PRADOS",CAGUAS,PR,925,787-744-2347,open,small_green,Pharmacy
"18.40105500,-66.04977300",Walgreens #15191,"Centro Commercial 65th Infanteria Ave 65th Infanteria, Esq. Barbosa",San Juan,PR,9253215,787-777-1120,open,small_green,Pharmacy
"18.38517400,-66.07195900",Farmacia Caridad #7,310 AVE. LOMAS VERDES,San Juan,PR,927,787-740-7000,open,small_green,Pharmacy
"18.42201800,-66.05060200",Walgreens,404 Ave Barbosa Esq Sicilia Bo rio Piedras,San Juan,PR,9170000,787-919-0270,open,small_green,Pharmacy
"18.39784100,-66.04941400",FARMACIA REY #10,100 Calle Arzuaga Esquina Camelia Soto,San Juan,PR,9253705,787-771-8383,unknown,small_yellow,Pharmacy
"18.38517400,-66.07195900",Farmacia Caridad #9,282 Ave Jesus T Pinero Ste 100,San Juan,PR,9273915,787-523-3555,open,small_green,Pharmacy
"18.40680800,-66.09188500",Sams Pharmacy 10-4866,Bechara Industrial Park 1045 Marginal John F Kennedy,San Juan,PR,9201715,787-522-3601,open,small_green,Pharmacy
"18.44498500,-66.05333100",Farmacia Rey # 12,300 Calle Tapia Esq Gilberto Monroig,San Juan,PR,9124219,787-982-6969,open,small_green,Pharmacy
"18.36937600,-66.06280400",Walgreens,"Carr .199, eSQ. 844 Barrio Cupey",San Juan,PR,926,787-777-1285,open,small_green,Pharmacy
"18.38517400,-66.07195900",Pro Health Pharmacy Corp,312  32nd St.Villa Nevarez Americo Miranda Ave. East,San Juan,PR,927,787-749-0125,open,small_green,Pharmacy
"18.45232100,-66.07258900",WalMart Pharmacy 10-5803,"Calle Labra, Esquina Corchado",San Juan,PR,936,787-641-5606,open,small_green,Pharmacy
"18.39639200,-66.01146000",Farmacia Lujan,819 Ave Roberto Sanchez Vilella Urb Country Club,San Juan,PR,9242568,787-762-3200,open,small_green,Pharmacy
"18.39639200,-66.01146000",Farma Entrega,Urb. Club Manor Calle Jose Abad 1217,San Juan,PR,924,787-455-9250,open,small_green,Pharmacy
"18.44338400,-66.06813300",Pueblo Pharmacy #984,1511 Ave Ponce De Leon Santurce,San Juan,PR,909,787-725-8112,open,small_green,Pharmacy
"18.45164700,-66.07700300",Farmacia MetroPharmacie,"Edif San Juan Health Centre 150 Ave. De Diego, 1er piso",San Juan,PR,907,787-725-8073,open,small_green,Pharmacy
"18.45164700,-66.07700300",CVS Pharmacy #,1307 Ave Ashford,San Juan,PR,9071325,787-289-2510,open,small_green,Pharmacy
"18.36937600,-66.06280400",PHARMAXPRESS,CARR. 176 ESQ. AVE. SAN CLAUDIO 350,SAN JUAN,PR,926,787-332-1280,open,small_green,Pharmacy
"18.45267900,-66.07811300",ExpressCare Pharmacy,1100 Ave Fernandez Juncos,Santurce,PR,9074708,787-721-9154,open,small_green,Pharmacy
"18.40309300,-66.08754400",Farmacia Central Plus,1304C Ave Jesus T Pinero,San Juan,PR,9211508,787-705-6484,open,small_green,Pharmacy
"18.45164700,-66.07700300",Farmacia CDT Dr. Enrique Koppisch,Esq. Barbosa #404 Calle Sicilia,San Juan,PR,907,787-294-0076,open,small_green,Pharmacy
"18.35579400,-66.06273100",Farmacia CDT Dr. Oliveras Guerra,"Calle 8 esq. Calle 45 Parcelas Falu, Sabana Llana",San Juan,PR,925,787-296-1225,open,small_green,Pharmacy
"18.41965000,-66.08200200",Farmacia CDT Dr Jose A. Lopez Antongiorgi,Calle 25 NE #333 Urb Puerto Nuevo,San Juan,PR,920,787-775-7773,open,small_green,Pharmacy
"18.45422600,-66.08393500",Farmacia CDT Dr. Arnaldo J. Garcia,Calle Flor Antillana Res. Luis Llorens Torres,Santurce,PR,907,787-982-8300,open,small_green,Pharmacy
"18.41906900,-66.06231900",FARMACIA CHARDON,210 Calle Jose Oliver,San Juan,PR,918,787-919-7166,open,small_green,Pharmacy
"18.36937600,-66.06280400",Tu Farmacia de Comunidad,Urb. Park Gardens Calle Chapultepec #P-10,San Juan,PR,926,787-293-2222,open,small_green,Pharmacy
"18.41906900,-66.06231900",CVS Pharmacy #,374 Ave Ponce De Leon,San Juan,PR,9182024,787-766-7200,open,small_green,Pharmacy
"18.43789600,-66.04808700",CVS Pharmacy #,1901 Ave Rexach,San Juan,PR,915,787-727-7770,open,small_green,Pharmacy
"18.36937600,-66.06280400",Farmacia Central Drug,carretera # 1 km 25.5 Bo Quebrada arena,san juan,PR,926,787-783-9855,open,small_green,Pharmacy
"18.46590100,-66.10356800",Walgreens,100 Brumbaugh Viejo San Juan Hotel Sheraton Old SanJuan,San Juan,PR,9012620,787-723-1364,open,small_green,Pharmacy
"18.41046200,-66.06053300",Farmacias Savia #2,Carr 181 Km 3.4 Trujillo Alto Plaza,Trujillo Alto,PR,908,787-534-3000,open,small_green,Pharmacy
"18.46590100,-66.10356800",Farmacia Paomela,162 Ave De La Constitucion Ste 2,San Juan,PR,9012107,939-337-7411,open,small_green,Pharmacy
"18.40349700,-66.08665300",Super One Pharmacy,Central Plaza Shopping Center Suite #1 PiÃ±ero Ave. /San Patricio Ave. Corner,San Juan,PR,920,787-705-0938,not participating,measle_white,Pharmacy
"18.41906900,-66.06231900",Pueblo Pharmacy #115,652 Ave. Munoz Rivera Suite 200,San Juan,PR,918,787-754-8087,not participating,measle_white,Pharmacy
"18.18758400,-65.96238900",FARMACIA SAN LUIS,106 Calle Munoz Rivera S Apt 1,SAN LORENZO,PR,7543925,787-736-2771,open,small_green,Pharmacy
"18.18758400,-65.96238900",FARMACIA DEL PUEBLO,CALLE MUNOZ RIVERA NO 8,SAN LORENZO,PR,7540077,787-736-4845,open,small_green,Pharmacy
"18.18758400,-65.96238900",CENTRO RYDER SAN LORENZO,CALLE LUIS MUTOZ MARIA FINAL,SAN LORENZO,PR,754,787-715-2850,open,small_green,Pharmacy
"18.18758400,-65.96238900",WALGREENS #53,ROAD 181 AND ROAD 183,SAN LORENZO,PR,754,787-715-0503,open,small_green,Pharmacy
"18.18758400,-65.96238900",FARMACIA SAN LORENZO,LUIS MUNOZ RIVERA 4,SAN LORENZO,PR,754,787-736-3641,open,small_green,Pharmacy
"18.18758400,-65.96238900",Farmacia Samaritana,Urb Santa Clara 150 Carr 9931 Ste 1,San Lorenzo,PR,7544533,787-731-7100,open,small_green,Pharmacy
"18.18476800,-65.96188100","Farmacia NeoMed Center , Inc. San Lorenzo",11 Calle Condado,San Lorenzo,PR,754,787-736-8259,open,small_green,Pharmacy
"18.18979400,-65.96174300",Farmacia Espino Inc,Carr 181 Km 0.2 Ramal 745 Bo Espino,San Lorenzo,PR,754,787-736-0069,open,small_green,Pharmacy
"18.19072300,-65.97243600",Farmacia Don Mode,"Carr 183, km 1 Bo. Hato San Lorenzo Shopping Center",San Lorenzo,PR,754,787-715-1770,open,small_green,Pharmacy
"18.18758400,-65.96238900",Farmacia San Miguel SL Inc,carrt. 181 Km 0.6 Int. Carrt. 183,San Lorenzo,PR,754,787-736-2900,open,small_green,Pharmacy
"18.18758400,-65.96238900",FARMACIA RUIZ BELVIS DE SAN LORENZO,Carretera 181 Km 1.0 Bo. Quemados,San Lorenzo,PR,754,787-715-3800,open,small_green,Pharmacy
"18.32360000,-66.97222700",FARMACIA CENTRAL,10 MUNOZ RIVERA,SAN SEBASTIAN,PR,685,787-896-1115,open,small_green,Pharmacy
"18.32360000,-66.97222700",Farmacia Modelo,CALLE MJ CABRERO SUITE 54,SAN SEBASTIAN,PR,685,787-896-1154,not participating,measle_white,Pharmacy
"18.32360000,-66.97222700",FARMACIA SANTA RITA,CALLE JOSE M CARDONA 3,SAN SEBASTIAN,PR,685,787-896-1850,open,small_green,Pharmacy
"18.32360000,-66.97222700",FARMACIA NUEVA,3 Urb Raholisa Gdns,SAN SEBASTIAN,PR,685,787-896-2080,open,small_green,Pharmacy
"18.32360000,-66.97222700",FARMACIA PEPINO,1001 AVE EMERITO ESTRADA,SAN SEBASTIAN,PR,685,787-896-3090,open,small_green,Pharmacy
"18.32360000,-66.97222700",FARMACIA SAN ANTONIO,Ave Emerito Estrada 1488,SAN SEBASTIAN,PR,6853023,787-280-0606,not participating,measle_white,Pharmacy
"18.32360000,-66.97222700",FARMACIA EL BUEN PASTOR,CARR 111 KM 14 5 PLAZA HATO ARRIBA,SAN SEBASTIAN,PR,685,787-896-6340,open,small_green,Pharmacy
"18.32360000,-66.97222700",FARMACIA SAN SEBASTIAN,KM 28 6 HOYAMALA CARR 119,SAN SEBASTIAN,PR,6850610,787-896-4650,not participating,measle_white,Pharmacy
"18.32360000,-66.97222700",FARMACIA CDT PEPINO HEALTH GROUP,CALLE PAVIA FERNANDEZ 126,SAN SEBASTIAN,PR,685,787-896-0709,open,small_green,Pharmacy
"18.32360000,-66.97222700",WALGREENS,Carr PR-111 KM 18.2,SAN SEBASTIAN,PR,685,787-896-1040,open,small_green,Pharmacy
"18.32360000,-66.97222700",SAN SEBASTIAN PHARMACY EXPRESS,CARR 119 KM 38.0 BARRIO CALABASAS,SAN SEBASTIAN,PR,685,787-896-4747,open,small_green,Pharmacy
"18.32360000,-66.97222700",Farmacia SanDut,CARR. 435 INT 433 KM. 4.1 Calabazas,San Sebastian,PR,685,787-896-1111,open,small_green,Pharmacy
"18.32360000,-66.97222700",Farmacia Yani INC,Carretera 109 km 26.7 Bo. Culebrina,San Sebastian,PR,685,787-896-1212,open,small_green,Pharmacy
"18.32360000,-66.97222700",Farmacia Yary Mar,Carr #446 Km 3.3 Bo Robles,San Sebastian,PR,685,787-896-6969,open,small_green,Pharmacy
"18.32360000,-66.97222700",CIV Pharmacy,Carr 125 km 21.9 Bo. Bahomamey San Sebastian Medical Center Suite # 4,San Sebastian,PR,685,787-926-7999,open,small_green,Pharmacy
"18.32360000,-66.97222700",Farmacia Mi Anhelo,Bo. Aibonito Guerrero Carr 447 km 3.8,San Sebastian,PR,685,787-280-9032,open,small_green,Pharmacy
"18.32360000,-66.97222700",Pharmacy Care,Carretera 111 Km 17.7 Bo. Guatemala,San Sebastian,PR,685,787-280-3811,open,small_green,Pharmacy
"18.32360000,-66.97222700",MONROIG PHARMA PLUS,CARR 445 KM 2.5 BO SALTOS,SAN SEBASTIAN,PR,685,787-280-6245,open,small_green,Pharmacy
"18.32360000,-66.97222700",Pharmamax San Sebastian,Ave 111 km 18.7,San Sebastian,PR,685,787-896-4141,open,small_green,Pharmacy
"17.99123300,-66.39554300",FARMACIA LA IDEAL INC,CELIS AGUILAERA ST NO 4,SANTA ISABEL,PR,7570139,787-845-4690,not participating,measle_white,Pharmacy
"17.99123300,-66.39554300",Farmacia Rey #16,37 Calle Luis Munoz Rivera,SANTA ISABEL,PR,7572610,787-845-2545,open,small_green,Pharmacy
"17.99123300,-66.39554300",FARMACIA LA FE # 3,40 Calle Luis Munoz Rivera,SANTA ISABEL,PR,757,787-845-6695,not participating,measle_white,Pharmacy
"17.99123300,-66.39554300",HIGHWAY PHARMACY,"Carr. 153, KM 6.0 Bo. Felicia",SANTA ISABEL,PR,757,787-845-6272,open,small_green,Pharmacy
"17.99123300,-66.39554300",WALMART PHARMACY 10-3693,CARR ESTATAL 153 KM 7.2,SANTA ISABEL,PR,757,787-971-1010,open,small_green,Pharmacy
"17.96572700,-66.40470300",Nova Pharmacy Corp.,Calle Betances #18,Santa Isabel,PR,757,787-845-2400,not participating,measle_white,Pharmacy
"17.99123300,-66.39554300",NOVA PHARMACY  INC,URB LA HACIENDA CALLE 1 A-1 BO JAUCA,SANTA ISABEL,PR,757,787-845-0505,not participating,measle_white,Pharmacy
"17.99123300,-66.39554300",WALGREENS,"CARR 153, BO. FELICIA II, PLAZA PRADOS DEL SUR",SANTA ISABEL,PR,757,787-845-2227,open,small_green,Pharmacy
"17.99123300,-66.39554300",NOVA PHARMACY 3 INC,PLAZA LA CEIBA SHOPPING CENTER #8 BO FELICIA 2,SANTA ISABEL,PR,757,787-845-1400,not participating,measle_white,Pharmacy
"18.38783100,-66.24917900",FARMACIA SAN FERNANDO,CALLE LUIS MUNOZ RIVERA STE 17,TOA ALTA,PR,953,787-870-3475,not participating,measle_white,Pharmacy
"18.35679500,-66.25701000",FARMACIA PINA,Carr.861 Km 5.8 Bo. Mucarabones,TOA ALTA,PR,953,787-279-0731,open,small_green,Pharmacy
"18.35679500,-66.25701000",FARMACIA DE JESUS,CALLE MUNOZ RIVERA 27,TOA ALTA,PR,9532424,787-870-0993,open,small_green,Pharmacy
"18.35679500,-66.25701000",Farmacia Nieves,AVE PRINCPAL N 15 URB TOA ALTA HEIGHTS,TOA ALTA,PR,9534744,787-797-7615,not participating,measle_white,Pharmacy
"18.38783100,-66.24917900",FARMACIA SAN JOSE #1,CALLE LUIS MUNOZ RIVERA 25,TOA ALTA,PR,9532418,787-870-1450,open,small_green,Pharmacy
"18.38691600,-66.25383800",PROFESSIONAL DRUG,CALLE 6 B35 URB SAN FERNANDO,TOA ALTA,PR,953,787-870-2935,open,small_green,Pharmacy
"18.35893900,-66.25810800",FARMACIA YARIMAR 2,PLAZA 829 BO ORTIZ Carr. 829 KM 2.0,TOA ALTA,PR,954,787-799-2177,open,small_green,Pharmacy
"18.35679500,-66.25701000",FARMACIA DE TU COMUNIDAD,"CARR.165 KM. 5.8 BO. QUEBRADA CRUZ,",TOA ALTA,PR,953,787-870-6644,open,small_green,Pharmacy
"18.35893900,-66.25810800",WALGREENS #12651,PLAZA AQUARIUM CARR 165 KM 4 7 BO QUEBRADA CRUZ,TOA ALTA,PR,954,787-870-4776,open,small_green,Pharmacy
"18.35679500,-66.25701000",Farmacia Daryan,1000 La Fuente Shopping Center,Toa Alta,PR,9533828,787-288-3050,open,small_green,Pharmacy
"18.38680400,-66.24854500",Farmacia Toa Linda Inc.,Carr 861 ramal 820 bloq C-1 Urb Toa Linda,Toa Alta,PR,953,787-799-2362,open,small_green,Pharmacy
"18.35679500,-66.25701000",Walgreens,Carr PR 167 KM 14.6 Plaza Los Palacios,Toa Alta,PR,953,787-545-3191,open,small_green,Pharmacy
"18.35679500,-66.25701000",Farmacia Jardines Toa Alta,Rio del Plata Mall A-2 c/1 Jardines,Toa Alta,PR,953,787-870-5599,open,small_green,Pharmacy
"18.43191100,-66.19969200",FARMACIA TOA BAJA,LUIS MUNOZ RIVERA NUMBER 17,TOA BAJA,PR,949,787-794-2343,open,small_green,Pharmacy
"18.43191100,-66.19969200",FARMACIA LAGO VISTA INC,AVE BLVD 3386 LEVITTOWN PASEO CARMEN 3385-86,TOA BAJA,PR,949,787-784-4585,open,small_green,Pharmacy
"18.42744100,-66.18203200",FARMACIA PATRIA,CARR 866 KM 35,SABANA SECA TOA BAJA,PR,9521128,787-795-3890,open,small_green,Pharmacy
"18.43191100,-66.19969200",FARMACIA PLAZA 11,CARR 863 KM 0 6 BARRIO PAJAROS CANDELARIA,TOA BAJA,PR,949,787-620-9611,open,small_green,Pharmacy
"18.43205000,-66.18705000",FARMACIA GLADYS INC,AVE RAMON RIOS ROMON STE 112 B,SABANA SECA,PR,952,787-795-1562,open,small_green,Pharmacy
"18.43191100,-66.19969200",FARMACIA COVADONGA INC,AVE DON PELAYO SHOPING DON PELAYO LOCAL 1 Y 2 COVADONGA,TOA BAJA,PR,949,787-740-0000,not participating,measle_white,Pharmacy
"18.43191100,-66.19969200",Farmacia la Amistad Inc,CARR 863 KM 2.0 BO PAJAROS,TOA BAJA,PR,949,787-780-2054,open,small_green,Pharmacy
"18.43191100,-66.19969200",FARMACIA CARIMAS,EB1 CALLE JOSE GAUTIER BENITEZ,TOA BAJA,PR,9492767,787-784-5265,open,small_green,Pharmacy
"18.43191100,-66.19969200",FARMACIA SAN JOSE #2,CARR 865 KM 1 3 BO CAMPANILLA,TOA BAJA,PR,949,787-794-0263,open,small_green,Pharmacy
"18.43191100,-66.19969200",FARMACIA LESMARIE,HA-3 Antonio Paoli Urb. Levitown,TOA BAJA,PR,949,787-784-3225,not participating,measle_white,Pharmacy
"18.42744100,-66.18203200",FARMACIA RECETAS Y MAS,CARR 866 KM 3 4,SABANA SECA,PR,9521074,787-784-1357,open,small_green,Pharmacy
"18.43539000,-66.17624000",FARMACIA MARLENE,CARR 866 KM 1.1 BO CANDELARIA,TOA BAJA,PR,949,787-784-4728,open,small_green,Pharmacy
"18.43191100,-66.19969200",WALGREENS #82,35 LOS DOMINICOS AVE,TOA BAJA,PR,949,787-795-2083,open,small_green,Pharmacy
"18.42753000,-66.25378900",WALGREENS #105,PR#2 LAS COLINAS AVE,TOA BAJA,PR,951,787-779-8385,open,small_green,Pharmacy
"18.43191100,-66.19969200",WALMART PHARMACY 10-3670,LOS DOMINICOS ESQ SABANA SECA,TOA BAJA,PR,949,787-261-0400,open,small_green,Pharmacy
"18.43191100,-66.19969200",WALGREENS #12658,CC DAVIDSON PLAZA LEVITTOWN,TOA BAJA,PR,949,787-795-7224,open,small_green,Pharmacy
"18.43191100,-66.19969200",Farmacia Candelaria,Carr. 865 Km. 4.3 # 88 Candelaria Arena,Toa Baja,PR,949,787-261-9191,open,small_green,Pharmacy
"18.43191100,-66.19969200",Wal-Mart Pharmacy 10-2346,Carretera PR-d Interseccion PR-165 y PR-22  Km 22.4,Toa Baja,PR,949,787-641-5650,open,small_green,Pharmacy
"18.43191100,-66.19969200",CVS Pharmacy,60 Ave Los Dominicos,Toa Baja,PR,9494724,787-795-8630,open,small_green,Pharmacy
"18.43191100,-66.19969200",Prestamo Pharmacy,Principal 867 Km 5.4 #204 Bo. Ingenio,Toa Baja,PR,949,787-626-3219,open,small_green,Pharmacy
"18.43191100,-66.19969200",FARMACIA CARIMAS #3,AVE. SABANA SECA CALLE DEL CARMEN SOLAR 2021 LEVITTOWN STATION,TOA BAJA,PR,949,787-753-6702,open,small_green,Pharmacy
"18.33813300,-65.98922900",FARMACIA ROUND HILL,CENTRO COMERCIAL URB ROUND HILL ROUND HILL SHOPPING CENTER,TRUJILLO ALTO,PR,976,787-761-0005,not participating,measle_white,Pharmacy
"18.37500500,-66.00068500",FARMACIA LA FE,CALLE MUNOZ RIVERA 12,TRUJILLO ALTO,PR,976,787-761-0210,open,small_green,Pharmacy
"18.33813300,-65.98922900",FARMACIA ARLIVON,CTRO COM CUIDAD UNIVERSITARIA,TRUJILLO ALTO,PR,976,787-761-2645,not participating,measle_white,Pharmacy
"18.33813300,-65.98922900",FARMACIA FAIR VIEW,CENTRO COMERCIAL URB FAIR VIEW CARR 845 RIO PIEDRAS,SAN JUAN,PR,976,787-760-0024,open,small_green,Pharmacy
"18.36800500,-66.01183200",FARMACIA SAN JUSTO,CARR 848 CENTRO 4 PLAZA EXPRESO TRUJILLO ALTO INTERSCCION,SAINT JUST,PR,978,787-755-1085,open,small_green,Pharmacy
"18.33813300,-65.98922900",Farmacia El Conquistador,CENTRO COMERCIAL EL CONQUISTADOR CARR 175 KM 3.8,TRUJILLO ALTO,PR,976,787-755-2060,open,small_green,Pharmacy
"18.37500500,-66.00068500",FARMACIA CANEY,CALLE ARUSIBO A 9 URB CANEY,TRUJILLO ALTO,PR,976,787-755-7845,not participating,measle_white,Pharmacy
"18.36514200,-66.00817600",FARMACIA DOS BOCAS,CARR 181 KM 9 1 BO DOS BOCAS,TRUJILLO ALTO,PR,976,787-283-1920,open,small_green,Pharmacy
"18.36514200,-66.00817600",KMART PHARMACY4494,"Carr. 181, Km 3.5, Trujillo Alto Plaza",TRUJILLO ALTO,PR,9763699,787-755-7710,not participating,measle_white,Pharmacy
"18.36514200,-66.00817600",WALGREENS,PR 181 AND PR 850,TRUJILLO ALTO,PR,976,787-283-3545,open,small_green,Pharmacy
"18.33813300,-65.98922900",WALGREENS #12665,PLAZA ENCANTADA URB ENCANTADA CARR 181,TRUJILLO ALTO,PR,976,787-748-0013,open,small_green,Pharmacy
"18.33813300,-65.98922900",FARMACIA REY #17,CARR 852 KM 0.1 INTERSECCION CARR. 181 PR BO DOS BOCAS,TRUJILLO ALTO,PR,976,787-292-7993,open,small_green,Pharmacy
"18.33813300,-65.98922900",NeoMed Center Trujillo Alto,Urb. Lago Alto calle Carite #130,Trujillo Alto,PR,976,787-748-0450,open,small_green,Pharmacy
"18.36800500,-66.01183200",AHF Pharmacy,State Road 848 KM 1.0 Saint Just,Trujillo Alto,PR,978,323-860-5241,not participating,measle_white,Pharmacy
"18.25002700,-66.69895700",Farmacia Cintron,Calle Dr. Cueto # 74,UTUADO,PR,641,787-894-2190,open,small_green,Pharmacy
"18.25002700,-66.69895700",FARMACIA MAESTRE INC,21 BARCELO ST,UTUADO,PR,641,787-894-2075,open,small_green,Pharmacy
"18.25002700,-66.69895700",FARMACIA ANNETTE,URB CABRERA LOTE 5 SALTO ARRIBA,UTUADO,PR,641,787-894-6555,not participating,measle_white,Pharmacy
"18.25002700,-66.69895700",SUPER FARMACIA CAGUANA,ROAD 111 KM 52.7 BO CAGUANA,UTUADO,PR,641,787-894-8283,open,small_green,Pharmacy
"18.25002700,-66.69895700",Gabriel Garcia DBA Farmacia Los Angeles,CARR 111 INT 602 KM 0 6,ANGELES,PR,641,787-894-7535,open,small_green,Pharmacy
"18.25002700,-66.69895700",FARMACIA DEL VIVI INC,CARR 111 KM 1 8 AVE FERNANDO L RIBAS,UTUADO,PR,641,787-894-2185,open,small_green,Pharmacy
"18.25002700,-66.69895700",FARMACIA SAN MIGUEL ARCANGEL INC,12 Calle A.R.Barcelo,UTUADO,PR,6412949,787-894-2118,open,small_green,Pharmacy
"18.25002700,-66.69895700",WALGREENS #185,CARR 123 EDIF 940,UTUADO,PR,641,787-894-0574,open,small_green,Pharmacy
"18.43581800,-66.33852300",FARMACIA NUEVA,LUIS MUNOZ RIVERA ST 58 ESQ JACINTO SEIJO,VEGA ALTA,PR,692,787-883-2460,open,small_green,Pharmacy
"18.43581800,-66.33852300",FARMACIA AMADEO,72 CALLE MUNOZ RIVERA,VEGA ALTA,PR,692,787-883-3140,open,small_green,Pharmacy
"18.43581800,-66.33852300",FARMACIA SANTA RITA,CARR NO 2 KM 29 6,VEGA ALTA,PR,692,787-883-4445,not participating,measle_white,Pharmacy
"18.43581800,-66.33852300",FARMACIA DEL PUEBLO DE VEGA ALTA INC,CARR NUMBER 2 KM 30 1 BO ESPINOSA,VEGA ALTA,PR,692,787-883-2065,open,small_green,Pharmacy
"18.43581800,-66.33852300",KMART PHARMACY7784,"CARR. #2, PLAZA CARIBE MALL",VEGA ALTA,PR,692,787-270-7730,not participating,measle_white,Pharmacy
"18.43581800,-66.33852300",PROFESSIONAL DRUG,CARR 693 EQ CALLE 7 BO BRENAS,VEGA ALTA,PR,692,787-883-4295,open,small_green,Pharmacy
"18.43581800,-66.33852300",VEGA ALTA MEDICAL HOSPITAL PHARMACY,ST ROAD 2 KM 31.9,VEGA ALTA,PR,692,787-270-5511,open,small_green,Pharmacy
"18.43581800,-66.33852300",FARMACIA MONTE REY,CARR. 694 KM 1.1 SECTOR MONTE REY BO ESPINOSA,VEGA ALTA,PR,692,787-270-1816,open,small_green,Pharmacy
"18.43581800,-66.33852300",FARMACIA EL COROZO,CARR 690 KM 3 2,VEGA ALTA,PR,692,787-807-1414,not participating,measle_white,Pharmacy
"18.43581800,-66.33852300",WALGREENS #15240,"CARR. PR #2 INT.PR 694, KM 28.5, SECTOR ESPINOSA",VEGA ALTA,PR,692,787-883-4279,open,small_green,Pharmacy
"18.43581800,-66.33852300",CVS Pharmacy #04588,6109 Carr 694,Vega Alta,PR,692,787-270-0460,open,small_green,Pharmacy
"18.43581800,-66.33852300",El Corozo Farmacia Y Discount,Carr 690 Km 3.2 Bo Sabana Hoyos,Vega Alta,PR,692,787-807-1414,not participating,measle_white,Pharmacy
"18.43581800,-66.33852300",Nueva Farmacia Santa Ana,Calle 1 B3 Urbanizacion Santa Ana,Vega Alta,PR,692,787-270-2503,open,small_green,Pharmacy
"18.43581800,-66.33852300",FIRST PHARMACY 7,CARR #2 KM 29.7 LOCAL N-142 CENTRO GRAN CARIBE MALL,VEGA ALTA,PR,692,787-883-4133,open,small_green,Pharmacy
"18.43581800,-66.33852300","Farmacia Vega Alta, Inc.",Munoz Rivera #36,Vega Alta,PR,692,787-883-4140,open,small_green,Pharmacy
"18.48237000,-66.39107900",FARMACIA VILLA REAL,CALLE 2 C-2 URB VILLA REAL,VEGA BAJA,PR,694,787-858-1336,open,small_green,Pharmacy
"18.44310900,-66.39830200",FARMACIA SAN MARTIN,105 CARR 686 km 17.9,VEGA BAJA,PR,6934551,787-858-3712,open,small_green,Pharmacy
"18.44310900,-66.39830200",Farmacia Gonzalez 2,BETANCES 49,VEGA BAJA,PR,693,787-858-2275,open,small_green,Pharmacy
"18.44310900,-66.39830200",FARMACIA SAN MIGUEL,CALLE BETANCES #54,VEGA BAJA,PR,6934407,787-858-5267,open,small_green,Pharmacy
"18.44310900,-66.39830200",FARMACIA LA ASTURIANA,35 CALLE BETANCES,VEGA BAJA,PR,693,787-858-4215,open,small_green,Pharmacy
"18.44310900,-66.39830200",FARMACIA SAN FRANCISCO,4 CALLE E BETANCES,VEGA BAJA,PR,693,787-858-2784,open,small_green,Pharmacy
"18.44310900,-66.39830200",SUPER FARMACIA TRIPLE R INC,CARR 2 KM 40 2 PLAZA JARDINES STE 28,VEGA BAJA,PR,6934139,787-855-6033,open,small_green,Pharmacy
"18.44310900,-66.39830200",FARMACIA NATER,37 CALLE BETANCES,VEGA BAJA,PR,6934464,787-858-2280,open,small_green,Pharmacy
"18.44310900,-66.39830200",Farmacias Caridad,Centro Comercial Plaza Las Vegas,VEGA BAJA,PR,693,787-858-5008,open,small_green,Pharmacy
"18.44310900,-66.39830200","Nuestra Farmacia Y Colmado Alturas, INC.",Calle A Esquina Calle C Bloque A-5 Urb. Alturas,VEGA BAJA,PR,693,787-855-3713,open,small_green,Pharmacy
"18.44310900,-66.39830200",FARMACIA GLAMAR,457 AVE FELISA RINCON URB SAN DEMETRIO,VEGA BAJA,PR,693,787-858-0052,open,small_green,Pharmacy
"18.44310900,-66.39830200",FARMACIA EL ROSARIO,Calle C-L-25 Urb. El Rosario II,VEGA BAJA,PR,693,787-807-6057,open,small_green,Pharmacy
"18.44310900,-66.39830200",WALGREENS #7710,CALLE PUBLICAAND PR 2,VEGA BAJA,PR,693,787-855-3044,open,small_green,Pharmacy
"18.44310900,-66.39830200",Farmacia Bienestar,Carretera #2 km 42.5 Bo. Algarrobo STE 101,VEGA BAJA,PR,693,787-855-2300,open,small_green,Pharmacy
"18.44310900,-66.39830200","Farmacia Jardines, Inc",11 Ave Guarico Bo Algarrobo,Vega Baja,PR,6934037,787-807-7979,open,small_green,Pharmacy
"18.44310900,-66.39830200",CVS Pharmacy #02869,3950 Carr 2,Vega Baja,PR,6934137,787-807-1106,open,small_green,Pharmacy
"18.44310900,-66.39830200",Farmacia Monarca,carr 160 km 4.4 Bo. Almirante Norte,Vega Baja,PR,693,787-369-6868,not participating,measle_white,Pharmacy
"18.44310900,-66.39830200",HIS Pharmacy,Edificio Pugnado Carr. 137 Km 7.2 Local 2 Bo. Pugnado,Vega Baja,PR,6930000,787-965-7999,open,small_green,Pharmacy
"18.15067300,-65.44270400",FARMACIA REY #20,CALLE BENITEZ GUZMAN # 52,VIEQUES,PR,7653031,787-741-8397,open,small_green,Pharmacy
"18.12051900,-66.49660700",FARMACIA SAN ANTONIO,Bo. TIERRA SANTA Carr. 149 Km 57.3,VILLALBA,PR,766,787-847-1096,open,small_green,Pharmacy
"18.11475900,-66.50474600",FARMACIA VILLALBA,CARR 149 KM 56.7 Sector Tierra Santa,VILLALBA,PR,766,787-847-8600,open,small_green,Pharmacy
"18.12613300,-66.49303000",LA NUEVA FARMACIA GONZALEZ,31 CALLE MUNOZ RIVERA,VILLALBA,PR,7662215,787-847-3045,not participating,measle_white,Pharmacy
"18.12694100,-66.49254200",FARMACIA DEL CARMEN,CALLE MUNOZ RIVERA 41,VILLALBA,PR,7662218,787-847-1412,open,small_green,Pharmacy
"18.12694100,-66.49254200",CENTRO SAN CRISTOBAL VILLALBA,CALLE MUNOZ RIVERA 40,VILLALBA,PR,766,787-847-3000,open,small_green,Pharmacy
"18.13254800,-66.47639500",FARMACIA LA VEGA,CARR 151 KM 0.4 CALLE PRINCIPAL URB. LA VEGA 425-II,VILLALBA,PR,766,787-847-5309,not participating,measle_white,Pharmacy
"18.11475900,-66.50474600",Grafed Pharmacy Solutions,Carr 149 Km 57.4  Bo Tierrra Santa,Villalba,PR,766,787-847-9393,open,small_green,Pharmacy
"18.04552200,-65.88698800",FARMACIA NUEVA,CRISTOBAL COLON ST #37,YABUCOA,PR,767,787-893-2440,open,small_green,Pharmacy
"18.04936600,-65.87910500",FARMACIA LOS ANGELES INC,Calle Cristobal Colon #18,Yabucoa,PR,7670398,787-893-2222,not participating,measle_white,Pharmacy
"18.04936600,-65.87910500",FARMACIA LA RAMPLA,CALLE CRISTOBAL Colon 52,YABUCOA,PR,7671911,787-893-3590,open,small_green,Pharmacy
"18.04552200,-65.88698800",FARMACIA FELICIANO,URBANIZACION JARDINES DE YABUCOA CALLE 1 A8,YABUCOA,PR,7670490,787-893-6709,open,small_green,Pharmacy
"18.04936600,-65.87910500",Farmacia Feliciano 1,CALLE CRISTOBAL COLON SUITE 5,YABUCOA,PR,767,787-893-2280,open,small_green,Pharmacy
"18.04552200,-65.88698800",FARMACIA WILMET,CRISTOBAL COLON # 3,YABUCOA,PR,7673325,787-893-1210,not participating,measle_white,Pharmacy
"18.04625600,-65.87585400",CIMA DRUG PHARMACY INC,CALLE SATURNINO RODRIGUEZ 30,YABUCOA,PR,767,787-893-4455,open,small_green,Pharmacy
"18.03691500,-65.90304800",WALGREENS #929,PR 3 AND PR 901,YABUCOA,PR,767,787-893-4410,open,small_green,Pharmacy
"18.02579500,-66.86179900",FARMACIA VICARIO INC,CALLE MATTEI LLUBERAS 44,YAUCO,PR,6983635,787-856-1044,not participating,measle_white,Pharmacy
"18.03676800,-66.84973800",FARMACIA MENAY INC,CALLE BALDORIOTY 16,YAUCO,PR,6983652,787-856-1111,open,small_green,Pharmacy
"18.06104000,-66.86116400",FARMACIA LA CONCEPCION,COMERCIO 9,YAUCO,PR,698,787-856-0233,open,small_green,Pharmacy
"18.06104000,-66.86116400","FK GROUP, INC.",31  PROLONGACION CALLE 25 DE JULIO,YAUCO,PR,698,787-856-1175,open,small_green,Pharmacy
"18.06104000,-66.86116400",FARMACIA LEMAR,CENTRO COMERCIAL LA QUINTA 25 DE JULIO STREET,YAUCO,PR,698,787-856-1922,not participating,measle_white,Pharmacy
"18.06104000,-66.86116400",FARMACIA BARINAS,CARR. 335 KM 1.5 BO. BARINAS,YAUCO,PR,6982712,787-856-4966,not participating,measle_white,Pharmacy
"18.06104000,-66.86116400",FARMACIA LA AURORA,BO DIEGO HERNANDEZ CARR 128 KM 3.3,YAUCO,PR,698,787-856-0023,open,small_green,Pharmacy
"18.06104000,-66.86116400",WALGREENS,RD 2 AND MAIN ST,YAUCO,PR,698,787-267-5727,closed,small_red,Pharmacy
"18.06104000,-66.86116400",KMART PHARMACY7752,"Centro Comercial Yauco Plaza II, Carr. 128",YAUCO,PR,698,787-267-6611,not participating,measle_white,Pharmacy
"18.06104000,-66.86116400",FARMACIA LA FE REFORMADA,CARR 371 KM 1 7 BO ALMACIGO BAJO,YAUCO,PR,698,787-267-2007,not participating,measle_white,Pharmacy
"18.06104000,-66.86116400",Farmacia International Drug,CARR 128 KM 1.0,YAUCO,PR,698,787-267-5424,not participating,measle_white,Pharmacy
"18.02579500,-66.86179900",PUERTO RICO PHARMACY CARE INC,CALLE 65 INFANTERIA A 1,YAUCO,PR,698,787-267-5817,not participating,measle_white,Pharmacy
"18.06104000,-66.86116400",Farmacia Imperial,carr. 128 km 2.2 local #110 Yauco Gallery,Yauco,PR,698,787-267-7780,not participating,measle_white,Pharmacy
"18.02579500,-66.86179900",Farmacia Santa Rita De casia,Calle Munoz Rivera #47,Yauco,PR,698,787-992-7131,not participating,measle_white,Pharmacy
"18.06104000,-66.86116400",FARMACIA SAN PEDRO,CARR 121 KM 13.3 SECTOR CUATRO CALLES BO. SUSUA BAJA,YAUCO,PR,698,787-923-7178,open,small_green,Pharmacy
